{
  "id": 554936747,
  "type": "Feature",
  "properties": {
    "edtf:cessation":"uuuu",
    "edtf:inception":"uuuu",
    "geom:area":0.0,
    "geom:bbox":"-73.666949,41.106076,-73.666949,41.106076",
    "geom:latitude":41.106076,
    "geom:longitude":-73.666949,
    "iso:country":"US",
    "sg:address":"481 Round Hill Rd",
    "sg:city":"Greenwich",
    "sg:classifiers":[
        {
            "category":"Building & Trades",
            "subcategory":"Equipment Rental",
            "type":"Services"
        }
    ],
    "sg:owner":"simplegeo",
    "sg:phone":"+1   ",
    "sg:postcode":"06831",
    "sg:province":"NY",
    "src:geom":"simplegeo",
    "wof:belongsto":[
        85688629,
        85633793,
        85837667,
        102084283
    ],
    "wof:breaches":[],
    "wof:concordances":{
        "sg:id":"SG_2bEkjb9pAR1aouViLXTV1h_41.106076_-73.666949@1294177022"
    },
    "wof:country":"US",
    "wof:geomhash":"a2f7acb46a771d7c6588a38df0fcfbb6",
    "wof:hierarchy":[
        {
            "country_id":85633793,
            "county_id":102084283,
            "neighbourhood_id":85837667,
            "region_id":85688629,
            "venue_id":554936747
        }
    ],
    "wof:id":554936747,
    "wof:lastmodified":1461017270,
    "wof:name":"Ledbetter Leasing Corp",
    "wof:parent_id":85837667,
    "wof:placetype":"venue",
    "wof:superseded_by":[],
    "wof:supersedes":[],
    "wof:tags":[]
},
  "bbox": [
    -73.666949,
    41.106076,
    -73.666949,
    41.106076
],
  "geometry": {"coordinates":[-73.666949,41.106076],"type":"Point"}
}