{
  "id": 554935607,
  "type": "Feature",
  "properties": {
    "edtf:cessation":"uuuu",
    "edtf:inception":"uuuu",
    "geom:area":0.0,
    "geom:bbox":"-73.674368,41.111505,-73.674368,41.111505",
    "geom:latitude":41.111505,
    "geom:longitude":-73.674368,
    "iso:country":"US",
    "sg:address":"86 Buckfield Ln",
    "sg:city":"Greenwich",
    "sg:classifiers":[
        {
            "category":"Shopping",
            "subcategory":"Beauty & Cosmetics",
            "type":"Retail Goods"
        }
    ],
    "sg:owner":"simplegeo",
    "sg:phone":"+1 203 622 8423",
    "sg:postcode":"06831",
    "sg:province":"NY",
    "sg:tags":[
        "surgical",
        "appliance"
    ],
    "src:geom":"simplegeo",
    "wof:belongsto":[
        85688629,
        85633793,
        85837667,
        102084283
    ],
    "wof:breaches":[],
    "wof:concordances":{
        "sg:id":"SG_664sBl4bHq5tyw80nQ18ou_41.111505_-73.674368@1294177022"
    },
    "wof:country":"US",
    "wof:geomhash":"5debf3b6b4d6414fe538f41065dc2370",
    "wof:hierarchy":[
        {
            "country_id":85633793,
            "county_id":102084283,
            "neighbourhood_id":85837667,
            "region_id":85688629,
            "venue_id":554935607
        }
    ],
    "wof:id":554935607,
    "wof:lastmodified":1461017095,
    "wof:name":"Endo Surgical Concepts",
    "wof:parent_id":85837667,
    "wof:placetype":"venue",
    "wof:superseded_by":[],
    "wof:supersedes":[],
    "wof:tags":[
        "surgical",
        "appliance"
    ]
},
  "bbox": [
    -73.674368,
    41.111505,
    -73.674368,
    41.111505
],
  "geometry": {"coordinates":[-73.674368,41.111505],"type":"Point"}
}