{
  "id": 572170217,
  "type": "Feature",
  "properties": {
    "edtf:cessation":"uuuu",
    "edtf:inception":"uuuu",
    "geom:area":0.0,
    "geom:bbox":"-74.247137,40.630326,-74.247137,40.630326",
    "geom:latitude":40.630326,
    "geom:longitude":-74.247137,
    "iso:country":"US",
    "sg:address":"7404 5th Ave",
    "sg:city":"Brooklyn",
    "sg:classifiers":[
        {
            "category":"Health Services",
            "subcategory":"Doctor",
            "type":"Services"
        }
    ],
    "sg:owner":"simplegeo",
    "sg:phone":"+1 718 765 4191",
    "sg:postcode":"11209",
    "sg:province":"NY",
    "src:geom":"simplegeo",
    "wof:belongsto":[
        85804971,
        102191575,
        404478503,
        85633793,
        85975837,
        102085995,
        85688607
    ],
    "wof:breaches":[],
    "wof:concordances":{
        "sg:id":"SG_7lVhafsP3GJLMS3y0J5CRA_40.630326_-74.247137@1303262338"
    },
    "wof:country":"US",
    "wof:geomhash":"af06fb0e3710f4c54d51a8b968a5fb04",
    "wof:hierarchy":[
        {
            "continent_id":102191575,
            "country_id":85633793,
            "county_id":102085995,
            "localadmin_id":404478503,
            "locality_id":85975837,
            "neighbourhood_id":85804971,
            "region_id":85688607,
            "venue_id":572170217
        }
    ],
    "wof:id":572170217,
    "wof:lastmodified":1461051414,
    "wof:name":"New York Sleep Medical Svces",
    "wof:parent_id":85804971,
    "wof:placetype":"venue",
    "wof:superseded_by":[],
    "wof:supersedes":[],
    "wof:tags":[]
},
  "bbox": [
    -74.247137,
    40.630326,
    -74.247137,
    40.630326
],
  "geometry": {"coordinates":[-74.247137,40.630326],"type":"Point"}
}