{
  "id": 554934027,
  "type": "Feature",
  "properties": {
    "edtf:cessation":"uuuu",
    "edtf:inception":"uuuu",
    "geom:area":0.0,
    "geom:bbox":"-73.245359,42.568777,-73.245359,42.568777",
    "geom:latitude":42.568777,
    "geom:longitude":-73.245359,
    "iso:country":"US",
    "sg:address":"15 Scott Rd",
    "sg:city":"Lanesboro",
    "sg:classifiers":[
        {
            "category":"Travel",
            "subcategory":"Campground",
            "type":"Entertainment"
        }
    ],
    "sg:owner":"simplegeo",
    "sg:phone":"+1 413 447 9419",
    "sg:postcode":"01237",
    "sg:province":"NY",
    "src:geom":"simplegeo",
    "wof:belongsto":[
        85688645,
        85633793,
        85818993,
        102084369
    ],
    "wof:breaches":[],
    "wof:concordances":{
        "sg:id":"SG_4vZd1m4gyCXyt43MeNCzIc_42.568777_-73.245359@1294177022"
    },
    "wof:country":"US",
    "wof:geomhash":"30c8db845147e77786f2ef07e16d95a5",
    "wof:hierarchy":[
        {
            "country_id":85633793,
            "county_id":102084369,
            "neighbourhood_id":85818993,
            "region_id":85688645,
            "venue_id":554934027
        }
    ],
    "wof:id":554934027,
    "wof:lastmodified":1461016885,
    "wof:name":"Hidden Valley Campground",
    "wof:parent_id":85818993,
    "wof:placetype":"venue",
    "wof:superseded_by":[],
    "wof:supersedes":[],
    "wof:tags":[]
},
  "bbox": [
    -73.245359,
    42.568777,
    -73.245359,
    42.568777
],
  "geometry": {"coordinates":[-73.24535899999999,42.568777],"type":"Point"}
}