{
  "id": 554940443,
  "type": "Feature",
  "properties": {
    "edtf:cessation":"uuuu",
    "edtf:inception":"uuuu",
    "geom:area":0.0,
    "geom:bbox":"-73.669283,41.037299,-73.669283,41.037299",
    "geom:latitude":41.037299,
    "geom:longitude":-73.669283,
    "iso:country":"US",
    "sg:address":"18 Curt Ter",
    "sg:city":"Greenwich",
    "sg:classifiers":[
        {
            "category":"Building & Trades",
            "subcategory":"Construction",
            "type":"Services"
        }
    ],
    "sg:owner":"simplegeo",
    "sg:phone":"+1 203 531 4816",
    "sg:postcode":"06831",
    "sg:province":"NY",
    "sg:tags":[
        "paving",
        "contractor"
    ],
    "src:geom":"simplegeo",
    "wof:belongsto":[
        420555461,
        102191575,
        404495949,
        85633793,
        85930937,
        102084283,
        85688629
    ],
    "wof:breaches":[],
    "wof:concordances":{
        "sg:id":"SG_5F44BnRhHgk3kqOFmnIfJW_41.037299_-73.669283@1294177022"
    },
    "wof:country":"US",
    "wof:geomhash":"13afe934697eeeea853e8f08da0bfb44",
    "wof:hierarchy":[
        {
            "continent_id":102191575,
            "country_id":85633793,
            "county_id":102084283,
            "localadmin_id":404495949,
            "locality_id":85930937,
            "neighbourhood_id":420555461,
            "region_id":85688629,
            "venue_id":554940443
        }
    ],
    "wof:id":554940443,
    "wof:lastmodified":1461017653,
    "wof:name":"Forgione Brothers Paving Contr",
    "wof:parent_id":420555461,
    "wof:placetype":"venue",
    "wof:superseded_by":[],
    "wof:supersedes":[],
    "wof:tags":[
        "paving",
        "contractor"
    ]
},
  "bbox": [
    -73.669283,
    41.037299,
    -73.669283,
    41.037299
],
  "geometry": {"coordinates":[-73.66928299999999,41.037299],"type":"Point"}
}