{
  "id": 555620313,
  "type": "Feature",
  "properties": {
    "edtf:cessation":"uuuu",
    "edtf:inception":"uuuu",
    "geom:area":0.0,
    "geom:bbox":"-74.56622,42.904843,-74.56622,42.904843",
    "geom:latitude":42.904843,
    "geom:longitude":-74.56622,
    "iso:country":"US",
    "sg:address":"19 Front St",
    "sg:city":"Canajoharie",
    "sg:classifiers":[
        {
            "category":"Organizations",
            "subcategory":"Religious Organization",
            "type":"Services"
        }
    ],
    "sg:owner":"simplegeo",
    "sg:phone":"+1 518 673 2816",
    "sg:postcode":"13317",
    "sg:province":"NY",
    "sg:tags":[
        "church"
    ],
    "src:geom":"simplegeo",
    "wof:belongsto":[],
    "wof:breaches":[],
    "wof:concordances":{
        "sg:id":"SG_0nVlENPf1PrvXYlzLaTKCU_42.904843_-74.566220@1294177022"
    },
    "wof:country":"US",
    "wof:geomhash":"9bdbf3fa54e8279312b598cfbbb50ced",
    "wof:hierarchy":[],
    "wof:id":555620313,
    "wof:lastmodified":1461034008,
    "wof:name":"Reformed Church",
    "wof:parent_id":-1,
    "wof:placetype":"venue",
    "wof:superseded_by":[],
    "wof:supersedes":[],
    "wof:tags":[
        "church"
    ]
},
  "bbox": [
    -74.56622,
    42.904843,
    -74.56622,
    42.904843
],
  "geometry": {"coordinates":[-74.56622,42.904843],"type":"Point"}
}