{
  "id": 554936629,
  "type": "Feature",
  "properties": {
    "edtf:cessation":"uuuu",
    "edtf:inception":"uuuu",
    "geom:area":0.0,
    "geom:bbox":"-79.715404,42.264733,-79.715404,42.264733",
    "geom:latitude":42.264733,
    "geom:longitude":-79.715404,
    "iso:country":"US",
    "sg:address":"92 Main St",
    "sg:city":"Ripley",
    "sg:classifiers":[
        {
            "category":"Wholesale",
            "subcategory":"Non-durable Goods",
            "type":"Manufacturing & Wholesale Goods"
        }
    ],
    "sg:owner":"simplegeo",
    "sg:phone":"+1 716 736 3150",
    "sg:postcode":"14775",
    "sg:province":"NY",
    "src:geom":"simplegeo",
    "wof:belongsto":[
        85688481,
        85633793,
        85850957,
        102080955
    ],
    "wof:breaches":[],
    "wof:concordances":{
        "sg:id":"SG_0rvvB67soA8ndbgBL0PRv0_42.264733_-79.715404@1294177022"
    },
    "wof:country":"US",
    "wof:geomhash":"e1bdf43d9f7e94d0fe31a1cad08853e6",
    "wof:hierarchy":[
        {
            "country_id":85633793,
            "county_id":102080955,
            "neighbourhood_id":85850957,
            "region_id":85688481,
            "venue_id":554936629
        }
    ],
    "wof:id":554936629,
    "wof:lastmodified":1461017249,
    "wof:name":"Family Crafting",
    "wof:parent_id":85850957,
    "wof:placetype":"venue",
    "wof:superseded_by":[],
    "wof:supersedes":[],
    "wof:tags":[]
},
  "bbox": [
    -79.715404,
    42.264733,
    -79.715404,
    42.264733
],
  "geometry": {"coordinates":[-79.71540400000001,42.264733],"type":"Point"}
}