{
  "id": 554934503,
  "type": "Feature",
  "properties": {
    "edtf:cessation":"uuuu",
    "edtf:inception":"uuuu",
    "geom:area":0.0,
    "geom:bbox":"-73.635635,41.143285,-73.635635,41.143285",
    "geom:latitude":41.143285,
    "geom:longitude":-73.635635,
    "iso:country":"US",
    "sg:address":"12 Banksville Rd",
    "sg:city":"Greenwich",
    "sg:classifiers":[
        {
            "category":"Social Services",
            "subcategory":"Child Care",
            "type":"Services"
        }
    ],
    "sg:owner":"simplegeo",
    "sg:phone":"+1   ",
    "sg:postcode":"06831",
    "sg:province":"NY",
    "sg:tags":[
        "organization",
        "religious",
        "day"
    ],
    "src:geom":"simplegeo",
    "wof:belongsto":[
        85688629,
        85633793,
        85850923,
        102084283
    ],
    "wof:breaches":[],
    "wof:concordances":{
        "sg:id":"SG_1S9FAr3FNuoIOivet2c0Eu_41.143285_-73.635635@1294177022"
    },
    "wof:country":"US",
    "wof:geomhash":"7f31c238b3f9c5c1efc1199caeb7d22f",
    "wof:hierarchy":[
        {
            "country_id":85633793,
            "county_id":102084283,
            "neighbourhood_id":85850923,
            "region_id":85688629,
            "venue_id":554934503
        }
    ],
    "wof:id":554934503,
    "wof:lastmodified":1461016947,
    "wof:name":"Banksville Nursery School",
    "wof:parent_id":85850923,
    "wof:placetype":"venue",
    "wof:superseded_by":[],
    "wof:supersedes":[],
    "wof:tags":[
        "organization",
        "religious",
        "day"
    ]
},
  "bbox": [
    -73.635635,
    41.143285,
    -73.635635,
    41.143285
],
  "geometry": {"coordinates":[-73.63563499999999,41.143285],"type":"Point"}
}