{
  "id": 554936673,
  "type": "Feature",
  "properties": {
    "edtf:cessation":"uuuu",
    "edtf:inception":"uuuu",
    "geom:area":0.0,
    "geom:bbox":"-73.502511,41.186426,-73.502511,41.186426",
    "geom:latitude":41.186426,
    "geom:longitude":-73.502511,
    "iso:country":"US",
    "sg:address":"230 N Wilton Rd",
    "sg:city":"New Canaan",
    "sg:classifiers":[
        {
            "category":"Shopping",
            "subcategory":"Gifts & Souvenirs",
            "type":"Retail Goods"
        }
    ],
    "sg:owner":"simplegeo",
    "sg:phone":"+1 203 966 0530",
    "sg:postcode":"06840",
    "sg:province":"NY",
    "sg:tags":[
        "basket",
        "parcel"
    ],
    "src:geom":"simplegeo",
    "wof:belongsto":[],
    "wof:breaches":[],
    "wof:concordances":{
        "sg:id":"SG_1uiF6giiLKfq7eVOGJ1xZv_41.186426_-73.502511@1294177022"
    },
    "wof:country":"US",
    "wof:geomhash":"dd087aea871bd78d0291a49cc9db193e",
    "wof:hierarchy":[],
    "wof:id":554936673,
    "wof:lastmodified":1461017255,
    "wof:name":"June USA Inc",
    "wof:parent_id":-1,
    "wof:placetype":"venue",
    "wof:superseded_by":[],
    "wof:supersedes":[],
    "wof:tags":[
        "basket",
        "parcel"
    ]
},
  "bbox": [
    -73.502511,
    41.186426,
    -73.502511,
    41.186426
],
  "geometry": {"coordinates":[-73.502511,41.186426],"type":"Point"}
}