{
  "id": 571628553,
  "type": "Feature",
  "properties": {
    "edtf:cessation":"uuuu",
    "edtf:inception":"uuuu",
    "geom:area":0.0,
    "geom:bbox":"-77.938495,43.215485,-77.938495,43.215485",
    "geom:latitude":43.215485,
    "geom:longitude":-77.938495,
    "iso:country":"US",
    "sg:address":"56 Main St",
    "sg:city":"Brockport",
    "sg:classifiers":[
        {
            "category":"Restaurant",
            "subcategory":"",
            "type":"Food & Drink"
        }
    ],
    "sg:owner":"simplegeo",
    "sg:phone":"+1 585 637 9330",
    "sg:postcode":"14420",
    "sg:province":"NY",
    "sg:tags":[
        "shop",
        "coffee",
        "retail",
        "eating",
        "bakery"
    ],
    "src:geom":"simplegeo",
    "wof:belongsto":[],
    "wof:breaches":[],
    "wof:concordances":{
        "sg:id":"SG_4iz2cgzs74cjw2DVuXzQFd_43.215351_-77.938641@1293134755"
    },
    "wof:country":"US",
    "wof:geomhash":"dbb303073ce4b4773833f0f877a27a74",
    "wof:hierarchy":[],
    "wof:id":571628553,
    "wof:lastmodified":1461040066,
    "wof:name":"Java Junction",
    "wof:parent_id":-1,
    "wof:placetype":"venue",
    "wof:superseded_by":[],
    "wof:supersedes":[],
    "wof:tags":[
        "shop",
        "coffee",
        "retail",
        "eating",
        "bakery"
    ]
},
  "bbox": [
    -77.938495,
    43.215485,
    -77.938495,
    43.215485
],
  "geometry": {"coordinates":[-77.938495,43.215485],"type":"Point"}
}