{
  "id": 554940143,
  "type": "Feature",
  "properties": {
    "edtf:cessation":"uuuu",
    "edtf:inception":"uuuu",
    "geom:area":0.0,
    "geom:bbox":"-73.708413,41.081781,-73.708413,41.081781",
    "geom:latitude":41.081781,
    "geom:longitude":-73.708413,
    "iso:country":"US",
    "sg:address":"34 Bedford Rd",
    "sg:city":"Greenwich",
    "sg:classifiers":[
        {
            "category":"Building & Trades",
            "subcategory":"Equipment Rental",
            "type":"Services"
        }
    ],
    "sg:owner":"simplegeo",
    "sg:phone":"+1   ",
    "sg:postcode":"06831",
    "sg:province":"NY",
    "src:geom":"simplegeo",
    "wof:belongsto":[
        85688629,
        85633793,
        85837667,
        102084283
    ],
    "wof:breaches":[],
    "wof:concordances":{
        "sg:id":"SG_3umJGnZrmIpw5CodusxYh2_41.081781_-73.708413@1294177022"
    },
    "wof:country":"US",
    "wof:geomhash":"ce494970fddac03ca6bf812a63885cd0",
    "wof:hierarchy":[
        {
            "country_id":85633793,
            "county_id":102084283,
            "neighbourhood_id":85837667,
            "region_id":85688629,
            "venue_id":554940143
        }
    ],
    "wof:id":554940143,
    "wof:lastmodified":1461017629,
    "wof:name":"Gateway Helicopters Inc",
    "wof:parent_id":85837667,
    "wof:placetype":"venue",
    "wof:superseded_by":[],
    "wof:supersedes":[],
    "wof:tags":[]
},
  "bbox": [
    -73.708413,
    41.081781,
    -73.708413,
    41.081781
],
  "geometry": {"coordinates":[-73.70841299999999,41.081781],"type":"Point"}
}