{
  "id": 554941787,
  "type": "Feature",
  "properties": {
    "edtf:cessation":"uuuu",
    "edtf:inception":"uuuu",
    "geom:area":0.0,
    "geom:bbox":"-73.494717,41.135072,-73.494717,41.135072",
    "geom:latitude":41.135072,
    "geom:longitude":-73.494717,
    "iso:country":"US",
    "sg:address":"46 Oak Grove Pl",
    "sg:city":"New Canaan",
    "sg:classifiers":[
        {
            "category":"Building & Trades",
            "subcategory":"Construction",
            "type":"Services"
        }
    ],
    "sg:owner":"simplegeo",
    "sg:phone":"+1 203 972 1937",
    "sg:postcode":"06840",
    "sg:province":"NY",
    "sg:tags":[
        "roofing",
        "contractor"
    ],
    "src:geom":"simplegeo",
    "wof:belongsto":[
        85688629,
        85633793,
        85851779,
        102084283
    ],
    "wof:breaches":[],
    "wof:concordances":{
        "sg:id":"SG_4togZfONWsFfLbpzqe31dY_41.135072_-73.494717@1294177022"
    },
    "wof:country":"US",
    "wof:geomhash":"1e953c0f19533c9eaf430fed714316de",
    "wof:hierarchy":[
        {
            "country_id":85633793,
            "county_id":102084283,
            "neighbourhood_id":85851779,
            "region_id":85688629,
            "venue_id":554941787
        }
    ],
    "wof:id":554941787,
    "wof:lastmodified":1461017807,
    "wof:name":"Pennington Roofing Inc",
    "wof:parent_id":85851779,
    "wof:placetype":"venue",
    "wof:superseded_by":[],
    "wof:supersedes":[],
    "wof:tags":[
        "roofing",
        "contractor"
    ]
},
  "bbox": [
    -73.494717,
    41.135072,
    -73.494717,
    41.135072
],
  "geometry": {"coordinates":[-73.49471699999999,41.135072],"type":"Point"}
}