{
  "id": 554940303,
  "type": "Feature",
  "properties": {
    "edtf:cessation":"uuuu",
    "edtf:inception":"uuuu",
    "geom:area":0.0,
    "geom:bbox":"-73.494069,41.132328,-73.494069,41.132328",
    "geom:latitude":41.132328,
    "geom:longitude":-73.494069,
    "iso:country":"US",
    "sg:address":"137 Gower Rd",
    "sg:city":"New Canaan",
    "sg:classifiers":[
        {
            "category":"Professional",
            "subcategory":"Business Services",
            "type":"Services"
        }
    ],
    "sg:owner":"simplegeo",
    "sg:phone":"+1   ",
    "sg:postcode":"06840",
    "sg:province":"NY",
    "src:geom":"simplegeo",
    "wof:belongsto":[
        85688629,
        85633793,
        85851779,
        102084283
    ],
    "wof:breaches":[],
    "wof:concordances":{
        "sg:id":"SG_7QHYPyCbQasIgZl4kFvQKK_41.132328_-73.494069@1294177022"
    },
    "wof:country":"US",
    "wof:geomhash":"07b46c636216e74e9ac0ae762ff4a7d2",
    "wof:hierarchy":[
        {
            "country_id":85633793,
            "county_id":102084283,
            "neighbourhood_id":85851779,
            "region_id":85688629,
            "venue_id":554940303
        }
    ],
    "wof:id":554940303,
    "wof:lastmodified":1461017641,
    "wof:name":"Simple Solutions LLC",
    "wof:parent_id":85851779,
    "wof:placetype":"venue",
    "wof:superseded_by":[],
    "wof:supersedes":[],
    "wof:tags":[]
},
  "bbox": [
    -73.494069,
    41.132328,
    -73.494069,
    41.132328
],
  "geometry": {"coordinates":[-73.494069,41.132328],"type":"Point"}
}