{
  "id": 572175779,
  "type": "Feature",
  "properties": {
    "edtf:cessation":"uuuu",
    "edtf:inception":"uuuu",
    "geom:area":0.0,
    "geom:bbox":"-72.327194,41.321023,-72.327194,41.321023",
    "geom:latitude":41.321023,
    "geom:longitude":-72.327194,
    "iso:country":"US",
    "sg:address":"35 S Ferry Rd",
    "sg:city":"Shelter Island",
    "sg:classifiers":[
        {
            "category":"Retail",
            "subcategory":"Auto Repair",
            "type":"Services"
        }
    ],
    "sg:owner":"simplegeo",
    "sg:phone":"+1 800 757 9579",
    "sg:postcode":"11964",
    "sg:province":"NY",
    "src:geom":"simplegeo",
    "wof:belongsto":[
        85688629,
        85633793,
        85831737,
        102084295
    ],
    "wof:breaches":[],
    "wof:concordances":{
        "sg:id":"SG_1MiYQtS9VSaWkPCjMxVzcW_41.321023_-72.327194@1303262383"
    },
    "wof:country":"US",
    "wof:geomhash":"8807ae10c1fdad96b9900c5ee5c9fdd2",
    "wof:hierarchy":[
        {
            "country_id":85633793,
            "county_id":102084295,
            "neighbourhood_id":85831737,
            "region_id":85688629,
            "venue_id":572175779
        }
    ],
    "wof:id":572175779,
    "wof:lastmodified":1461051592,
    "wof:name":"George's Car Care",
    "wof:parent_id":85831737,
    "wof:placetype":"venue",
    "wof:superseded_by":[],
    "wof:supersedes":[],
    "wof:tags":[]
},
  "bbox": [
    -72.327194,
    41.321023,
    -72.327194,
    41.321023
],
  "geometry": {"coordinates":[-72.32719400000001,41.321023],"type":"Point"}
}