{
  "id": 554935079,
  "type": "Feature",
  "properties": {
    "edtf:cessation":"uuuu",
    "edtf:inception":"uuuu",
    "geom:area":0.0,
    "geom:bbox":"-74.151007,41.109684,-74.151007,41.109684",
    "geom:latitude":41.109684,
    "geom:longitude":-74.151007,
    "iso:country":"US",
    "sg:address":"198 Orange Ave",
    "sg:city":"Suffern",
    "sg:classifiers":[
        {
            "category":"Professional",
            "subcategory":"Lawyer & Legal Services",
            "type":"Services"
        }
    ],
    "sg:owner":"simplegeo",
    "sg:phone":"+1 845 369 8989",
    "sg:postcode":"10901",
    "sg:province":"NY",
    "src:geom":"simplegeo",
    "wof:belongsto":[
        85855885,
        102191575,
        404523097,
        85633793,
        85978523,
        102082385,
        85688543
    ],
    "wof:breaches":[],
    "wof:concordances":{
        "sg:id":"SG_5fwdyPyr6TCmYxkUNGbXnc_41.109684_-74.151007@1294177022"
    },
    "wof:country":"US",
    "wof:geomhash":"19416e63eaacd64b8b687f64363b1c4e",
    "wof:hierarchy":[
        {
            "continent_id":102191575,
            "country_id":85633793,
            "county_id":102082385,
            "localadmin_id":404523097,
            "locality_id":85978523,
            "neighbourhood_id":85855885,
            "region_id":85688543,
            "venue_id":554935079
        }
    ],
    "wof:id":554935079,
    "wof:lastmodified":1461017020,
    "wof:name":"Scott M Albrecht PC",
    "wof:parent_id":85855885,
    "wof:placetype":"venue",
    "wof:superseded_by":[],
    "wof:supersedes":[],
    "wof:tags":[]
},
  "bbox": [
    -74.151007,
    41.109684,
    -74.151007,
    41.109684
],
  "geometry": {"coordinates":[-74.15100700000001,41.109684],"type":"Point"}
}