{
  "id": 554935033,
  "type": "Feature",
  "properties": {
    "edtf:cessation":"uuuu",
    "edtf:inception":"uuuu",
    "geom:area":0.0,
    "geom:bbox":"-73.65586,41.031887,-73.65586,41.031887",
    "geom:latitude":41.031887,
    "geom:longitude":-73.65586,
    "iso:country":"US",
    "sg:address":"15 Flintlock Rd",
    "sg:city":"Greenwich",
    "sg:classifiers":[
        {
            "category":"Wholesale",
            "subcategory":"Chemicals & Plastics",
            "type":"Manufacturing & Wholesale Goods"
        }
    ],
    "sg:owner":"simplegeo",
    "sg:phone":"+1 203 629 1072",
    "sg:postcode":"06831",
    "sg:province":"NY",
    "src:geom":"simplegeo",
    "wof:belongsto":[
        420555529,
        102191575,
        404495949,
        85633793,
        85930941,
        102084283,
        85688629
    ],
    "wof:breaches":[],
    "wof:concordances":{
        "sg:id":"SG_3irO0WRgUZgj2xcd0K59oX_41.031887_-73.655860@1294177022"
    },
    "wof:country":"US",
    "wof:geomhash":"020b6d68c32777e4b7d5f5beb590203d",
    "wof:hierarchy":[
        {
            "continent_id":102191575,
            "country_id":85633793,
            "county_id":102084283,
            "localadmin_id":404495949,
            "locality_id":85930941,
            "neighbourhood_id":420555529,
            "region_id":85688629,
            "venue_id":554935033
        }
    ],
    "wof:id":554935033,
    "wof:lastmodified":1461017013,
    "wof:name":"Berolina Corp Of America",
    "wof:parent_id":420555529,
    "wof:placetype":"venue",
    "wof:superseded_by":[],
    "wof:supersedes":[],
    "wof:tags":[]
},
  "bbox": [
    -73.65586,
    41.031887,
    -73.65586,
    41.031887
],
  "geometry": {"coordinates":[-73.65586,41.031887],"type":"Point"}
}