{
  "id": 554934005,
  "type": "Feature",
  "properties": {
    "edtf:cessation":"uuuu",
    "edtf:inception":"uuuu",
    "geom:area":0.0,
    "geom:bbox":"-73.645186,41.0255,-73.645186,41.0255",
    "geom:latitude":41.0255,
    "geom:longitude":-73.645186,
    "iso:country":"US",
    "sg:address":"18 Flower Ln",
    "sg:city":"Greenwich",
    "sg:classifiers":[
        {
            "category":"Professional",
            "subcategory":"",
            "type":"Services"
        }
    ],
    "sg:owner":"simplegeo",
    "sg:phone":"+1 203 661 9580",
    "sg:postcode":"06831",
    "sg:province":"NY",
    "src:geom":"simplegeo",
    "wof:belongsto":[
        85885307,
        102191575,
        404495949,
        85633793,
        85930941,
        102084283,
        85688629,
        420555529
    ],
    "wof:breaches":[],
    "wof:concordances":{
        "sg:id":"SG_5OPlNqUUOnhcVYUMMTk0DX_41.025500_-73.645186@1294177022"
    },
    "wof:country":"US",
    "wof:geomhash":"eb9060ca0e5da8b525c4878ea9686879",
    "wof:hierarchy":[
        {
            "continent_id":102191575,
            "country_id":85633793,
            "county_id":102084283,
            "localadmin_id":404495949,
            "locality_id":85930941,
            "neighbourhood_id":85885307,
            "region_id":85688629,
            "venue_id":554934005
        },
        {
            "continent_id":102191575,
            "country_id":85633793,
            "county_id":102084283,
            "localadmin_id":404495949,
            "locality_id":85930941,
            "neighbourhood_id":420555529,
            "region_id":85688629,
            "venue_id":554934005
        }
    ],
    "wof:id":554934005,
    "wof:lastmodified":1461016883,
    "wof:name":"Connecticut State Committee",
    "wof:parent_id":-1,
    "wof:placetype":"venue",
    "wof:superseded_by":[],
    "wof:supersedes":[],
    "wof:tags":[]
},
  "bbox": [
    -73.645186,
    41.0255,
    -73.645186,
    41.0255
],
  "geometry": {"coordinates":[-73.645186,41.0255],"type":"Point"}
}