{
  "id": 571651997,
  "type": "Feature",
  "properties": {
    "edtf:cessation":"uuuu",
    "edtf:inception":"uuuu",
    "geom:area":0.0,
    "geom:bbox":"-73.400018,40.681622,-73.400018,40.681622",
    "geom:latitude":40.681622,
    "geom:longitude":-73.400018,
    "iso:country":"US",
    "sg:address":"1909 Great Neck Rd",
    "sg:city":"Copiague",
    "sg:classifiers":[
        {
            "category":"Travel",
            "subcategory":"Travel Agent",
            "type":"Entertainment"
        }
    ],
    "sg:owner":"simplegeo",
    "sg:phone":"+1 631 789 1227",
    "sg:postcode":"11726",
    "sg:province":"NY",
    "sg:tags":[
        "passenger",
        "agency",
        "transportation",
        "arrangement"
    ],
    "src:geom":"simplegeo",
    "wof:belongsto":[],
    "wof:breaches":[],
    "wof:concordances":{
        "sg:id":"SG_6gsX0Ta4zn661dXiV57MHA_40.681774_-73.400177@1293134755"
    },
    "wof:country":"US",
    "wof:geomhash":"bc5df5438d93b7775d727869c7a5b2e1",
    "wof:hierarchy":[],
    "wof:id":571651997,
    "wof:lastmodified":1461040565,
    "wof:name":"Express Travel",
    "wof:parent_id":-1,
    "wof:placetype":"venue",
    "wof:superseded_by":[],
    "wof:supersedes":[],
    "wof:tags":[
        "passenger",
        "agency",
        "transportation",
        "arrangement"
    ]
},
  "bbox": [
    -73.400018,
    40.681622,
    -73.400018,
    40.681622
],
  "geometry": {"coordinates":[-73.400018,40.681622],"type":"Point"}
}