{
  "id": 554938773,
  "type": "Feature",
  "properties": {
    "edtf:cessation":"uuuu",
    "edtf:inception":"uuuu",
    "geom:area":0.0,
    "geom:bbox":"-73.667795,41.092996,-73.667795,41.092996",
    "geom:latitude":41.092996,
    "geom:longitude":-73.667795,
    "iso:country":"US",
    "sg:address":"397 Round Hill Rd",
    "sg:city":"Greenwich",
    "sg:classifiers":[
        {
            "category":"Recreation",
            "subcategory":"",
            "type":"Entertainment"
        }
    ],
    "sg:owner":"simplegeo",
    "sg:phone":"+1 203 531 9600",
    "sg:postcode":"06831",
    "sg:province":"NY",
    "sg:tags":[
        "instruction",
        "gymnastic"
    ],
    "src:geom":"simplegeo",
    "wof:belongsto":[
        85688629,
        85633793,
        85837667,
        102084283
    ],
    "wof:breaches":[],
    "wof:concordances":{
        "sg:id":"SG_0qocpBsw9YrVvO94PVpS4V_41.092996_-73.667795@1294177022"
    },
    "wof:country":"US",
    "wof:geomhash":"57db02e7c888738bc7362498387df3b8",
    "wof:hierarchy":[
        {
            "country_id":85633793,
            "county_id":102084283,
            "neighbourhood_id":85837667,
            "region_id":85688629,
            "venue_id":554938773
        }
    ],
    "wof:id":554938773,
    "wof:lastmodified":1461017502,
    "wof:name":"Jack Rabbits Gymnastics Club",
    "wof:parent_id":85837667,
    "wof:placetype":"venue",
    "wof:superseded_by":[],
    "wof:supersedes":[],
    "wof:tags":[
        "instruction",
        "gymnastic"
    ]
},
  "bbox": [
    -73.667795,
    41.092996,
    -73.667795,
    41.092996
],
  "geometry": {"coordinates":[-73.667795,41.092996],"type":"Point"}
}