{
  "id": 555132457,
  "type": "Feature",
  "properties": {
    "edtf:cessation":"uuuu",
    "edtf:inception":"uuuu",
    "geom:area":0.0,
    "geom:bbox":"-79.075748,42.12547,-79.075748,42.12547",
    "geom:latitude":42.12547,
    "geom:longitude":-79.075748,
    "iso:country":"US",
    "sg:address":"431 Ericsson Rd",
    "sg:city":"Kennedy",
    "sg:classifiers":[
        {
            "category":"Farming",
            "subcategory":"Dairy Farm",
            "type":"Manufacturing & Wholesale Goods"
        }
    ],
    "sg:owner":"simplegeo",
    "sg:phone":"+1 716 267 5705",
    "sg:postcode":"14747",
    "sg:province":"NY",
    "src:geom":"simplegeo",
    "wof:belongsto":[],
    "wof:breaches":[],
    "wof:concordances":{
        "sg:id":"SG_5BIMEXAFBan8CDzyslLT84_42.125470_-79.075748@1294177022"
    },
    "wof:country":"US",
    "wof:geomhash":"cfca707c7ac4fbe349ccefb0c3011cc4",
    "wof:hierarchy":[],
    "wof:id":555132457,
    "wof:lastmodified":1461022749,
    "wof:name":"Thomas Vanstrom",
    "wof:parent_id":420528241,
    "wof:placetype":"venue",
    "wof:superseded_by":[],
    "wof:supersedes":[],
    "wof:tags":[]
},
  "bbox": [
    -79.075748,
    42.12547,
    -79.075748,
    42.12547
],
  "geometry": {"coordinates":[-79.075748,42.12547],"type":"Point"}
}