{
  "id": 554941183,
  "type": "Feature",
  "properties": {
    "edtf:cessation":"uuuu",
    "edtf:inception":"uuuu",
    "geom:area":0.0,
    "geom:bbox":"-74.061957,41.069115,-74.061957,41.069115",
    "geom:latitude":41.069115,
    "geom:longitude":-74.061957,
    "iso:country":"US",
    "sg:address":"20 Midway Rd",
    "sg:city":"Spring Valley",
    "sg:classifiers":[
        {
            "category":"Manufacturing",
            "subcategory":"Building Materials",
            "type":"Manufacturing & Wholesale Goods"
        }
    ],
    "sg:owner":"simplegeo",
    "sg:phone":"+1   ",
    "sg:postcode":"10977",
    "sg:province":"NY",
    "sg:tags":[
        "mfg"
    ],
    "src:geom":"simplegeo",
    "wof:belongsto":[
        85853261,
        102191575,
        404523097,
        85633793,
        85978555,
        102082385,
        85688543
    ],
    "wof:breaches":[],
    "wof:concordances":{
        "sg:id":"SG_76R2I5npmKtJgvrl52tdvY_41.069115_-74.061957@1294177022"
    },
    "wof:country":"US",
    "wof:geomhash":"d3f3608a6183c188e1ad6b61097894a7",
    "wof:hierarchy":[
        {
            "continent_id":102191575,
            "country_id":85633793,
            "county_id":102082385,
            "localadmin_id":404523097,
            "locality_id":85978555,
            "neighbourhood_id":85853261,
            "region_id":85688543,
            "venue_id":554941183
        }
    ],
    "wof:id":554941183,
    "wof:lastmodified":1461017717,
    "wof:name":"D and D Woodworking Inc",
    "wof:parent_id":85853261,
    "wof:placetype":"venue",
    "wof:superseded_by":[],
    "wof:supersedes":[],
    "wof:tags":[
        "mfg"
    ]
},
  "bbox": [
    -74.061957,
    41.069115,
    -74.061957,
    41.069115
],
  "geometry": {"coordinates":[-74.06195700000001,41.069115],"type":"Point"}
}