{
  "id": 554938363,
  "type": "Feature",
  "properties": {
    "edtf:cessation":"uuuu",
    "edtf:inception":"uuuu",
    "geom:area":0.0,
    "geom:bbox":"-73.478683,41.136571,-73.478683,41.136571",
    "geom:latitude":41.136571,
    "geom:longitude":-73.478683,
    "iso:country":"US",
    "sg:address":"75 Old Norwalk Rd",
    "sg:city":"New Canaan",
    "sg:classifiers":[
        {
            "category":"Organizations",
            "subcategory":"Professional Association",
            "type":"Services"
        },
        {
            "category":"Social Services",
            "subcategory":"",
            "type":"Services"
        }
    ],
    "sg:owner":"simplegeo",
    "sg:phone":"+1 203 966 9112",
    "sg:postcode":"06840",
    "sg:province":"NY",
    "sg:tags":[
        "youth",
        "center",
        "business"
    ],
    "src:geom":"simplegeo",
    "wof:belongsto":[
        85688629,
        85633793,
        85851779,
        102084283
    ],
    "wof:breaches":[],
    "wof:concordances":{
        "sg:id":"SG_70gh7kBtjfGqmuQKeR98ss_41.136571_-73.478683@1294177022"
    },
    "wof:country":"US",
    "wof:geomhash":"5784fd765927ec9fd371b9f35fdcf9b8",
    "wof:hierarchy":[
        {
            "country_id":85633793,
            "county_id":102084283,
            "neighbourhood_id":85851779,
            "region_id":85688629,
            "venue_id":554938363
        }
    ],
    "wof:id":554938363,
    "wof:lastmodified":1461017471,
    "wof:name":"Girl Scout Merri Bee Cabin",
    "wof:parent_id":85851779,
    "wof:placetype":"venue",
    "wof:superseded_by":[],
    "wof:supersedes":[],
    "wof:tags":[
        "youth",
        "center",
        "business"
    ]
},
  "bbox": [
    -73.478683,
    41.136571,
    -73.478683,
    41.136571
],
  "geometry": {"coordinates":[-73.478683,41.136571],"type":"Point"}
}