{
  "id": 554941709,
  "type": "Feature",
  "properties": {
    "edtf:cessation":"uuuu",
    "edtf:inception":"uuuu",
    "geom:area":0.0,
    "geom:bbox":"-73.491045,41.149263,-73.491045,41.149263",
    "geom:latitude":41.149263,
    "geom:longitude":-73.491045,
    "iso:country":"US",
    "sg:address":"166 Cherry St",
    "sg:city":"New Canaan",
    "sg:classifiers":[
        {
            "category":"Health Services",
            "subcategory":"Doctor",
            "type":"Services"
        }
    ],
    "sg:owner":"simplegeo",
    "sg:phone":"+1   ",
    "sg:postcode":"06840",
    "sg:province":"NY",
    "src:geom":"simplegeo",
    "wof:belongsto":[
        85688629,
        85633793,
        85851779,
        102084283
    ],
    "wof:breaches":[],
    "wof:concordances":{
        "sg:id":"SG_58UsGX06cKXndf20IIyrM3_41.149263_-73.491045@1294177022"
    },
    "wof:country":"US",
    "wof:geomhash":"7d3e93d995ef548777aff123a96a640a",
    "wof:hierarchy":[
        {
            "country_id":85633793,
            "county_id":102084283,
            "neighbourhood_id":85851779,
            "region_id":85688629,
            "venue_id":554941709
        }
    ],
    "wof:id":554941709,
    "wof:lastmodified":1461017791,
    "wof:name":"Philip Pacelli MD DMD",
    "wof:parent_id":85851779,
    "wof:placetype":"venue",
    "wof:superseded_by":[],
    "wof:supersedes":[],
    "wof:tags":[]
},
  "bbox": [
    -73.491045,
    41.149263,
    -73.491045,
    41.149263
],
  "geometry": {"coordinates":[-73.491045,41.149263],"type":"Point"}
}