{
  "id": 554934347,
  "type": "Feature",
  "properties": {
    "edtf:cessation":"uuuu",
    "edtf:inception":"uuuu",
    "geom:area":0.0,
    "geom:bbox":"-77.313203,41.989159,-77.313203,41.989159",
    "geom:latitude":41.989159,
    "geom:longitude":-77.313203,
    "iso:country":"US",
    "sg:address":"106 Parkhurst St",
    "sg:city":"Elkland",
    "sg:classifiers":[
        {
            "category":"Health Services",
            "subcategory":"Doctor",
            "type":"Services"
        }
    ],
    "sg:owner":"simplegeo",
    "sg:phone":"+1 814 258 7443",
    "sg:postcode":"16920",
    "sg:province":"NY",
    "sg:tags":[
        "dentist"
    ],
    "src:geom":"simplegeo",
    "wof:belongsto":[
        85688481,
        85633793,
        101717081,
        102080937,
        85807903
    ],
    "wof:breaches":[],
    "wof:concordances":{
        "sg:id":"SG_2brjPgkdut0C2uDNAhGBPt_41.989159_-77.313203@1294177022"
    },
    "wof:country":"US",
    "wof:geomhash":"6e1c8fd1bbd2c29ac174496de6166ca0",
    "wof:hierarchy":[
        {
            "country_id":85633793,
            "county_id":102080937,
            "locality_id":101717081,
            "neighbourhood_id":85807903,
            "region_id":85688481,
            "venue_id":554934347
        }
    ],
    "wof:id":554934347,
    "wof:lastmodified":1461016929,
    "wof:name":"Tioga Family Dental",
    "wof:parent_id":85807903,
    "wof:placetype":"venue",
    "wof:superseded_by":[],
    "wof:supersedes":[],
    "wof:tags":[
        "dentist"
    ]
},
  "bbox": [
    -77.313203,
    41.989159,
    -77.313203,
    41.989159
],
  "geometry": {"coordinates":[-77.313203,41.989159],"type":"Point"}
}