{
  "id": 571551639,
  "type": "Feature",
  "properties": {
    "edtf:cessation":"uuuu",
    "edtf:inception":"uuuu",
    "geom:area":0.0,
    "geom:bbox":"-73.982904,40.770733,-73.982904,40.770733",
    "geom:latitude":40.770733,
    "geom:longitude":-73.982904,
    "iso:country":"US",
    "sg:address":"70 W 62 St",
    "sg:city":"New York",
    "sg:classifiers":[
        {
            "category":"Retail",
            "subcategory":"Auto Repair",
            "type":"Services"
        }
    ],
    "sg:owner":"simplegeo",
    "sg:phone":"+1 646 307 4506",
    "sg:postcode":"10023",
    "sg:province":"NY",
    "sg:tags":[
        "wrecker"
    ],
    "src:geom":"simplegeo",
    "wof:belongsto":[],
    "wof:breaches":[],
    "wof:concordances":{
        "sg:id":"SG_3mt3A5BFp3ZOfhwWaffgpo_40.770733_-73.982904@1294177022"
    },
    "wof:country":"US",
    "wof:geomhash":"aa5dc2d88ea963192081985364388ee2",
    "wof:hierarchy":[],
    "wof:id":571551639,
    "wof:lastmodified":1461038232,
    "wof:name":"GMC Car Repair",
    "wof:parent_id":-1,
    "wof:placetype":"venue",
    "wof:superseded_by":[],
    "wof:supersedes":[],
    "wof:tags":[
        "wrecker"
    ]
},
  "bbox": [
    -73.982904,
    40.770733,
    -73.982904,
    40.770733
],
  "geometry": {"coordinates":[-73.982904,40.770733],"type":"Point"}
}