{
  "id": 554934235,
  "type": "Feature",
  "properties": {
    "edtf:cessation":"uuuu",
    "edtf:inception":"uuuu",
    "geom:area":0.0,
    "geom:bbox":"-73.658075,41.010413,-73.658075,41.010413",
    "geom:latitude":41.010413,
    "geom:longitude":-73.658075,
    "iso:country":"US",
    "sg:address":"150 Terrace Ave",
    "sg:city":"Port Chester",
    "sg:classifiers":[
        {
            "category":"Building & Trades",
            "subcategory":"Construction",
            "type":"Services"
        }
    ],
    "sg:owner":"simplegeo",
    "sg:phone":"+1 914 934 0983",
    "sg:postcode":"10573",
    "sg:province":"NY",
    "sg:tags":[
        "carpentry",
        "contractor"
    ],
    "src:geom":"simplegeo",
    "wof:belongsto":[
        85885307,
        102191575,
        404495949,
        85633793,
        85930941,
        102084283,
        85688629,
        420530431,
        404523389,
        85978705,
        102082373,
        85688543
    ],
    "wof:breaches":[],
    "wof:concordances":{
        "sg:id":"SG_19H7sYO4BEnXEBH2jqO5FD_41.010413_-73.658075@1294177022"
    },
    "wof:country":"US",
    "wof:geomhash":"fdd4e7b4907dd3d28e14085b8ec43f2c",
    "wof:hierarchy":[
        {
            "continent_id":102191575,
            "country_id":85633793,
            "county_id":102084283,
            "localadmin_id":404495949,
            "locality_id":85930941,
            "neighbourhood_id":85885307,
            "region_id":85688629,
            "venue_id":554934235
        },
        {
            "continent_id":102191575,
            "country_id":85633793,
            "county_id":102082373,
            "localadmin_id":404523389,
            "locality_id":85978705,
            "neighbourhood_id":420530431,
            "region_id":85688543,
            "venue_id":554934235
        }
    ],
    "wof:id":554934235,
    "wof:lastmodified":1461016915,
    "wof:name":"A N J Service",
    "wof:parent_id":-1,
    "wof:placetype":"venue",
    "wof:superseded_by":[],
    "wof:supersedes":[],
    "wof:tags":[
        "carpentry",
        "contractor"
    ]
},
  "bbox": [
    -73.658075,
    41.010413,
    -73.658075,
    41.010413
],
  "geometry": {"coordinates":[-73.658075,41.010413],"type":"Point"}
}