{
  "id": 554936287,
  "type": "Feature",
  "properties": {
    "edtf:cessation":"uuuu",
    "edtf:inception":"uuuu",
    "geom:area":0.0,
    "geom:bbox":"-73.984956,40.779826,-73.984956,40.779826",
    "geom:latitude":40.779826,
    "geom:longitude":-73.984956,
    "iso:country":"US",
    "sg:address":"310 W 72 St",
    "sg:city":"New York",
    "sg:classifiers":[
        {
            "category":"Real Estate",
            "subcategory":"Real Estate Agent",
            "type":"Services"
        },
        {
            "category":"Real Estate",
            "subcategory":"Real Estate Operator",
            "type":"Services"
        }
    ],
    "sg:owner":"simplegeo",
    "sg:phone":"+1 212 721 3737",
    "sg:postcode":"10023",
    "sg:province":"NY",
    "sg:tags":[
        "building",
        "apartment"
    ],
    "src:geom":"simplegeo",
    "wof:belongsto":[
        85869077,
        102191575,
        404478149,
        85633793,
        85975287,
        102080719,
        85688607
    ],
    "wof:breaches":[],
    "wof:concordances":{
        "sg:id":"SG_2arHt22az6kFYYaaZS2xSq_40.779826_-73.984956@1294177022"
    },
    "wof:country":"US",
    "wof:geomhash":"469bacd2d86c181bff338a2931e08277",
    "wof:hierarchy":[
        {
            "continent_id":102191575,
            "country_id":85633793,
            "county_id":102080719,
            "localadmin_id":404478149,
            "locality_id":85975287,
            "neighbourhood_id":85869077,
            "region_id":85688607,
            "venue_id":554936287
        }
    ],
    "wof:id":554936287,
    "wof:lastmodified":1461017194,
    "wof:name":"Hudson View Properties Inc",
    "wof:parent_id":85869077,
    "wof:placetype":"venue",
    "wof:superseded_by":[],
    "wof:supersedes":[],
    "wof:tags":[
        "building",
        "apartment"
    ]
},
  "bbox": [
    -73.984956,
    40.779826,
    -73.984956,
    40.779826
],
  "geometry": {"coordinates":[-73.984956,40.779826],"type":"Point"}
}