{
  "id": 572171725,
  "type": "Feature",
  "properties": {
    "edtf:cessation":"uuuu",
    "edtf:inception":"uuuu",
    "geom:area":0.0,
    "geom:bbox":"-74.813335,40.655206,-74.813335,40.655206",
    "geom:latitude":40.655206,
    "geom:longitude":-74.813335,
    "iso:country":"US",
    "sg:address":"930 4th Ave",
    "sg:city":"Brooklyn",
    "sg:classifiers":[
        {
            "category":"Wholesale",
            "subcategory":"Fruits & Vegetables",
            "type":"Manufacturing & Wholesale Goods"
        }
    ],
    "sg:owner":"simplegeo",
    "sg:phone":"+1 718 499 6551",
    "sg:postcode":"11232",
    "sg:province":"NY",
    "sg:tags":[
        "veggie"
    ],
    "src:geom":"simplegeo",
    "wof:belongsto":[
        85688607,
        85633793,
        85842965,
        102085997
    ],
    "wof:breaches":[],
    "wof:concordances":{
        "sg:id":"SG_5A5Z11PEh0lKiENvVXcvcI_40.655206_-74.813335@1303262348"
    },
    "wof:country":"US",
    "wof:geomhash":"4ef434d4b4b8e1a9bfefb93caf6f9aa6",
    "wof:hierarchy":[
        {
            "country_id":85633793,
            "county_id":102085997,
            "neighbourhood_id":85842965,
            "region_id":85688607,
            "venue_id":572171725
        }
    ],
    "wof:id":572171725,
    "wof:lastmodified":1461051461,
    "wof:name":"Reina Del Rocio Food & Vegeta Ble Corp",
    "wof:parent_id":85842965,
    "wof:placetype":"venue",
    "wof:superseded_by":[],
    "wof:supersedes":[],
    "wof:tags":[
        "veggie"
    ]
},
  "bbox": [
    -74.813335,
    40.655206,
    -74.813335,
    40.655206
],
  "geometry": {"coordinates":[-74.813335,40.655206],"type":"Point"}
}