{
  "id": 572171345,
  "type": "Feature",
  "properties": {
    "edtf:cessation":"uuuu",
    "edtf:inception":"uuuu",
    "geom:area":0.0,
    "geom:bbox":"-74.296398,40.610564,-74.296398,40.610564",
    "geom:latitude":40.610564,
    "geom:longitude":-74.296398,
    "iso:country":"US",
    "sg:address":"1400 Benson Ave",
    "sg:city":"Brooklyn",
    "sg:classifiers":[
        {
            "category":"Building & Trades",
            "subcategory":"Construction",
            "type":"Services"
        }
    ],
    "sg:owner":"simplegeo",
    "sg:phone":"+1 347 587 4600",
    "sg:postcode":"11228",
    "sg:province":"NY",
    "sg:tags":[
        "contractor"
    ],
    "src:geom":"simplegeo",
    "wof:belongsto":[],
    "wof:breaches":[],
    "wof:concordances":{
        "sg:id":"SG_7RsQxXHS9D2L26ZDCzpaxd_40.610564_-74.296398@1303262347"
    },
    "wof:country":"US",
    "wof:geomhash":"fa3f9ca776338d81e674481550d5ab3f",
    "wof:hierarchy":[],
    "wof:id":572171345,
    "wof:lastmodified":1461051452,
    "wof:name":"Arena Construction Isp 229",
    "wof:parent_id":-1,
    "wof:placetype":"venue",
    "wof:superseded_by":[],
    "wof:supersedes":[],
    "wof:tags":[
        "contractor"
    ]
},
  "bbox": [
    -74.296398,
    40.610564,
    -74.296398,
    40.610564
],
  "geometry": {"coordinates":[-74.296398,40.610564],"type":"Point"}
}