{
  "id": 554934057,
  "type": "Feature",
  "properties": {
    "edtf:cessation":"uuuu",
    "edtf:inception":"uuuu",
    "geom:area":0.0,
    "geom:bbox":"-73.511294,41.146123,-73.511294,41.146123",
    "geom:latitude":41.146123,
    "geom:longitude":-73.511294,
    "iso:country":"US",
    "sg:address":"122 Woods End Rd",
    "sg:city":"New Canaan",
    "sg:classifiers":[
        {
            "category":"Banks & Credit Unions",
            "subcategory":"Investment Brokerage",
            "type":"Services"
        }
    ],
    "sg:owner":"simplegeo",
    "sg:phone":"+1 203 966 2260",
    "sg:postcode":"06840",
    "sg:province":"NY",
    "sg:tags":[
        "advisory",
        "financial"
    ],
    "src:geom":"simplegeo",
    "wof:belongsto":[
        85688629,
        85633793,
        85851779,
        102084283
    ],
    "wof:breaches":[],
    "wof:concordances":{
        "sg:id":"SG_4c9AlamVBQJ8HWKp2NiCrW_41.146123_-73.511294@1294177022"
    },
    "wof:country":"US",
    "wof:geomhash":"cff86ad1b34346592fc216c04c382f1a",
    "wof:hierarchy":[
        {
            "country_id":85633793,
            "county_id":102084283,
            "neighbourhood_id":85851779,
            "region_id":85688629,
            "venue_id":554934057
        }
    ],
    "wof:id":554934057,
    "wof:lastmodified":1461016889,
    "wof:name":"Growth Capital Funding Group",
    "wof:parent_id":85851779,
    "wof:placetype":"venue",
    "wof:superseded_by":[],
    "wof:supersedes":[],
    "wof:tags":[
        "advisory",
        "financial"
    ]
},
  "bbox": [
    -73.511294,
    41.146123,
    -73.511294,
    41.146123
],
  "geometry": {"coordinates":[-73.51129400000001,41.146123],"type":"Point"}
}