{
  "id": 555496015,
  "type": "Feature",
  "properties": {
    "edtf:cessation":"uuuu",
    "edtf:inception":"uuuu",
    "geom:area":0.0,
    "geom:bbox":"-77.806028,42.50255,-77.806028,42.50255",
    "geom:latitude":42.50255,
    "geom:longitude":-77.806028,
    "iso:country":"US",
    "sg:address":"11027 Bonner Rd",
    "sg:city":"Dansville",
    "sg:classifiers":[
        {
            "category":"Building & Trades",
            "subcategory":"Construction",
            "type":"Services"
        }
    ],
    "sg:owner":"simplegeo",
    "sg:phone":"+1 607 545 6459",
    "sg:postcode":"14437",
    "sg:province":"NY",
    "sg:tags":[
        "company"
    ],
    "src:geom":"simplegeo",
    "wof:belongsto":[],
    "wof:breaches":[],
    "wof:concordances":{
        "sg:id":"SG_4OhalFNSGT6KJjCf7F1FyO_42.502550_-77.806028@1294177022"
    },
    "wof:country":"US",
    "wof:geomhash":"7f1e8b54ed654c7e903d5365d0a0061d",
    "wof:hierarchy":[],
    "wof:id":555496015,
    "wof:lastmodified":1461031237,
    "wof:name":"Goins Construction",
    "wof:parent_id":-1,
    "wof:placetype":"venue",
    "wof:superseded_by":[],
    "wof:supersedes":[],
    "wof:tags":[
        "company"
    ]
},
  "bbox": [
    -77.806028,
    42.50255,
    -77.806028,
    42.50255
],
  "geometry": {"coordinates":[-77.806028,42.50255],"type":"Point"}
}