{
  "id": 554938139,
  "type": "Feature",
  "properties": {
    "edtf:cessation":"uuuu",
    "edtf:inception":"uuuu",
    "geom:area":0.0,
    "geom:bbox":"-79.738534,42.25501,-79.738534,42.25501",
    "geom:latitude":42.25501,
    "geom:longitude":-79.738534,
    "iso:country":"US",
    "sg:address":"10370 W Main Rd",
    "sg:city":"Ripley",
    "sg:classifiers":[
        {
            "category":"Restaurant",
            "subcategory":"",
            "type":"Food & Drink"
        }
    ],
    "sg:owner":"simplegeo",
    "sg:phone":"+1 716 736 3661",
    "sg:postcode":"14775",
    "sg:province":"NY",
    "sg:tags":[
        "preparation",
        "crop",
        "eating",
        "for",
        "market"
    ],
    "src:geom":"simplegeo",
    "wof:belongsto":[
        85688481,
        85633793,
        85850957,
        102080955
    ],
    "wof:breaches":[],
    "wof:concordances":{
        "sg:id":"SG_0kSkYrayYWLfZEkWeL9FwS_42.255010_-79.738534@1294177022"
    },
    "wof:country":"US",
    "wof:geomhash":"f52a01b533d04ba3fcf222b10148b75f",
    "wof:hierarchy":[
        {
            "country_id":85633793,
            "county_id":102080955,
            "neighbourhood_id":85850957,
            "region_id":85688481,
            "venue_id":554938139
        }
    ],
    "wof:id":554938139,
    "wof:lastmodified":1461017446,
    "wof:name":"McDonald Farm",
    "wof:parent_id":85850957,
    "wof:placetype":"venue",
    "wof:superseded_by":[],
    "wof:supersedes":[],
    "wof:tags":[
        "preparation",
        "crop",
        "eating",
        "for",
        "market"
    ]
},
  "bbox": [
    -79.738534,
    42.25501,
    -79.738534,
    42.25501
],
  "geometry": {"coordinates":[-79.738534,42.25501],"type":"Point"}
}