{
  "id": 554941257,
  "type": "Feature",
  "properties": {
    "edtf:cessation":"uuuu",
    "edtf:inception":"uuuu",
    "geom:area":0.0,
    "geom:bbox":"-74.054182,41.08575,-74.054182,41.08575",
    "geom:latitude":41.08575,
    "geom:longitude":-74.054182,
    "iso:country":"US",
    "sg:address":"702 Chestnut Ridge Rd",
    "sg:city":"Spring Valley",
    "sg:classifiers":[
        {
            "category":"Manufacturing",
            "subcategory":"Apparel",
            "type":"Manufacturing & Wholesale Goods"
        }
    ],
    "sg:owner":"simplegeo",
    "sg:phone":"+1 845 425 1193",
    "sg:postcode":"10977",
    "sg:province":"NY",
    "sg:tags":[
        "awning",
        "canopy"
    ],
    "src:geom":"simplegeo",
    "wof:belongsto":[
        85853261,
        102191575,
        404523097,
        85633793,
        85978555,
        102082385,
        85688543
    ],
    "wof:breaches":[],
    "wof:concordances":{
        "sg:id":"SG_2Edl4b9ODae4UUOtyKTZUE_41.085750_-74.054182@1294177022"
    },
    "wof:country":"US",
    "wof:geomhash":"2494dc5901a1d92ca1f31ca055387d45",
    "wof:hierarchy":[
        {
            "continent_id":102191575,
            "country_id":85633793,
            "county_id":102082385,
            "localadmin_id":404523097,
            "locality_id":85978555,
            "neighbourhood_id":85853261,
            "region_id":85688543,
            "venue_id":554941257
        }
    ],
    "wof:id":554941257,
    "wof:lastmodified":1461017722,
    "wof:name":"Dean Custom Awnings",
    "wof:parent_id":85853261,
    "wof:placetype":"venue",
    "wof:superseded_by":[],
    "wof:supersedes":[],
    "wof:tags":[
        "awning",
        "canopy"
    ]
},
  "bbox": [
    -74.054182,
    41.08575,
    -74.054182,
    41.08575
],
  "geometry": {"coordinates":[-74.054182,41.08575],"type":"Point"}
}