{
  "id": 554941329,
  "type": "Feature",
  "properties": {
    "edtf:cessation":"uuuu",
    "edtf:inception":"uuuu",
    "geom:area":0.0,
    "geom:bbox":"-73.498158,41.150487,-73.498158,41.150487",
    "geom:latitude":41.150487,
    "geom:longitude":-73.498158,
    "iso:country":"US",
    "sg:address":"130 Oenoke Ridge",
    "sg:city":"New Canaan",
    "sg:classifiers":[
        {
            "category":"Manufacturing",
            "subcategory":"Tools & Machinery",
            "type":"Manufacturing & Wholesale Goods"
        }
    ],
    "sg:owner":"simplegeo",
    "sg:phone":"+1 203 966 8548",
    "sg:postcode":"06840",
    "sg:province":"NY",
    "sg:tags":[
        "devices"
    ],
    "src:geom":"simplegeo",
    "wof:belongsto":[
        85688629,
        85633793,
        85851779,
        102084283
    ],
    "wof:breaches":[],
    "wof:concordances":{
        "sg:id":"SG_48PXIPq7PJ1bnonBVx1DXI_41.150487_-73.498158@1294177022"
    },
    "wof:country":"US",
    "wof:geomhash":"5a3fbd26eff61ac35a04bf9964ceb6a3",
    "wof:hierarchy":[
        {
            "country_id":85633793,
            "county_id":102084283,
            "neighbourhood_id":85851779,
            "region_id":85688629,
            "venue_id":554941329
        }
    ],
    "wof:id":554941329,
    "wof:lastmodified":1461017730,
    "wof:name":"Megrue Microanalytical Systems",
    "wof:parent_id":85851779,
    "wof:placetype":"venue",
    "wof:superseded_by":[],
    "wof:supersedes":[],
    "wof:tags":[
        "devices"
    ]
},
  "bbox": [
    -73.498158,
    41.150487,
    -73.498158,
    41.150487
],
  "geometry": {"coordinates":[-73.498158,41.150487],"type":"Point"}
}