{
  "id": 572170719,
  "type": "Feature",
  "properties": {
    "edtf:cessation":"uuuu",
    "edtf:inception":"uuuu",
    "geom:area":0.0,
    "geom:bbox":"-74.327227,40.634949,-74.327227,40.634949",
    "geom:latitude":40.634949,
    "geom:longitude":-74.327227,
    "iso:country":"US",
    "sg:address":"1036 55th St",
    "sg:city":"Brooklyn",
    "sg:classifiers":[
        {
            "category":"Home & Garden",
            "subcategory":"Furniture",
            "type":"Retail Goods"
        }
    ],
    "sg:owner":"simplegeo",
    "sg:phone":"+1 845 738 4832",
    "sg:postcode":"11219",
    "sg:province":"NY",
    "sg:tags":[
        "store"
    ],
    "src:geom":"simplegeo",
    "wof:belongsto":[
        85892559,
        102191575,
        404478409,
        85633793,
        85975827,
        102085995,
        85688607
    ],
    "wof:breaches":[],
    "wof:concordances":{
        "sg:id":"SG_693gvu4GIU6LvIZnKEk3s7_40.634949_-74.327227@1303262344"
    },
    "wof:country":"US",
    "wof:geomhash":"5b927af24e6ee47bc9c6e74deacd3ffd",
    "wof:hierarchy":[
        {
            "continent_id":102191575,
            "country_id":85633793,
            "county_id":102085995,
            "localadmin_id":404478409,
            "locality_id":85975827,
            "neighbourhood_id":85892559,
            "region_id":85688607,
            "venue_id":572170719
        }
    ],
    "wof:id":572170719,
    "wof:lastmodified":1461051431,
    "wof:name":"Linen Choice",
    "wof:parent_id":85892559,
    "wof:placetype":"venue",
    "wof:superseded_by":[],
    "wof:supersedes":[],
    "wof:tags":[
        "store"
    ]
},
  "bbox": [
    -74.327227,
    40.634949,
    -74.327227,
    40.634949
],
  "geometry": {"coordinates":[-74.32722699999999,40.634949],"type":"Point"}
}