{
  "id": 554937817,
  "type": "Feature",
  "properties": {
    "edtf:cessation":"uuuu",
    "edtf:inception":"uuuu",
    "geom:area":0.0,
    "geom:bbox":"-73.522751,44.085718,-73.522751,44.085718",
    "geom:latitude":44.085718,
    "geom:longitude":-73.522751,
    "iso:country":"US",
    "sg:address":"37 Wall St",
    "sg:city":"Mineville",
    "sg:classifiers":[
        {
            "category":"Retail",
            "subcategory":"Auto Repair",
            "type":"Services"
        }
    ],
    "sg:owner":"simplegeo",
    "sg:phone":"+1 518 942 5205",
    "sg:postcode":"12956",
    "sg:province":"NY",
    "sg:tags":[
        "repairing",
        "automobile"
    ],
    "src:geom":"simplegeo",
    "wof:belongsto":[
        85688763,
        85633793,
        85857981,
        102080765
    ],
    "wof:breaches":[],
    "wof:concordances":{
        "sg:id":"SG_4Y2Uv3N0PJzmeS6yBNekpZ_44.085718_-73.522751@1294177022"
    },
    "wof:country":"US",
    "wof:geomhash":"7a409c21362be1ff1ae0a1e11eca350c",
    "wof:hierarchy":[
        {
            "country_id":85633793,
            "county_id":102080765,
            "neighbourhood_id":85857981,
            "region_id":85688763,
            "venue_id":554937817
        }
    ],
    "wof:id":554937817,
    "wof:lastmodified":1461017420,
    "wof:name":"Arnie's Wall Street Automotive",
    "wof:parent_id":85857981,
    "wof:placetype":"venue",
    "wof:superseded_by":[],
    "wof:supersedes":[],
    "wof:tags":[
        "repairing",
        "automobile"
    ]
},
  "bbox": [
    -73.522751,
    44.085718,
    -73.522751,
    44.085718
],
  "geometry": {"coordinates":[-73.522751,44.085718],"type":"Point"}
}