{
  "id": 554940817,
  "type": "Feature",
  "properties": {
    "edtf:cessation":"uuuu",
    "edtf:inception":"uuuu",
    "geom:area":0.0,
    "geom:bbox":"-73.640488,41.142643,-73.640488,41.142643",
    "geom:latitude":41.142643,
    "geom:longitude":-73.640488,
    "iso:country":"US",
    "sg:address":"18 Bedford-Banksville Rd",
    "sg:city":"Bedford",
    "sg:classifiers":[
        {
            "category":"Utilities",
            "subcategory":"Mobile Phone",
            "type":"Services"
        }
    ],
    "sg:owner":"simplegeo",
    "sg:phone":"+1 914 234 6055",
    "sg:postcode":"10506",
    "sg:province":"NY",
    "sg:tags":[
        "telephone",
        "cellular"
    ],
    "src:geom":"simplegeo",
    "wof:belongsto":[
        85688629,
        85633793,
        85930787,
        102084283,
        85838073
    ],
    "wof:breaches":[],
    "wof:concordances":{
        "sg:id":"SG_5KABrmJ5n3hoJINhb0G0tx_41.142643_-73.640488@1294177022"
    },
    "wof:country":"US",
    "wof:geomhash":"fc24ac8445a2fb296c208cc86d87007c",
    "wof:hierarchy":[
        {
            "country_id":85633793,
            "county_id":102084283,
            "locality_id":85930787,
            "neighbourhood_id":85838073,
            "region_id":85688629,
            "venue_id":554940817
        }
    ],
    "wof:id":554940817,
    "wof:lastmodified":1461017681,
    "wof:name":"United Wireless",
    "wof:parent_id":85838073,
    "wof:placetype":"venue",
    "wof:superseded_by":[],
    "wof:supersedes":[],
    "wof:tags":[
        "telephone",
        "cellular"
    ]
},
  "bbox": [
    -73.640488,
    41.142643,
    -73.640488,
    41.142643
],
  "geometry": {"coordinates":[-73.640488,41.142643],"type":"Point"}
}