{
  "id": 554941309,
  "type": "Feature",
  "properties": {
    "edtf:cessation":"uuuu",
    "edtf:inception":"uuuu",
    "geom:area":0.0,
    "geom:bbox":"-73.493695,41.15485,-73.493695,41.15485",
    "geom:latitude":41.15485,
    "geom:longitude":-73.493695,
    "iso:country":"US",
    "sg:address":"115 Forest St",
    "sg:city":"New Canaan",
    "sg:classifiers":[
        {
            "category":"Professional",
            "subcategory":"",
            "type":"Services"
        }
    ],
    "sg:owner":"simplegeo",
    "sg:phone":"+1 203 966 5898",
    "sg:postcode":"06840",
    "sg:province":"NY",
    "src:geom":"simplegeo",
    "wof:belongsto":[
        85688629,
        85633793,
        85851779,
        102084283
    ],
    "wof:breaches":[],
    "wof:concordances":{
        "sg:id":"SG_0GXbV6MQtQmdVWCqHhNP3J_41.154850_-73.493695@1294177022"
    },
    "wof:country":"US",
    "wof:geomhash":"32716fb1321b2da72b37026b0f790c1b",
    "wof:hierarchy":[
        {
            "country_id":85633793,
            "county_id":102084283,
            "neighbourhood_id":85851779,
            "region_id":85688629,
            "venue_id":554941309
        }
    ],
    "wof:id":554941309,
    "wof:lastmodified":1461017728,
    "wof:name":"Ncp Llc",
    "wof:parent_id":85851779,
    "wof:placetype":"venue",
    "wof:superseded_by":[],
    "wof:supersedes":[],
    "wof:tags":[]
},
  "bbox": [
    -73.493695,
    41.15485,
    -73.493695,
    41.15485
],
  "geometry": {"coordinates":[-73.493695,41.15485],"type":"Point"}
}