{
  "id": 554935719,
  "type": "Feature",
  "properties": {
    "edtf:cessation":"uuuu",
    "edtf:inception":"uuuu",
    "geom:area":0.0,
    "geom:bbox":"-79.688288,42.119942,-79.688288,42.119942",
    "geom:latitude":42.119942,
    "geom:longitude":-79.688288,
    "iso:country":"US",
    "sg:address":"2969 Mina French Creek Rd",
    "sg:city":"Sherman",
    "sg:classifiers":[
        {
            "category":"Organizations",
            "subcategory":"Religious Organization",
            "type":"Services"
        }
    ],
    "sg:owner":"simplegeo",
    "sg:phone":"+1 716 769 7670",
    "sg:postcode":"14781",
    "sg:province":"NY",
    "sg:tags":[
        "church"
    ],
    "src:geom":"simplegeo",
    "wof:belongsto":[
        85688481,
        85633793,
        85850957,
        102080955
    ],
    "wof:breaches":[],
    "wof:concordances":{
        "sg:id":"SG_5jTYRfBHzjhqrK0wpAN5OG_42.119942_-79.688288@1294177022"
    },
    "wof:country":"US",
    "wof:geomhash":"4560fb5f22b2880e7f898154cc7383fd",
    "wof:hierarchy":[
        {
            "country_id":85633793,
            "county_id":102080955,
            "neighbourhood_id":85850957,
            "region_id":85688481,
            "venue_id":554935719
        }
    ],
    "wof:id":554935719,
    "wof:lastmodified":1461017111,
    "wof:name":"Christian Missionary Church",
    "wof:parent_id":85850957,
    "wof:placetype":"venue",
    "wof:superseded_by":[],
    "wof:supersedes":[],
    "wof:tags":[
        "church"
    ]
},
  "bbox": [
    -79.688288,
    42.119942,
    -79.688288,
    42.119942
],
  "geometry": {"coordinates":[-79.688288,42.119942],"type":"Point"}
}