{
  "id": 554940671,
  "type": "Feature",
  "properties": {
    "edtf:cessation":"uuuu",
    "edtf:inception":"uuuu",
    "geom:area":0.0,
    "geom:bbox":"-73.458956,44.0492,-73.458956,44.0492",
    "geom:latitude":44.0492,
    "geom:longitude":-73.458956,
    "iso:country":"US",
    "sg:address":"1 Main St",
    "sg:city":"Rainbow Lake",
    "sg:classifiers":[
        {
            "category":"Government",
            "subcategory":"Post Office",
            "type":"Public Place"
        }
    ],
    "sg:owner":"simplegeo",
    "sg:phone":"+1 518 856 9440",
    "sg:postcode":"12974",
    "sg:province":"NY",
    "src:geom":"simplegeo",
    "wof:belongsto":[
        85688763,
        85633793,
        85857981,
        102080765
    ],
    "wof:breaches":[],
    "wof:concordances":{
        "sg:id":"SG_4OiWJZaogikaG4Ta2TsRRY_44.049200_-73.458956@1294177022"
    },
    "wof:country":"US",
    "wof:geomhash":"d160d3c21a4c98f34f8d6024dbfc6e87",
    "wof:hierarchy":[
        {
            "country_id":85633793,
            "county_id":102080765,
            "neighbourhood_id":85857981,
            "region_id":85688763,
            "venue_id":554940671
        }
    ],
    "wof:id":554940671,
    "wof:lastmodified":1461017670,
    "wof:name":"US Post Office",
    "wof:parent_id":85857981,
    "wof:placetype":"venue",
    "wof:superseded_by":[],
    "wof:supersedes":[],
    "wof:tags":[]
},
  "bbox": [
    -73.458956,
    44.0492,
    -73.458956,
    44.0492
],
  "geometry": {"coordinates":[-73.458956,44.0492],"type":"Point"}
}