{
  "id": 554935369,
  "type": "Feature",
  "properties": {
    "edtf:cessation":"uuuu",
    "edtf:inception":"uuuu",
    "geom:area":0.0,
    "geom:bbox":"-73.659933,41.012863,-73.659933,41.012863",
    "geom:latitude":41.012863,
    "geom:longitude":-73.659933,
    "iso:country":"US",
    "sg:address":"542 Willett Ave",
    "sg:city":"Port Chester",
    "sg:classifiers":[
        {
            "category":"Personal",
            "subcategory":"Beauty Salon",
            "type":"Services"
        }
    ],
    "sg:owner":"simplegeo",
    "sg:phone":"+1 914 934 0800",
    "sg:postcode":"10573",
    "sg:province":"NY",
    "sg:tags":[
        "manicuring"
    ],
    "sg:website":"www.nailpalace.com",
    "src:geom":"simplegeo",
    "wof:belongsto":[
        85885307,
        102191575,
        404495949,
        85633793,
        85930941,
        102084283,
        85688629
    ],
    "wof:breaches":[],
    "wof:concordances":{
        "sg:id":"SG_6Kl8FbrSZVrwbq368DwGdO_41.012863_-73.659933@1294177022"
    },
    "wof:country":"US",
    "wof:geomhash":"ab0343c867b2a7f61a535a4e16500512",
    "wof:hierarchy":[
        {
            "continent_id":102191575,
            "country_id":85633793,
            "county_id":102084283,
            "localadmin_id":404495949,
            "locality_id":85930941,
            "neighbourhood_id":85885307,
            "region_id":85688629,
            "venue_id":554935369
        }
    ],
    "wof:id":554935369,
    "wof:lastmodified":1461017061,
    "wof:name":"Nail Palace",
    "wof:parent_id":85885307,
    "wof:placetype":"venue",
    "wof:superseded_by":[],
    "wof:supersedes":[],
    "wof:tags":[
        "manicuring"
    ]
},
  "bbox": [
    -73.659933,
    41.012863,
    -73.659933,
    41.012863
],
  "geometry": {"coordinates":[-73.659933,41.012863],"type":"Point"}
}