{
  "id": 554937461,
  "type": "Feature",
  "properties": {
    "edtf:cessation":"uuuu",
    "edtf:inception":"uuuu",
    "geom:area":0.0,
    "geom:bbox":"-73.534937,41.162464,-73.534937,41.162464",
    "geom:latitude":41.162464,
    "geom:longitude":-73.534937,
    "iso:country":"US",
    "sg:address":"86 Clearview Ln",
    "sg:city":"New Canaan",
    "sg:classifiers":[
        {
            "category":"Professional",
            "subcategory":"Management & Consulting",
            "type":"Services"
        }
    ],
    "sg:owner":"simplegeo",
    "sg:phone":"+1 203 972 6206",
    "sg:postcode":"06840",
    "sg:province":"NY",
    "sg:tags":[
        "investing",
        "account",
        "own",
        "financial",
        "for"
    ],
    "src:geom":"simplegeo",
    "wof:belongsto":[],
    "wof:breaches":[],
    "wof:concordances":{
        "sg:id":"SG_7320i0EU97IbQmcNfmW2gA_41.162464_-73.534937@1294177022"
    },
    "wof:country":"US",
    "wof:geomhash":"4655ad4b8f8782b50561b9ec755f64ed",
    "wof:hierarchy":[],
    "wof:id":554937461,
    "wof:lastmodified":1461017375,
    "wof:name":"Levco LLC",
    "wof:parent_id":-1,
    "wof:placetype":"venue",
    "wof:superseded_by":[],
    "wof:supersedes":[],
    "wof:tags":[
        "investing",
        "account",
        "own",
        "financial",
        "for"
    ]
},
  "bbox": [
    -73.534937,
    41.162464,
    -73.534937,
    41.162464
],
  "geometry": {"coordinates":[-73.534937,41.162464],"type":"Point"}
}