{
  "id": 572170993,
  "type": "Feature",
  "properties": {
    "edtf:cessation":"uuuu",
    "edtf:inception":"uuuu",
    "geom:area":0.0,
    "geom:bbox":"-74.277007,40.635984,-74.277007,40.635984",
    "geom:latitude":40.635984,
    "geom:longitude":-74.277007,
    "iso:country":"US",
    "sg:address":"6743 4th Ave",
    "sg:city":"Brooklyn",
    "sg:classifiers":[
        {
            "category":"Food & Beverages",
            "subcategory":"Groceries & Convenience Stores",
            "type":"Retail Goods"
        }
    ],
    "sg:owner":"simplegeo",
    "sg:phone":"+1 718 491 3204",
    "sg:postcode":"11220",
    "sg:province":"NY",
    "src:geom":"simplegeo",
    "wof:belongsto":[
        85802619,
        102191575,
        404477587,
        85633793,
        85975833,
        102085995,
        85688607
    ],
    "wof:breaches":[],
    "wof:concordances":{
        "sg:id":"SG_32DfGYYvwwRxtKJOnM7W1y_40.635984_-74.277007@1303262344"
    },
    "wof:country":"US",
    "wof:geomhash":"24947de324cc27be4c277665b608c73c",
    "wof:hierarchy":[
        {
            "continent_id":102191575,
            "country_id":85633793,
            "county_id":102085995,
            "localadmin_id":404477587,
            "locality_id":85975833,
            "neighbourhood_id":85802619,
            "region_id":85688607,
            "venue_id":572170993
        }
    ],
    "wof:id":572170993,
    "wof:lastmodified":1461051437,
    "wof:name":"6743 Gas & Mart Corp",
    "wof:parent_id":85802619,
    "wof:placetype":"venue",
    "wof:superseded_by":[],
    "wof:supersedes":[],
    "wof:tags":[]
},
  "bbox": [
    -74.277007,
    40.635984,
    -74.277007,
    40.635984
],
  "geometry": {"coordinates":[-74.277007,40.635984],"type":"Point"}
}