{
  "id": 572170279,
  "type": "Feature",
  "properties": {
    "edtf:cessation":"uuuu",
    "edtf:inception":"uuuu",
    "geom:area":0.0,
    "geom:bbox":"-74.290639,40.621297,-74.290639,40.621297",
    "geom:latitude":40.621297,
    "geom:longitude":-74.290639,
    "iso:country":"US",
    "sg:address":"8405 Fort Hamilton Pkwy",
    "sg:city":"Brooklyn",
    "sg:classifiers":[
        {
            "category":"Health Services",
            "subcategory":"Doctor",
            "type":"Services"
        }
    ],
    "sg:owner":"simplegeo",
    "sg:phone":"+1 718 745 6500",
    "sg:postcode":"11209",
    "sg:province":"NY",
    "src:geom":"simplegeo",
    "wof:belongsto":[
        85802619,
        102191575,
        404477587,
        85633793,
        85975833,
        102085995,
        85688607
    ],
    "wof:breaches":[],
    "wof:concordances":{
        "sg:id":"SG_0GwChd7GYEMjWv3k1gX3f0_40.621297_-74.290639@1303262339"
    },
    "wof:country":"US",
    "wof:geomhash":"112152cac968957c1344a9ddf98550f3",
    "wof:hierarchy":[
        {
            "continent_id":102191575,
            "country_id":85633793,
            "county_id":102085995,
            "localadmin_id":404477587,
            "locality_id":85975833,
            "neighbourhood_id":85802619,
            "region_id":85688607,
            "venue_id":572170279
        }
    ],
    "wof:id":572170279,
    "wof:lastmodified":1461051416,
    "wof:name":"New Beginnings Perinatal Ctr LLP",
    "wof:parent_id":85802619,
    "wof:placetype":"venue",
    "wof:superseded_by":[],
    "wof:supersedes":[],
    "wof:tags":[]
},
  "bbox": [
    -74.290639,
    40.621297,
    -74.290639,
    40.621297
],
  "geometry": {"coordinates":[-74.290639,40.621297],"type":"Point"}
}