{
  "id": 571601815,
  "type": "Feature",
  "properties": {
    "edtf:cessation":"uuuu",
    "edtf:inception":"uuuu",
    "geom:area":0.0,
    "geom:bbox":"-73.727936,41.211688,-73.727936,41.211688",
    "geom:latitude":41.211688,
    "geom:longitude":-73.727936,
    "iso:country":"US",
    "sg:address":"25 Kisco Ave",
    "sg:city":"Mt Kisco",
    "sg:classifiers":[],
    "sg:owner":"simplegeo",
    "sg:phone":"+1 914 666 5174",
    "sg:postcode":"10549",
    "sg:province":"NY",
    "sg:tags":[
        "gas"
    ],
    "sg:website":"www.suburbanpropane.com",
    "src:geom":"simplegeo",
    "wof:belongsto":[],
    "wof:breaches":[],
    "wof:concordances":{
        "sg:id":"SG_2DBMQKUaantWR6YbYHaXj4_41.211688_-73.727936@1294177022"
    },
    "wof:country":"US",
    "wof:geomhash":"29ba42a1f4827def68ad4b2064d10430",
    "wof:hierarchy":[],
    "wof:id":571601815,
    "wof:lastmodified":1461039448,
    "wof:name":"Suburban Propane",
    "wof:parent_id":-1,
    "wof:placetype":"venue",
    "wof:superseded_by":[],
    "wof:supersedes":[],
    "wof:tags":[
        "gas"
    ]
},
  "bbox": [
    -73.727936,
    41.211688,
    -73.727936,
    41.211688
],
  "geometry": {"coordinates":[-73.727936,41.211688],"type":"Point"}
}