{
  "id": 554935765,
  "type": "Feature",
  "properties": {
    "edtf:cessation":"uuuu",
    "edtf:inception":"uuuu",
    "geom:area":0.0,
    "geom:bbox":"-73.522535,41.190642,-73.522535,41.190642",
    "geom:latitude":41.190642,
    "geom:longitude":-73.522535,
    "iso:country":"US",
    "sg:address":"64 Wakeman Rd",
    "sg:city":"New Canaan",
    "sg:classifiers":[
        {
            "category":"Professional",
            "subcategory":"Management & Consulting",
            "type":"Services"
        }
    ],
    "sg:owner":"simplegeo",
    "sg:phone":"+1 203 966 0699",
    "sg:postcode":"06840",
    "sg:province":"NY",
    "sg:tags":[
        "construction"
    ],
    "src:geom":"simplegeo",
    "wof:belongsto":[],
    "wof:breaches":[],
    "wof:concordances":{
        "sg:id":"SG_0KbqehIuvc1sBkT9veGwDu_41.190642_-73.522535@1294177022"
    },
    "wof:country":"US",
    "wof:geomhash":"7e97b331aa8286f9abe49f338992c76a",
    "wof:hierarchy":[],
    "wof:id":554935765,
    "wof:lastmodified":1461017117,
    "wof:name":"Chapman Construction LLC",
    "wof:parent_id":-1,
    "wof:placetype":"venue",
    "wof:superseded_by":[],
    "wof:supersedes":[],
    "wof:tags":[
        "construction"
    ]
},
  "bbox": [
    -73.522535,
    41.190642,
    -73.522535,
    41.190642
],
  "geometry": {"coordinates":[-73.522535,41.190642],"type":"Point"}
}