{
  "id": 554941679,
  "type": "Feature",
  "properties": {
    "edtf:cessation":"uuuu",
    "edtf:inception":"uuuu",
    "geom:area":0.0,
    "geom:bbox":"-73.466017,41.140086,-73.466017,41.140086",
    "geom:latitude":41.140086,
    "geom:longitude":-73.466017,
    "iso:country":"US",
    "sg:address":"29 Middle Ridge",
    "sg:city":"New Canaan",
    "sg:classifiers":[
        {
            "category":"Building & Trades",
            "subcategory":"Landscaping Services",
            "type":"Services"
        }
    ],
    "sg:owner":"simplegeo",
    "sg:phone":"+1 203 966 4236",
    "sg:postcode":"06840",
    "sg:province":"NY",
    "sg:tags":[
        "landscape",
        "contractor"
    ],
    "src:geom":"simplegeo",
    "wof:belongsto":[
        85879307,
        102191575,
        404495959,
        85633793,
        85930795,
        102084283,
        85688629,
        85851779
    ],
    "wof:breaches":[],
    "wof:concordances":{
        "sg:id":"SG_1rRolKa4U3dSzBzgT2iXhW_41.140086_-73.466017@1294177022"
    },
    "wof:country":"US",
    "wof:geomhash":"8ec00d88a849f3c655661e608c4d7bbd",
    "wof:hierarchy":[
        {
            "continent_id":102191575,
            "country_id":85633793,
            "county_id":102084283,
            "localadmin_id":404495959,
            "locality_id":85930795,
            "neighbourhood_id":85879307,
            "region_id":85688629,
            "venue_id":554941679
        },
        {
            "country_id":85633793,
            "county_id":102084283,
            "neighbourhood_id":85851779,
            "region_id":85688629,
            "venue_id":554941679
        }
    ],
    "wof:id":554941679,
    "wof:lastmodified":1461017788,
    "wof:name":"Anthony Sillo & Sons Inc",
    "wof:parent_id":-1,
    "wof:placetype":"venue",
    "wof:superseded_by":[],
    "wof:supersedes":[],
    "wof:tags":[
        "landscape",
        "contractor"
    ]
},
  "bbox": [
    -73.466017,
    41.140086,
    -73.466017,
    41.140086
],
  "geometry": {"coordinates":[-73.46601699999999,41.140086],"type":"Point"}
}