{
  "id": 554935245,
  "type": "Feature",
  "properties": {
    "edtf:cessation":"uuuu",
    "edtf:inception":"uuuu",
    "geom:area":0.0,
    "geom:bbox":"-73.984617,40.779707,-73.984617,40.779707",
    "geom:latitude":40.779707,
    "geom:longitude":-73.984617,
    "iso:country":"US",
    "sg:address":"243 W End Ave",
    "sg:city":"New York",
    "sg:classifiers":[
        {
            "category":"Health Services",
            "subcategory":"Health Practitioner",
            "type":"Services"
        }
    ],
    "sg:owner":"simplegeo",
    "sg:phone":"+1 212 724 7872",
    "sg:postcode":"10023",
    "sg:province":"NY",
    "sg:tags":[
        "psychologist"
    ],
    "src:geom":"simplegeo",
    "wof:belongsto":[
        85869077,
        102191575,
        404478149,
        85633793,
        85975287,
        102080719,
        85688607
    ],
    "wof:breaches":[],
    "wof:concordances":{
        "sg:id":"SG_134u5dHxBmnBY8okHqRZzN_40.779707_-73.984617@1294177022"
    },
    "wof:country":"US",
    "wof:geomhash":"d1b588e1cf4fce5e9d5610bd58c45633",
    "wof:hierarchy":[
        {
            "continent_id":102191575,
            "country_id":85633793,
            "county_id":102080719,
            "localadmin_id":404478149,
            "locality_id":85975287,
            "neighbourhood_id":85869077,
            "region_id":85688607,
            "venue_id":554935245
        }
    ],
    "wof:id":554935245,
    "wof:lastmodified":1461017045,
    "wof:name":"Joseph A Cancelmo",
    "wof:parent_id":85869077,
    "wof:placetype":"venue",
    "wof:superseded_by":[],
    "wof:supersedes":[],
    "wof:tags":[
        "psychologist"
    ]
},
  "bbox": [
    -73.984617,
    40.779707,
    -73.984617,
    40.779707
],
  "geometry": {"coordinates":[-73.984617,40.779707],"type":"Point"}
}