{
  "id": 554935589,
  "type": "Feature",
  "properties": {
    "edtf:cessation":"uuuu",
    "edtf:inception":"uuuu",
    "geom:area":0.0,
    "geom:bbox":"-73.465619,41.162431,-73.465619,41.162431",
    "geom:latitude":41.162431,
    "geom:longitude":-73.465619,
    "iso:country":"US",
    "sg:address":"270 Valley Rd",
    "sg:city":"New Canaan",
    "sg:classifiers":[
        {
            "category":"Food & Beverages",
            "subcategory":"Specialty",
            "type":"Retail Goods"
        }
    ],
    "sg:owner":"simplegeo",
    "sg:phone":"+1 203 966 1473",
    "sg:postcode":"06840",
    "sg:province":"NY",
    "sg:tags":[
        "water",
        "bulk",
        "company"
    ],
    "src:geom":"simplegeo",
    "wof:belongsto":[],
    "wof:breaches":[],
    "wof:concordances":{
        "sg:id":"SG_4dcETzYh8eqBTxGdM3neyl_41.162431_-73.465619@1294177022"
    },
    "wof:country":"US",
    "wof:geomhash":"794170c9f8d04bba2ef3f6515cf28b8d",
    "wof:hierarchy":[],
    "wof:id":554935589,
    "wof:lastmodified":1461017093,
    "wof:name":"Norwalk Water Supply Filter",
    "wof:parent_id":-1,
    "wof:placetype":"venue",
    "wof:superseded_by":[],
    "wof:supersedes":[],
    "wof:tags":[
        "water",
        "bulk",
        "company"
    ]
},
  "bbox": [
    -73.465619,
    41.162431,
    -73.465619,
    41.162431
],
  "geometry": {"coordinates":[-73.465619,41.162431],"type":"Point"}
}