{
  "id": 554936235,
  "type": "Feature",
  "properties": {
    "edtf:cessation":"uuuu",
    "edtf:inception":"uuuu",
    "geom:area":0.0,
    "geom:bbox":"-73.491647,41.145403,-73.491647,41.145403",
    "geom:latitude":41.145403,
    "geom:longitude":-73.491647,
    "iso:country":"US",
    "sg:address":"151 Main St",
    "sg:city":"New Canaan",
    "sg:classifiers":[
        {
            "category":"Education",
            "subcategory":"Library",
            "type":"Public Place"
        }
    ],
    "sg:owner":"simplegeo",
    "sg:phone":"+1 203 594 5000",
    "sg:postcode":"06840",
    "sg:province":"NY",
    "sg:tags":[
        "executive"
    ],
    "src:geom":"simplegeo",
    "wof:belongsto":[
        85688629,
        85633793,
        85851779,
        102084283
    ],
    "wof:breaches":[],
    "wof:concordances":{
        "sg:id":"SG_23bKpkq6RbRgCbQKOJgOxo_41.145403_-73.491647@1294177022"
    },
    "wof:country":"US",
    "wof:geomhash":"c1063b931ab9601b610f853f5d186c13",
    "wof:hierarchy":[
        {
            "country_id":85633793,
            "county_id":102084283,
            "neighbourhood_id":85851779,
            "region_id":85688629,
            "venue_id":554936235
        }
    ],
    "wof:id":554936235,
    "wof:lastmodified":1461017187,
    "wof:name":"New Canaan Library",
    "wof:parent_id":85851779,
    "wof:placetype":"venue",
    "wof:superseded_by":[],
    "wof:supersedes":[],
    "wof:tags":[
        "executive"
    ]
},
  "bbox": [
    -73.491647,
    41.145403,
    -73.491647,
    41.145403
],
  "geometry": {"coordinates":[-73.491647,41.145403],"type":"Point"}
}