{
  "id": 554935367,
  "type": "Feature",
  "properties": {
    "edtf:cessation":"uuuu",
    "edtf:inception":"uuuu",
    "geom:area":0.0,
    "geom:bbox":"-74.106665,41.096664,-74.106665,41.096664",
    "geom:latitude":41.096664,
    "geom:longitude":-74.106665,
    "iso:country":"US",
    "sg:address":"4 Stillo Dr",
    "sg:city":"Airmont",
    "sg:classifiers":[
        {
            "category":"Real Estate",
            "subcategory":"Real Estate Agent",
            "type":"Services"
        }
    ],
    "sg:owner":"simplegeo",
    "sg:phone":"+1 845 357 2221",
    "sg:postcode":"10952",
    "sg:province":"NY",
    "src:geom":"simplegeo",
    "wof:belongsto":[
        85832837,
        102191575,
        404523097,
        85633793,
        85978559,
        102082385,
        85688543
    ],
    "wof:breaches":[],
    "wof:concordances":{
        "sg:id":"SG_78HjKBptRfjShkivxXFSFR_41.096664_-74.106665@1294177022"
    },
    "wof:country":"US",
    "wof:geomhash":"1614027c080b05e35ade5644d4fc8dfe",
    "wof:hierarchy":[
        {
            "continent_id":102191575,
            "country_id":85633793,
            "county_id":102082385,
            "localadmin_id":404523097,
            "locality_id":85978559,
            "neighbourhood_id":85832837,
            "region_id":85688543,
            "venue_id":554935367
        }
    ],
    "wof:id":554935367,
    "wof:lastmodified":1461017061,
    "wof:name":"Larry Weinsein Real Estate Inc",
    "wof:parent_id":85832837,
    "wof:placetype":"venue",
    "wof:superseded_by":[],
    "wof:supersedes":[],
    "wof:tags":[]
},
  "bbox": [
    -74.106665,
    41.096664,
    -74.106665,
    41.096664
],
  "geometry": {"coordinates":[-74.10666500000001,41.096664],"type":"Point"}
}