{
  "id": 554934851,
  "type": "Feature",
  "properties": {
    "edtf:cessation":"uuuu",
    "edtf:inception":"uuuu",
    "geom:area":0.0,
    "geom:bbox":"-74.039158,41.079456,-74.039158,41.079456",
    "geom:latitude":41.079456,
    "geom:longitude":-74.039158,
    "iso:country":"US",
    "sg:address":"20 Balmoral Dr",
    "sg:city":"Spring Valley",
    "sg:classifiers":[
        {
            "category":"Professional",
            "subcategory":"Management & Consulting",
            "type":"Services"
        }
    ],
    "sg:owner":"simplegeo",
    "sg:phone":"+1   ",
    "sg:postcode":"10977",
    "sg:province":"NY",
    "sg:tags":[
        "business"
    ],
    "src:geom":"simplegeo",
    "wof:belongsto":[
        85853261,
        102191575,
        404523097,
        85633793,
        85978555,
        102082385,
        85688543
    ],
    "wof:breaches":[],
    "wof:concordances":{
        "sg:id":"SG_3SPhiFuvh9w9hXE02OndfC_41.079456_-74.039158@1294177022"
    },
    "wof:country":"US",
    "wof:geomhash":"99541d27583fee79e752b4f21390cd73",
    "wof:hierarchy":[
        {
            "continent_id":102191575,
            "country_id":85633793,
            "county_id":102082385,
            "localadmin_id":404523097,
            "locality_id":85978555,
            "neighbourhood_id":85853261,
            "region_id":85688543,
            "venue_id":554934851
        }
    ],
    "wof:id":554934851,
    "wof:lastmodified":1461016991,
    "wof:name":"E & E International Inc",
    "wof:parent_id":85853261,
    "wof:placetype":"venue",
    "wof:superseded_by":[],
    "wof:supersedes":[],
    "wof:tags":[
        "business"
    ]
},
  "bbox": [
    -74.039158,
    41.079456,
    -74.039158,
    41.079456
],
  "geometry": {"coordinates":[-74.039158,41.079456],"type":"Point"}
}