{
  "id": 554934199,
  "type": "Feature",
  "properties": {
    "edtf:cessation":"uuuu",
    "edtf:inception":"uuuu",
    "geom:area":0.0,
    "geom:bbox":"-73.492949,41.147028,-73.492949,41.147028",
    "geom:latitude":41.147028,
    "geom:longitude":-73.492949,
    "iso:country":"US",
    "sg:address":"21 Elm St",
    "sg:city":"New Canaan",
    "sg:classifiers":[
        {
            "category":"Professional",
            "subcategory":"",
            "type":"Services"
        }
    ],
    "sg:owner":"simplegeo",
    "sg:phone":"+1 203 972 0434",
    "sg:postcode":"06840",
    "sg:province":"NY",
    "sg:tags":[
        "establishment"
    ],
    "sg:website":"www.sique.com",
    "src:geom":"simplegeo",
    "wof:belongsto":[
        85688629,
        85633793,
        85851779,
        102084283
    ],
    "wof:breaches":[],
    "wof:concordances":{
        "sg:id":"SG_2wcL7rE2gUilBg8VRedn5r_41.147028_-73.492949@1294177022"
    },
    "wof:country":"US",
    "wof:geomhash":"4d225f686425491fff29da14f4b3a16a",
    "wof:hierarchy":[
        {
            "country_id":85633793,
            "county_id":102084283,
            "neighbourhood_id":85851779,
            "region_id":85688629,
            "venue_id":554934199
        }
    ],
    "wof:id":554934199,
    "wof:lastmodified":1461016911,
    "wof:name":"SIQUE.COM",
    "wof:parent_id":85851779,
    "wof:placetype":"venue",
    "wof:superseded_by":[],
    "wof:supersedes":[],
    "wof:tags":[
        "establishment"
    ]
},
  "bbox": [
    -73.492949,
    41.147028,
    -73.492949,
    41.147028
],
  "geometry": {"coordinates":[-73.492949,41.147028],"type":"Point"}
}