{
  "id": 571575875,
  "type": "Feature",
  "properties": {
    "edtf:cessation":"uuuu",
    "edtf:inception":"uuuu",
    "geom:area":0.0,
    "geom:bbox":"-73.432764,40.72473,-73.432764,40.72473",
    "geom:latitude":40.72473,
    "geom:longitude":-73.432764,
    "iso:country":"US",
    "sg:address":"9 Murray St",
    "sg:city":"Farmingdale",
    "sg:classifiers":[],
    "sg:owner":"simplegeo",
    "sg:phone":"+1 631 752 1522",
    "sg:postcode":"11735",
    "sg:province":"NY",
    "sg:tags":[
        "product",
        "petroleum"
    ],
    "src:geom":"simplegeo",
    "wof:belongsto":[],
    "wof:breaches":[],
    "wof:concordances":{
        "sg:id":"SG_08eMZ3UaeUvtZOG8ABtUc7_40.724730_-73.432764@1294177022"
    },
    "wof:country":"US",
    "wof:geomhash":"6cbcfdcbf846bf200623515cb080cf10",
    "wof:hierarchy":[],
    "wof:id":571575875,
    "wof:lastmodified":1461038787,
    "wof:name":"Prime Petroleum Inc",
    "wof:parent_id":-1,
    "wof:placetype":"venue",
    "wof:superseded_by":[],
    "wof:supersedes":[],
    "wof:tags":[
        "product",
        "petroleum"
    ]
},
  "bbox": [
    -73.432764,
    40.72473,
    -73.432764,
    40.72473
],
  "geometry": {"coordinates":[-73.43276400000001,40.72473],"type":"Point"}
}