{
  "id": 554939263,
  "type": "Feature",
  "properties": {
    "edtf:cessation":"uuuu",
    "edtf:inception":"uuuu",
    "geom:area":0.0,
    "geom:bbox":"-74.056535,41.067476,-74.056535,41.067476",
    "geom:latitude":41.067476,
    "geom:longitude":-74.056535,
    "iso:country":"US",
    "sg:address":"13 Fox Hill Rd",
    "sg:city":"Spring Valley",
    "sg:classifiers":[
        {
            "category":"Shopping",
            "subcategory":"Beauty & Cosmetics",
            "type":"Retail Goods"
        }
    ],
    "sg:owner":"simplegeo",
    "sg:phone":"+1   ",
    "sg:postcode":"10977",
    "sg:province":"NY",
    "src:geom":"simplegeo",
    "wof:belongsto":[
        85853261,
        102191575,
        404523097,
        85633793,
        85978555,
        102082385,
        85688543
    ],
    "wof:breaches":[],
    "wof:concordances":{
        "sg:id":"SG_1RApYlCf9tCR2e59qLV4cJ_41.067476_-74.056535@1294177022"
    },
    "wof:country":"US",
    "wof:geomhash":"fdcf23409e91de5c172ee476fa79e8ab",
    "wof:hierarchy":[
        {
            "continent_id":102191575,
            "country_id":85633793,
            "county_id":102082385,
            "localadmin_id":404523097,
            "locality_id":85978555,
            "neighbourhood_id":85853261,
            "region_id":85688543,
            "venue_id":554939263
        }
    ],
    "wof:id":554939263,
    "wof:lastmodified":1461017545,
    "wof:name":"Mary Kay Cosmetics",
    "wof:parent_id":85853261,
    "wof:placetype":"venue",
    "wof:superseded_by":[],
    "wof:supersedes":[],
    "wof:tags":[]
},
  "bbox": [
    -74.056535,
    41.067476,
    -74.056535,
    41.067476
],
  "geometry": {"coordinates":[-74.056535,41.067476],"type":"Point"}
}