{
  "id": 555525731,
  "type": "Feature",
  "properties": {
    "edtf:cessation":"uuuu",
    "edtf:inception":"uuuu",
    "geom:area":0.0,
    "geom:bbox":"-73.480322,42.582371,-73.480322,42.582371",
    "geom:latitude":42.582371,
    "geom:longitude":-73.480322,
    "iso:country":"US",
    "sg:address":"1790 State Hwy 43",
    "sg:city":"Averill Park",
    "sg:classifiers":[
        {
            "category":"Shopping",
            "subcategory":"Hobbies, Toys, & Games",
            "type":"Retail Goods"
        }
    ],
    "sg:owner":"simplegeo",
    "sg:phone":"+1   ",
    "sg:postcode":"12018",
    "sg:province":"NY",
    "sg:tags":[
        "shop"
    ],
    "src:geom":"simplegeo",
    "wof:belongsto":[],
    "wof:breaches":[],
    "wof:concordances":{
        "sg:id":"SG_6EKlKuREpMWeCkf4NVUp8m_42.582371_-73.480322@1294177022"
    },
    "wof:country":"US",
    "wof:geomhash":"3c7649dace191e3ded31187056548726",
    "wof:hierarchy":[],
    "wof:id":555525731,
    "wof:lastmodified":1461031972,
    "wof:name":"Haleas Doll Clothes",
    "wof:parent_id":-1,
    "wof:placetype":"venue",
    "wof:superseded_by":[],
    "wof:supersedes":[],
    "wof:tags":[
        "shop"
    ]
},
  "bbox": [
    -73.480322,
    42.582371,
    -73.480322,
    42.582371
],
  "geometry": {"coordinates":[-73.480322,42.582371],"type":"Point"}
}