{
  "id": 555012345,
  "type": "Feature",
  "properties": {
    "edtf:cessation":"uuuu",
    "edtf:inception":"uuuu",
    "geom:area":0.0,
    "geom:bbox":"-76.584547,42.931487,-76.584547,42.931487",
    "geom:latitude":42.931487,
    "geom:longitude":-76.584547,
    "iso:country":"US",
    "sg:address":"23 N Division St",
    "sg:city":"Auburn",
    "sg:classifiers":[
        {
            "category":"Manufacturing",
            "subcategory":"Electronics",
            "type":"Manufacturing & Wholesale Goods"
        }
    ],
    "sg:owner":"simplegeo",
    "sg:phone":"+1 315 253 6241",
    "sg:postcode":"13021",
    "sg:province":"NY",
    "sg:tags":[
        "equipment",
        "electronic",
        "supply"
    ],
    "src:geom":"simplegeo",
    "wof:belongsto":[],
    "wof:breaches":[],
    "wof:concordances":{
        "sg:id":"SG_4T5azksORUv1kJoU6xxLKy_42.931487_-76.584547@1294177022"
    },
    "wof:country":"US",
    "wof:geomhash":"8fd47f6135b73e23f9dee4332efb8009",
    "wof:hierarchy":[],
    "wof:id":555012345,
    "wof:lastmodified":1461019744,
    "wof:name":"Creative Electric Inc",
    "wof:parent_id":420528181,
    "wof:placetype":"venue",
    "wof:superseded_by":[],
    "wof:supersedes":[],
    "wof:tags":[
        "equipment",
        "electronic",
        "supply"
    ]
},
  "bbox": [
    -76.584547,
    42.931487,
    -76.584547,
    42.931487
],
  "geometry": {"coordinates":[-76.584547,42.931487],"type":"Point"}
}