{
  "id": 554939403,
  "type": "Feature",
  "properties": {
    "edtf:cessation":"uuuu",
    "edtf:inception":"uuuu",
    "geom:area":0.0,
    "geom:bbox":"-73.662089,41.027196,-73.662089,41.027196",
    "geom:latitude":41.027196,
    "geom:longitude":-73.662089,
    "iso:country":"US",
    "sg:address":"25 Comly Ave",
    "sg:city":"Greenwich",
    "sg:classifiers":[
        {
            "category":"Banks & Credit Unions",
            "subcategory":"Investment Brokerage",
            "type":"Services"
        }
    ],
    "sg:owner":"simplegeo",
    "sg:phone":"+1 203 532 1627",
    "sg:postcode":"06831",
    "sg:province":"NY",
    "sg:tags":[
        "advisory",
        "financial"
    ],
    "src:geom":"simplegeo",
    "wof:belongsto":[
        420555461,
        102191575,
        404495949,
        85633793,
        85930937,
        102084283,
        85688629
    ],
    "wof:breaches":[],
    "wof:concordances":{
        "sg:id":"SG_0hvPRWFx4b2l2UJx2q7yrE_41.027196_-73.662089@1294177022"
    },
    "wof:country":"US",
    "wof:geomhash":"4e6d5fb2d7ef6947669b2b22d7daf55b",
    "wof:hierarchy":[
        {
            "continent_id":102191575,
            "country_id":85633793,
            "county_id":102084283,
            "localadmin_id":404495949,
            "locality_id":85930937,
            "neighbourhood_id":420555461,
            "region_id":85688629,
            "venue_id":554939403
        }
    ],
    "wof:id":554939403,
    "wof:lastmodified":1461017559,
    "wof:name":"Reich & Tang",
    "wof:parent_id":420555461,
    "wof:placetype":"venue",
    "wof:superseded_by":[],
    "wof:supersedes":[],
    "wof:tags":[
        "advisory",
        "financial"
    ]
},
  "bbox": [
    -73.662089,
    41.027196,
    -73.662089,
    41.027196
],
  "geometry": {"coordinates":[-73.66208899999999,41.027196],"type":"Point"}
}