{
  "id": 555737087,
  "type": "Feature",
  "properties": {
    "edtf:cessation":"uuuu",
    "edtf:inception":"uuuu",
    "geom:area":0.0,
    "geom:bbox":"-73.867701,40.900312,-73.867701,40.900312",
    "geom:latitude":40.900312,
    "geom:longitude":-73.867701,
    "iso:country":"US",
    "sg:address":"4331 Katonah Ave",
    "sg:city":"Bronx",
    "sg:classifiers":[
        {
            "category":"Building & Trades",
            "subcategory":"Construction",
            "type":"Services"
        }
    ],
    "sg:owner":"simplegeo",
    "sg:phone":"+1 718 231 7765",
    "sg:postcode":"10470",
    "sg:province":"NY",
    "sg:tags":[
        "resurfacing",
        "laying",
        "refinishing",
        "floor"
    ],
    "src:geom":"simplegeo",
    "wof:belongsto":[],
    "wof:breaches":[],
    "wof:concordances":{
        "sg:id":"SG_28Ki6MoAPQmnrz6S6RRnGG_40.900312_-73.867701@1294177022"
    },
    "wof:country":"US",
    "wof:geomhash":"6417a28b42e8709aab49383024b83fca",
    "wof:hierarchy":[],
    "wof:id":555737087,
    "wof:lastmodified":1461036416,
    "wof:name":"Dr Floors",
    "wof:parent_id":-1,
    "wof:placetype":"venue",
    "wof:superseded_by":[],
    "wof:supersedes":[],
    "wof:tags":[
        "resurfacing",
        "laying",
        "refinishing",
        "floor"
    ]
},
  "bbox": [
    -73.867701,
    40.900312,
    -73.867701,
    40.900312
],
  "geometry": {"coordinates":[-73.867701,40.900312],"type":"Point"}
}