{
  "id": 554934007,
  "type": "Feature",
  "properties": {
    "edtf:cessation":"uuuu",
    "edtf:inception":"uuuu",
    "geom:area":0.0,
    "geom:bbox":"-73.61541,41.18417,-73.61541,41.18417",
    "geom:latitude":41.18417,
    "geom:longitude":-73.61541,
    "iso:country":"US",
    "sg:address":"512 Long Ridge Rd",
    "sg:city":"Bedford",
    "sg:classifiers":[
        {
            "category":"Shopping",
            "subcategory":"Clothing, Apparel, & Fashions",
            "type":"Retail Goods"
        }
    ],
    "sg:owner":"simplegeo",
    "sg:phone":"+1   ",
    "sg:postcode":"10576",
    "sg:province":"NY",
    "src:geom":"simplegeo",
    "wof:belongsto":[
        85688629,
        85633793,
        85930787,
        102084283,
        85838073
    ],
    "wof:breaches":[],
    "wof:concordances":{
        "sg:id":"SG_3A0BGor13EjaBUOgF6dVrU_41.184170_-73.615410@1294177022"
    },
    "wof:country":"US",
    "wof:geomhash":"7558ebd1861b76b3e7bf2c5cecf6d9ea",
    "wof:hierarchy":[
        {
            "country_id":85633793,
            "county_id":102084283,
            "locality_id":85930787,
            "neighbourhood_id":85838073,
            "region_id":85688629,
            "venue_id":554934007
        }
    ],
    "wof:id":554934007,
    "wof:lastmodified":1461016883,
    "wof:name":"Michael C Obzud",
    "wof:parent_id":85838073,
    "wof:placetype":"venue",
    "wof:superseded_by":[],
    "wof:supersedes":[],
    "wof:tags":[]
},
  "bbox": [
    -73.61541,
    41.18417,
    -73.61541,
    41.18417
],
  "geometry": {"coordinates":[-73.61541,41.18417],"type":"Point"}
}