{
  "id": 554934887,
  "type": "Feature",
  "properties": {
    "edtf:cessation":"uuuu",
    "edtf:inception":"uuuu",
    "geom:area":0.0,
    "geom:bbox":"-73.452352,41.152092,-73.452352,41.152092",
    "geom:latitude":41.152092,
    "geom:longitude":-73.452352,
    "iso:country":"US",
    "sg:address":"45 Heather Dr",
    "sg:city":"New Canaan",
    "sg:classifiers":[
        {
            "category":"Banks & Credit Unions",
            "subcategory":"Financial Services",
            "type":"Services"
        }
    ],
    "sg:owner":"simplegeo",
    "sg:phone":"+1 203 966 6583",
    "sg:postcode":"06840",
    "sg:province":"NY",
    "sg:tags":[
        "investor"
    ],
    "src:geom":"simplegeo",
    "wof:belongsto":[
        85688629,
        85633793,
        85848785,
        102084283
    ],
    "wof:breaches":[],
    "wof:concordances":{
        "sg:id":"SG_5JHV6pdAHYi7Fm7e3bNyGx_41.152092_-73.452352@1294177022"
    },
    "wof:country":"US",
    "wof:geomhash":"9aef7c25af4a3e153811774e0614905d",
    "wof:hierarchy":[
        {
            "country_id":85633793,
            "county_id":102084283,
            "neighbourhood_id":85848785,
            "region_id":85688629,
            "venue_id":554934887
        }
    ],
    "wof:id":554934887,
    "wof:lastmodified":1461016995,
    "wof:name":"Dwl Investments LLC",
    "wof:parent_id":85848785,
    "wof:placetype":"venue",
    "wof:superseded_by":[],
    "wof:supersedes":[],
    "wof:tags":[
        "investor"
    ]
},
  "bbox": [
    -73.452352,
    41.152092,
    -73.452352,
    41.152092
],
  "geometry": {"coordinates":[-73.452352,41.152092],"type":"Point"}
}