{
  "id": 554941349,
  "type": "Feature",
  "properties": {
    "edtf:cessation":"uuuu",
    "edtf:inception":"uuuu",
    "geom:area":0.0,
    "geom:bbox":"-73.495363,41.132271,-73.495363,41.132271",
    "geom:latitude":41.132271,
    "geom:longitude":-73.495363,
    "iso:country":"US",
    "sg:address":"174 Old Stamford Rd",
    "sg:city":"New Canaan",
    "sg:classifiers":[
        {
            "category":"Retail",
            "subcategory":"Portrait Studio",
            "type":"Services"
        }
    ],
    "sg:owner":"simplegeo",
    "sg:phone":"+1   ",
    "sg:postcode":"06840",
    "sg:province":"NY",
    "sg:tags":[
        "photo"
    ],
    "src:geom":"simplegeo",
    "wof:belongsto":[
        85688629,
        85633793,
        85851779,
        102084283
    ],
    "wof:breaches":[],
    "wof:concordances":{
        "sg:id":"SG_6Lj0xw9zFrLXwUkhOuWjTH_41.132271_-73.495363@1294177022"
    },
    "wof:country":"US",
    "wof:geomhash":"464457954f14ae90e8731578a4489ac0",
    "wof:hierarchy":[
        {
            "country_id":85633793,
            "county_id":102084283,
            "neighbourhood_id":85851779,
            "region_id":85688629,
            "venue_id":554941349
        }
    ],
    "wof:id":554941349,
    "wof:lastmodified":1461017732,
    "wof:name":"Susan Morrow Photography",
    "wof:parent_id":85851779,
    "wof:placetype":"venue",
    "wof:superseded_by":[],
    "wof:supersedes":[],
    "wof:tags":[
        "photo"
    ]
},
  "bbox": [
    -73.495363,
    41.132271,
    -73.495363,
    41.132271
],
  "geometry": {"coordinates":[-73.495363,41.132271],"type":"Point"}
}