{
  "id": 554936459,
  "type": "Feature",
  "properties": {
    "edtf:cessation":"uuuu",
    "edtf:inception":"uuuu",
    "geom:area":0.0,
    "geom:bbox":"-73.513823,41.117659,-73.513823,41.117659",
    "geom:latitude":41.117659,
    "geom:longitude":-73.513823,
    "iso:country":"US",
    "sg:address":"58 Hawks Hill Rd",
    "sg:city":"New Canaan",
    "sg:classifiers":[
        {
            "category":"Recreation",
            "subcategory":"",
            "type":"Entertainment"
        }
    ],
    "sg:owner":"simplegeo",
    "sg:phone":"+1 203 966 8081",
    "sg:postcode":"06840",
    "sg:province":"NY",
    "sg:tags":[
        "amusement"
    ],
    "src:geom":"simplegeo",
    "wof:belongsto":[
        85688629,
        85633793,
        85851779,
        102084283
    ],
    "wof:breaches":[],
    "wof:concordances":{
        "sg:id":"SG_1EEjhd77ybfKVrxYD8Rkgb_41.117659_-73.513823@1294177022"
    },
    "wof:country":"US",
    "wof:geomhash":"65effaf267afb2fc0e5da954c8ce1a6c",
    "wof:hierarchy":[
        {
            "country_id":85633793,
            "county_id":102084283,
            "neighbourhood_id":85851779,
            "region_id":85688629,
            "venue_id":554936459
        }
    ],
    "wof:id":554936459,
    "wof:lastmodified":1461017227,
    "wof:name":"Coerver Coaching",
    "wof:parent_id":85851779,
    "wof:placetype":"venue",
    "wof:superseded_by":[],
    "wof:supersedes":[],
    "wof:tags":[
        "amusement"
    ]
},
  "bbox": [
    -73.513823,
    41.117659,
    -73.513823,
    41.117659
],
  "geometry": {"coordinates":[-73.513823,41.117659],"type":"Point"}
}