{
  "id": 572064803,
  "type": "Feature",
  "properties": {
    "edtf:cessation":"uuuu",
    "edtf:inception":"uuuu",
    "geom:area":0.0,
    "geom:bbox":"-73.708067,41.124485,-73.708067,41.124485",
    "geom:latitude":41.124485,
    "geom:longitude":-73.708067,
    "iso:country":"US",
    "sg:address":"5 Macdonald Ave",
    "sg:city":"Armonk",
    "sg:classifiers":[
        {
            "category":"Real Estate",
            "subcategory":"Real Estate Services",
            "type":"Services"
        },
        {
            "category":"Professional",
            "subcategory":"Lawyer & Legal Services",
            "type":"Services"
        }
    ],
    "sg:owner":"simplegeo",
    "sg:phone":"+1 914 273 0822",
    "sg:postcode":"10504",
    "sg:province":"NY",
    "sg:tags":[
        "attorney",
        "management",
        "practice",
        "broker",
        "plan",
        "buyer"
    ],
    "sg:website":"http://delittalaw.com",
    "src:geom":"simplegeo",
    "wof:belongsto":[],
    "wof:breaches":[],
    "wof:concordances":{
        "sg:id":"SG_2VflBrdeVQXqc7DhqchDTe_41.124485_-73.708067@1303262324"
    },
    "wof:country":"US",
    "wof:geomhash":"5bf2695715875cf27023ca7479bd73c6",
    "wof:hierarchy":[],
    "wof:id":572064803,
    "wof:lastmodified":1461049157,
    "wof:name":"Laurieanne DeLitta Attorney at Law",
    "wof:parent_id":420530403,
    "wof:placetype":"venue",
    "wof:superseded_by":[],
    "wof:supersedes":[],
    "wof:tags":[
        "attorney",
        "management",
        "practice",
        "broker",
        "plan",
        "buyer"
    ]
},
  "bbox": [
    -73.708067,
    41.124485,
    -73.708067,
    41.124485
],
  "geometry": {"coordinates":[-73.708067,41.124485],"type":"Point"}
}