{
  "id": 554936099,
  "type": "Feature",
  "properties": {
    "edtf:cessation":"uuuu",
    "edtf:inception":"uuuu",
    "geom:area":0.0,
    "geom:bbox":"-73.498849,41.144597,-73.498849,41.144597",
    "geom:latitude":41.144597,
    "geom:longitude":-73.498849,
    "iso:country":"US",
    "sg:address":"17 Grove St",
    "sg:city":"New Canaan",
    "sg:classifiers":[
        {
            "category":"Real Estate",
            "subcategory":"Real Estate Agent",
            "type":"Services"
        }
    ],
    "sg:owner":"simplegeo",
    "sg:phone":"+1 203 972 6228",
    "sg:postcode":"06840",
    "sg:province":"NY",
    "sg:tags":[
        "buyer",
        "manager",
        "broker"
    ],
    "src:geom":"simplegeo",
    "wof:belongsto":[
        85688629,
        85633793,
        85851779,
        102084283
    ],
    "wof:breaches":[],
    "wof:concordances":{
        "sg:id":"SG_3nb6gvbyryTbKKJVkYeP24_41.144597_-73.498849@1294177022"
    },
    "wof:country":"US",
    "wof:geomhash":"715ed6549255f4b1318536413a0b7a83",
    "wof:hierarchy":[
        {
            "country_id":85633793,
            "county_id":102084283,
            "neighbourhood_id":85851779,
            "region_id":85688629,
            "venue_id":554936099
        }
    ],
    "wof:id":554936099,
    "wof:lastmodified":1461017165,
    "wof:name":"Douglas Stuart Property Mgmt",
    "wof:parent_id":85851779,
    "wof:placetype":"venue",
    "wof:superseded_by":[],
    "wof:supersedes":[],
    "wof:tags":[
        "buyer",
        "manager",
        "broker"
    ]
},
  "bbox": [
    -73.498849,
    41.144597,
    -73.498849,
    41.144597
],
  "geometry": {"coordinates":[-73.49884900000001,41.144597],"type":"Point"}
}