{
  "id": 572178343,
  "type": "Feature",
  "properties": {
    "edtf:cessation":"uuuu",
    "edtf:inception":"uuuu",
    "geom:area":0.0,
    "geom:bbox":"-79.714146,42.061653,-79.714146,42.061653",
    "geom:latitude":42.061653,
    "geom:longitude":-79.714146,
    "iso:country":"US",
    "sg:address":"1489 French Creek Mina Rd",
    "sg:city":"Clymer",
    "sg:classifiers":[
        {
            "category":"Shopping",
            "subcategory":"Hobbies, Toys, & Games",
            "type":"Retail Goods"
        },
        {
            "category":"Recreation",
            "subcategory":"Gun Range",
            "type":"Entertainment"
        }
    ],
    "sg:owner":"simplegeo",
    "sg:phone":"+1 716 355 4259",
    "sg:postcode":"14724",
    "sg:province":"NY",
    "sg:tags":[
        "safety",
        "instruction",
        "marksmanship",
        "gunsmith"
    ],
    "src:geom":"simplegeo",
    "wof:belongsto":[
        85688481,
        85633793,
        85850957,
        102080955
    ],
    "wof:breaches":[],
    "wof:concordances":{
        "sg:id":"SG_0CZpeN6z5u8YpAQFDTQFjs_42.061653_-79.714146@1303262403"
    },
    "wof:country":"US",
    "wof:geomhash":"0bc1e89a3f8d1f955014b7dd16f373b6",
    "wof:hierarchy":[
        {
            "country_id":85633793,
            "county_id":102080955,
            "neighbourhood_id":85850957,
            "region_id":85688481,
            "venue_id":572178343
        }
    ],
    "wof:id":572178343,
    "wof:lastmodified":1461051667,
    "wof:name":"Carl D Nielsen Guns Ammo & Accessories",
    "wof:parent_id":85850957,
    "wof:placetype":"venue",
    "wof:superseded_by":[],
    "wof:supersedes":[],
    "wof:tags":[
        "safety",
        "instruction",
        "marksmanship",
        "gunsmith"
    ]
},
  "bbox": [
    -79.714146,
    42.061653,
    -79.714146,
    42.061653
],
  "geometry": {"coordinates":[-79.714146,42.061653],"type":"Point"}
}