{
  "id": 554937513,
  "type": "Feature",
  "properties": {
    "edtf:cessation":"uuuu",
    "edtf:inception":"uuuu",
    "geom:area":0.0,
    "geom:bbox":"-73.649457,41.028807,-73.649457,41.028807",
    "geom:latitude":41.028807,
    "geom:longitude":-73.649457,
    "iso:country":"US",
    "sg:address":"38 Angus Ln",
    "sg:city":"Greenwich",
    "sg:classifiers":[
        {
            "category":"Professional",
            "subcategory":"Management & Consulting",
            "type":"Services"
        }
    ],
    "sg:owner":"simplegeo",
    "sg:phone":"+1   ",
    "sg:postcode":"06831",
    "sg:province":"NY",
    "sg:tags":[
        "marketing",
        "magazine",
        "consumer",
        "subscription"
    ],
    "src:geom":"simplegeo",
    "wof:belongsto":[
        420555529,
        102191575,
        404495949,
        85633793,
        85930941,
        102084283,
        85688629
    ],
    "wof:breaches":[],
    "wof:concordances":{
        "sg:id":"SG_4erGE57pOYQvCmLNiy2Vb8_41.028807_-73.649457@1294177022"
    },
    "wof:country":"US",
    "wof:geomhash":"8304a2458c32d6c8da8e5d9b980f9c4f",
    "wof:hierarchy":[
        {
            "continent_id":102191575,
            "country_id":85633793,
            "county_id":102084283,
            "localadmin_id":404495949,
            "locality_id":85930941,
            "neighbourhood_id":420555529,
            "region_id":85688629,
            "venue_id":554937513
        }
    ],
    "wof:id":554937513,
    "wof:lastmodified":1461017381,
    "wof:name":"John Condon & Associates",
    "wof:parent_id":420555529,
    "wof:placetype":"venue",
    "wof:superseded_by":[],
    "wof:supersedes":[],
    "wof:tags":[
        "marketing",
        "magazine",
        "consumer",
        "subscription"
    ]
},
  "bbox": [
    -73.649457,
    41.028807,
    -73.649457,
    41.028807
],
  "geometry": {"coordinates":[-73.649457,41.028807],"type":"Point"}
}