{
  "id": 554933995,
  "type": "Feature",
  "properties": {
    "edtf:cessation":"uuuu",
    "edtf:inception":"uuuu",
    "geom:area":0.0,
    "geom:bbox":"-73.494507,41.146839,-73.494507,41.146839",
    "geom:latitude":41.146839,
    "geom:longitude":-73.494507,
    "iso:country":"US",
    "sg:address":"111 Elm St",
    "sg:city":"New Canaan",
    "sg:classifiers":[
        {
            "category":"Organizations",
            "subcategory":"Professional Association",
            "type":"Services"
        }
    ],
    "sg:owner":"simplegeo",
    "sg:phone":"+1 203 966 2004",
    "sg:postcode":"06840",
    "sg:province":"NY",
    "sg:tags":[
        "chambers",
        "executive",
        "business",
        "commerce"
    ],
    "src:geom":"simplegeo",
    "wof:belongsto":[
        85688629,
        85633793,
        85851779,
        102084283
    ],
    "wof:breaches":[],
    "wof:concordances":{
        "sg:id":"SG_0WXfo5PoklxskZuZtp9Wko_41.146839_-73.494507@1294177022"
    },
    "wof:country":"US",
    "wof:geomhash":"29e3dc08e272022711f9d67c4eabe9bd",
    "wof:hierarchy":[
        {
            "country_id":85633793,
            "county_id":102084283,
            "neighbourhood_id":85851779,
            "region_id":85688629,
            "venue_id":554933995
        }
    ],
    "wof:id":554933995,
    "wof:lastmodified":1461016881,
    "wof:name":"New Canaan Chamber Of Commerce",
    "wof:parent_id":85851779,
    "wof:placetype":"venue",
    "wof:superseded_by":[],
    "wof:supersedes":[],
    "wof:tags":[
        "chambers",
        "executive",
        "business",
        "commerce"
    ]
},
  "bbox": [
    -73.494507,
    41.146839,
    -73.494507,
    41.146839
],
  "geometry": {"coordinates":[-73.494507,41.146839],"type":"Point"}
}