{
  "id": 555074547,
  "type": "Feature",
  "properties": {
    "edtf:cessation":"uuuu",
    "edtf:inception":"uuuu",
    "geom:area":0.0,
    "geom:bbox":"-75.125337,42.999887,-75.125337,42.999887",
    "geom:latitude":42.999887,
    "geom:longitude":-75.125337,
    "iso:country":"US",
    "sg:address":"134 Cemetery Rd",
    "sg:city":"Frankfort",
    "sg:classifiers":[
        {
            "category":"Freight",
            "subcategory":"",
            "type":"Transportation"
        }
    ],
    "sg:owner":"simplegeo",
    "sg:phone":"+1   ",
    "sg:postcode":"13340",
    "sg:province":"NY",
    "sg:tags":[
        "operator",
        "local",
        "trucking"
    ],
    "src:geom":"simplegeo",
    "wof:belongsto":[],
    "wof:breaches":[],
    "wof:concordances":{
        "sg:id":"SG_4kPqznQ2RrC1ejmZSC4EvW_42.999887_-75.125337@1294177022"
    },
    "wof:country":"US",
    "wof:geomhash":"597eefaee3d2100bb57f556ada0a8c33",
    "wof:hierarchy":[],
    "wof:id":555074547,
    "wof:lastmodified":1461021351,
    "wof:name":"Blackjack Trucking",
    "wof:parent_id":420528821,
    "wof:placetype":"venue",
    "wof:superseded_by":[],
    "wof:supersedes":[],
    "wof:tags":[
        "operator",
        "local",
        "trucking"
    ]
},
  "bbox": [
    -75.125337,
    42.999887,
    -75.125337,
    42.999887
],
  "geometry": {"coordinates":[-75.125337,42.999887],"type":"Point"}
}