{
  "id": 554940937,
  "type": "Feature",
  "properties": {
    "edtf:cessation":"uuuu",
    "edtf:inception":"uuuu",
    "geom:area":0.0,
    "geom:bbox":"-73.502271,41.15095,-73.502271,41.15095",
    "geom:latitude":41.15095,
    "geom:longitude":-73.502271,
    "iso:country":"US",
    "sg:address":"38 Gerrish Ln",
    "sg:city":"New Canaan",
    "sg:classifiers":[
        {
            "category":"Professional",
            "subcategory":"",
            "type":"Services"
        }
    ],
    "sg:owner":"simplegeo",
    "sg:phone":"+1 203 966 0612",
    "sg:postcode":"06840",
    "sg:province":"NY",
    "src:geom":"simplegeo",
    "wof:belongsto":[
        85688629,
        85633793,
        85851779,
        102084283
    ],
    "wof:breaches":[],
    "wof:concordances":{
        "sg:id":"SG_2BwejKwOrrpwXYBPwK8Cc2_41.150950_-73.502271@1294177022"
    },
    "wof:country":"US",
    "wof:geomhash":"083c5056bc2f5eafe49698b5d80897f4",
    "wof:hierarchy":[
        {
            "country_id":85633793,
            "county_id":102084283,
            "neighbourhood_id":85851779,
            "region_id":85688629,
            "venue_id":554940937
        }
    ],
    "wof:id":554940937,
    "wof:lastmodified":1461017691,
    "wof:name":"Frank E Grzelecki",
    "wof:parent_id":85851779,
    "wof:placetype":"venue",
    "wof:superseded_by":[],
    "wof:supersedes":[],
    "wof:tags":[]
},
  "bbox": [
    -73.502271,
    41.15095,
    -73.502271,
    41.15095
],
  "geometry": {"coordinates":[-73.50227099999999,41.15095],"type":"Point"}
}