{
  "id": 554938395,
  "type": "Feature",
  "properties": {
    "edtf:cessation":"uuuu",
    "edtf:inception":"uuuu",
    "geom:area":0.0,
    "geom:bbox":"-73.687193,41.083714,-73.687193,41.083714",
    "geom:latitude":41.083714,
    "geom:longitude":-73.687193,
    "iso:country":"US",
    "sg:address":"528 Riversville Rd",
    "sg:city":"Greenwich",
    "sg:classifiers":[
        {
            "category":"Professional",
            "subcategory":"",
            "type":"Services"
        }
    ],
    "sg:owner":"simplegeo",
    "sg:phone":"+1 203 661 4590",
    "sg:postcode":"06831",
    "sg:province":"NY",
    "src:geom":"simplegeo",
    "wof:belongsto":[
        85688629,
        85633793,
        85837667,
        102084283
    ],
    "wof:breaches":[],
    "wof:concordances":{
        "sg:id":"SG_4otbYOrl42zJkUAc3gXtBo_41.083714_-73.687193@1294177022"
    },
    "wof:country":"US",
    "wof:geomhash":"636480a649c5b8e4b811328ff6f160fd",
    "wof:hierarchy":[
        {
            "country_id":85633793,
            "county_id":102084283,
            "neighbourhood_id":85837667,
            "region_id":85688629,
            "venue_id":554938395
        }
    ],
    "wof:id":554938395,
    "wof:lastmodified":1461017474,
    "wof:name":"Dr Vitka",
    "wof:parent_id":85837667,
    "wof:placetype":"venue",
    "wof:superseded_by":[],
    "wof:supersedes":[],
    "wof:tags":[]
},
  "bbox": [
    -73.687193,
    41.083714,
    -73.687193,
    41.083714
],
  "geometry": {"coordinates":[-73.68719299999999,41.083714],"type":"Point"}
}