{
  "id": 554936559,
  "type": "Feature",
  "properties": {
    "edtf:cessation":"uuuu",
    "edtf:inception":"uuuu",
    "geom:area":0.0,
    "geom:bbox":"-73.632854,41.147227,-73.632854,41.147227",
    "geom:latitude":41.147227,
    "geom:longitude":-73.632854,
    "iso:country":"US",
    "sg:address":"16 Hobby Farms Dr",
    "sg:city":"Bedford",
    "sg:classifiers":[
        {
            "category":"Real Estate",
            "subcategory":"Real Estate Agent",
            "type":"Services"
        }
    ],
    "sg:owner":"simplegeo",
    "sg:phone":"+1 914 234 0050",
    "sg:postcode":"10506",
    "sg:province":"NY",
    "src:geom":"simplegeo",
    "wof:belongsto":[
        85688629,
        85633793,
        85930787,
        102084283,
        85838073
    ],
    "wof:breaches":[],
    "wof:concordances":{
        "sg:id":"SG_0FE1gITG3mXtHpkNDEostU_41.147227_-73.632854@1294177022"
    },
    "wof:country":"US",
    "wof:geomhash":"e9883f1034ecddc49d552d6a88644a03",
    "wof:hierarchy":[
        {
            "country_id":85633793,
            "county_id":102084283,
            "locality_id":85930787,
            "neighbourhood_id":85838073,
            "region_id":85688629,
            "venue_id":554936559
        }
    ],
    "wof:id":554936559,
    "wof:lastmodified":1461017239,
    "wof:name":"Jbm Realty Capital",
    "wof:parent_id":85838073,
    "wof:placetype":"venue",
    "wof:superseded_by":[],
    "wof:supersedes":[],
    "wof:tags":[]
},
  "bbox": [
    -73.632854,
    41.147227,
    -73.632854,
    41.147227
],
  "geometry": {"coordinates":[-73.63285399999999,41.147227],"type":"Point"}
}