{
  "id": 554937589,
  "type": "Feature",
  "properties": {
    "edtf:cessation":"uuuu",
    "edtf:inception":"uuuu",
    "geom:area":0.0,
    "geom:bbox":"-73.513602,41.169887,-73.513602,41.169887",
    "geom:latitude":41.169887,
    "geom:longitude":-73.513602,
    "iso:country":"US",
    "sg:address":"687 Oenoke Ridge",
    "sg:city":"New Canaan",
    "sg:classifiers":[
        {
            "category":"Banks & Credit Unions",
            "subcategory":"Financial Services",
            "type":"Services"
        }
    ],
    "sg:owner":"simplegeo",
    "sg:phone":"+1 203 912 1051",
    "sg:postcode":"06840",
    "sg:province":"NY",
    "sg:tags":[
        "investment",
        "closed"
    ],
    "src:geom":"simplegeo",
    "wof:belongsto":[],
    "wof:breaches":[],
    "wof:concordances":{
        "sg:id":"SG_5zlIaqX3ly41OZAlOrWNwb_41.169887_-73.513602@1294177022"
    },
    "wof:country":"US",
    "wof:geomhash":"be0bdb6a6bcf4fab5a1dfc119b5d04d9",
    "wof:hierarchy":[],
    "wof:id":554937589,
    "wof:lastmodified":1461017391,
    "wof:name":"Drexler Family Ltd Partne",
    "wof:parent_id":-1,
    "wof:placetype":"venue",
    "wof:superseded_by":[],
    "wof:supersedes":[],
    "wof:tags":[
        "investment",
        "closed"
    ]
},
  "bbox": [
    -73.513602,
    41.169887,
    -73.513602,
    41.169887
],
  "geometry": {"coordinates":[-73.51360200000001,41.169887],"type":"Point"}
}