{
  "id": 572174129,
  "type": "Feature",
  "properties": {
    "edtf:cessation":"uuuu",
    "edtf:inception":"uuuu",
    "geom:area":0.0,
    "geom:bbox":"-72.509256,41.301059,-72.509256,41.301059",
    "geom:latitude":41.301059,
    "geom:longitude":-72.509256,
    "iso:country":"US",
    "sg:address":"311 Edws Blvd",
    "sg:city":"Long Beach",
    "sg:classifiers":[
        {
            "category":"Food & Beverages",
            "subcategory":"Liquor & Beverages",
            "type":"Retail Goods"
        }
    ],
    "sg:owner":"simplegeo",
    "sg:phone":"+1 516 431 0808",
    "sg:postcode":"11561",
    "sg:province":"NY",
    "sg:tags":[
        "beer",
        "spirit",
        "wine"
    ],
    "src:geom":"simplegeo",
    "wof:belongsto":[],
    "wof:breaches":[],
    "wof:concordances":{
        "sg:id":"SG_3nDb8i0oLuXEUx1Spv8jv0_41.301059_-72.509256@1303262367"
    },
    "wof:country":"US",
    "wof:geomhash":"a66bfdcabcf1a20da4db8e15b8b47b61",
    "wof:hierarchy":[],
    "wof:id":572174129,
    "wof:lastmodified":1461051533,
    "wof:name":"Lafayette Liquor Store",
    "wof:parent_id":-1,
    "wof:placetype":"venue",
    "wof:superseded_by":[],
    "wof:supersedes":[],
    "wof:tags":[
        "beer",
        "spirit",
        "wine"
    ]
},
  "bbox": [
    -72.509256,
    41.301059,
    -72.509256,
    41.301059
],
  "geometry": {"coordinates":[-72.50925599999999,41.301059],"type":"Point"}
}