{
  "id": 554934911,
  "type": "Feature",
  "properties": {
    "edtf:cessation":"uuuu",
    "edtf:inception":"uuuu",
    "geom:area":0.0,
    "geom:bbox":"-73.484599,41.210165,-73.484599,41.210165",
    "geom:latitude":41.210165,
    "geom:longitude":-73.484599,
    "iso:country":"US",
    "sg:address":"45 Journeys End Rd",
    "sg:city":"New Canaan",
    "sg:classifiers":[
        {
            "category":"Professional",
            "subcategory":"Business Services",
            "type":"Services"
        }
    ],
    "sg:owner":"simplegeo",
    "sg:phone":"+1   ",
    "sg:postcode":"06840",
    "sg:province":"NY",
    "sg:tags":[
        "interior",
        "designer"
    ],
    "src:geom":"simplegeo",
    "wof:belongsto":[],
    "wof:breaches":[],
    "wof:concordances":{
        "sg:id":"SG_3NQTlZlIEXUo6Exjx04FRw_41.210165_-73.484599@1294177022"
    },
    "wof:country":"US",
    "wof:geomhash":"f98d262d5106e624ae2ad42982e693ac",
    "wof:hierarchy":[],
    "wof:id":554934911,
    "wof:lastmodified":1461016999,
    "wof:name":"Todays Intriors Suzanne Miller",
    "wof:parent_id":-1,
    "wof:placetype":"venue",
    "wof:superseded_by":[],
    "wof:supersedes":[],
    "wof:tags":[
        "interior",
        "designer"
    ]
},
  "bbox": [
    -73.484599,
    41.210165,
    -73.484599,
    41.210165
],
  "geometry": {"coordinates":[-73.484599,41.210165],"type":"Point"}
}