{
  "id": 554940769,
  "type": "Feature",
  "properties": {
    "edtf:cessation":"uuuu",
    "edtf:inception":"uuuu",
    "geom:area":0.0,
    "geom:bbox":"-74.04448,41.06908,-74.04448,41.06908",
    "geom:latitude":41.06908,
    "geom:longitude":-74.04448,
    "iso:country":"US",
    "sg:address":"606 S Pascack Rd",
    "sg:city":"Spring Valley",
    "sg:classifiers":[
        {
            "category":"Restaurant",
            "subcategory":"",
            "type":"Food & Drink"
        }
    ],
    "sg:owner":"simplegeo",
    "sg:phone":"+1   ",
    "sg:postcode":"10977",
    "sg:province":"NY",
    "sg:tags":[
        "eating"
    ],
    "src:geom":"simplegeo",
    "wof:belongsto":[
        85853261,
        102191575,
        404523097,
        85633793,
        85978555,
        102082385,
        85688543
    ],
    "wof:breaches":[],
    "wof:concordances":{
        "sg:id":"SG_0y4auHQm4oKYb0W40tjcl9_41.069080_-74.044480@1294177022"
    },
    "wof:country":"US",
    "wof:geomhash":"d514e9ddfa3f4812c6e511ac97343672",
    "wof:hierarchy":[
        {
            "continent_id":102191575,
            "country_id":85633793,
            "county_id":102082385,
            "localadmin_id":404523097,
            "locality_id":85978555,
            "neighbourhood_id":85853261,
            "region_id":85688543,
            "venue_id":554940769
        }
    ],
    "wof:id":554940769,
    "wof:lastmodified":1461017677,
    "wof:name":"Jade Village",
    "wof:parent_id":85853261,
    "wof:placetype":"venue",
    "wof:superseded_by":[],
    "wof:supersedes":[],
    "wof:tags":[
        "eating"
    ]
},
  "bbox": [
    -74.04448,
    41.06908,
    -74.04448,
    41.06908
],
  "geometry": {"coordinates":[-74.04447999999999,41.06908],"type":"Point"}
}