{
  "id": 554936671,
  "type": "Feature",
  "properties": {
    "edtf:cessation":"uuuu",
    "edtf:inception":"uuuu",
    "geom:area":0.0,
    "geom:bbox":"-73.492692,41.136496,-73.492692,41.136496",
    "geom:latitude":41.136496,
    "geom:longitude":-73.492692,
    "iso:country":"US",
    "sg:address":"42 Whitney Ave",
    "sg:city":"New Canaan",
    "sg:classifiers":[
        {
            "category":"Building & Trades",
            "subcategory":"Construction",
            "type":"Services"
        }
    ],
    "sg:owner":"simplegeo",
    "sg:phone":"+1 203 972 3253",
    "sg:postcode":"06840",
    "sg:province":"NY",
    "sg:tags":[
        "carpenter"
    ],
    "src:geom":"simplegeo",
    "wof:belongsto":[
        85688629,
        85633793,
        85851779,
        102084283
    ],
    "wof:breaches":[],
    "wof:concordances":{
        "sg:id":"SG_0WiEjJH6EBudlsdUFNTgJd_41.136496_-73.492692@1294177022"
    },
    "wof:country":"US",
    "wof:geomhash":"801249218be166658303611f3af3c156",
    "wof:hierarchy":[
        {
            "country_id":85633793,
            "county_id":102084283,
            "neighbourhood_id":85851779,
            "region_id":85688629,
            "venue_id":554936671
        }
    ],
    "wof:id":554936671,
    "wof:lastmodified":1461017255,
    "wof:name":"Bob's Carpentry",
    "wof:parent_id":85851779,
    "wof:placetype":"venue",
    "wof:superseded_by":[],
    "wof:supersedes":[],
    "wof:tags":[
        "carpenter"
    ]
},
  "bbox": [
    -73.492692,
    41.136496,
    -73.492692,
    41.136496
],
  "geometry": {"coordinates":[-73.49269200000001,41.136496],"type":"Point"}
}