{
  "id": 554941955,
  "type": "Feature",
  "properties": {
    "edtf:cessation":"uuuu",
    "edtf:inception":"uuuu",
    "geom:area":0.0,
    "geom:bbox":"-73.671363,41.116908,-73.671363,41.116908",
    "geom:latitude":41.116908,
    "geom:longitude":-73.671363,
    "iso:country":"US",
    "sg:address":"61 Sumner Rd",
    "sg:city":"Greenwich",
    "sg:classifiers":[
        {
            "category":"Professional",
            "subcategory":"Computer Services",
            "type":"Services"
        }
    ],
    "sg:owner":"simplegeo",
    "sg:phone":"+1   ",
    "sg:postcode":"06831",
    "sg:province":"NY",
    "sg:tags":[
        "prepackaged",
        "software"
    ],
    "src:geom":"simplegeo",
    "wof:belongsto":[
        85688629,
        85633793,
        85837667,
        102084283
    ],
    "wof:breaches":[],
    "wof:concordances":{
        "sg:id":"SG_2CB5wcV9RdG09J0YZlPOEL_41.116908_-73.671363@1294177022"
    },
    "wof:country":"US",
    "wof:geomhash":"2891efa275dce110eb75eef70f3908c4",
    "wof:hierarchy":[
        {
            "country_id":85633793,
            "county_id":102084283,
            "neighbourhood_id":85837667,
            "region_id":85688629,
            "venue_id":554941955
        }
    ],
    "wof:id":554941955,
    "wof:lastmodified":1461017824,
    "wof:name":"Shibui Data Corp",
    "wof:parent_id":85837667,
    "wof:placetype":"venue",
    "wof:superseded_by":[],
    "wof:supersedes":[],
    "wof:tags":[
        "prepackaged",
        "software"
    ]
},
  "bbox": [
    -73.671363,
    41.116908,
    -73.671363,
    41.116908
],
  "geometry": {"coordinates":[-73.671363,41.116908],"type":"Point"}
}