{
  "id": 554938591,
  "type": "Feature",
  "properties": {
    "edtf:cessation":"uuuu",
    "edtf:inception":"uuuu",
    "geom:area":0.0,
    "geom:bbox":"-73.46321,41.148759,-73.46321,41.148759",
    "geom:latitude":41.148759,
    "geom:longitude":-73.46321,
    "iso:country":"US",
    "sg:address":"112 Dabney Rd",
    "sg:city":"New Canaan",
    "sg:classifiers":[
        {
            "category":"Building & Trades",
            "subcategory":"Equipment Rental",
            "type":"Services"
        }
    ],
    "sg:owner":"simplegeo",
    "sg:phone":"+1 203 966 2398",
    "sg:postcode":"06840",
    "sg:province":"NY",
    "sg:tags":[
        "leasing"
    ],
    "src:geom":"simplegeo",
    "wof:belongsto":[
        85688629,
        85633793,
        85848785,
        102084283
    ],
    "wof:breaches":[],
    "wof:concordances":{
        "sg:id":"SG_24ezO9ukf5x24JbPzvKO79_41.148759_-73.463210@1294177022"
    },
    "wof:country":"US",
    "wof:geomhash":"19f0d68bcdbfbb5145641cf180217724",
    "wof:hierarchy":[
        {
            "country_id":85633793,
            "county_id":102084283,
            "neighbourhood_id":85848785,
            "region_id":85688629,
            "venue_id":554938591
        }
    ],
    "wof:id":554938591,
    "wof:lastmodified":1461017489,
    "wof:name":"Danwin Leasing Co",
    "wof:parent_id":85848785,
    "wof:placetype":"venue",
    "wof:superseded_by":[],
    "wof:supersedes":[],
    "wof:tags":[
        "leasing"
    ]
},
  "bbox": [
    -73.46321,
    41.148759,
    -73.46321,
    41.148759
],
  "geometry": {"coordinates":[-73.46321,41.148759],"type":"Point"}
}