{
  "id": 555469945,
  "type": "Feature",
  "properties": {
    "edtf:cessation":"uuuu",
    "edtf:inception":"uuuu",
    "geom:area":0.0,
    "geom:bbox":"-79.479593,42.382467,-79.479593,42.382467",
    "geom:latitude":42.382467,
    "geom:longitude":-79.479593,
    "iso:country":"US",
    "sg:address":"8814 Onthank Rd",
    "sg:city":"Portland",
    "sg:classifiers":[
        {
            "category":"Farming",
            "subcategory":"Vineyard",
            "type":"Manufacturing & Wholesale Goods"
        }
    ],
    "sg:owner":"simplegeo",
    "sg:phone":"+1 716 792 9657",
    "sg:postcode":"14769",
    "sg:province":"NY",
    "sg:tags":[
        "grape"
    ],
    "src:geom":"simplegeo",
    "wof:belongsto":[],
    "wof:breaches":[],
    "wof:concordances":{
        "sg:id":"SG_6WDu8MkxdgdhJmxBA43xIF_42.382467_-79.479593@1294177022"
    },
    "wof:country":"US",
    "wof:geomhash":"457129726b7cb912c0c278718b144305",
    "wof:hierarchy":[],
    "wof:id":555469945,
    "wof:lastmodified":1461030657,
    "wof:name":"Treebor",
    "wof:parent_id":420528233,
    "wof:placetype":"venue",
    "wof:superseded_by":[],
    "wof:supersedes":[],
    "wof:tags":[
        "grape"
    ]
},
  "bbox": [
    -79.479593,
    42.382467,
    -79.479593,
    42.382467
],
  "geometry": {"coordinates":[-79.47959299999999,42.382467],"type":"Point"}
}