{
  "id": 554939341,
  "type": "Feature",
  "properties": {
    "edtf:cessation":"uuuu",
    "edtf:inception":"uuuu",
    "geom:area":0.0,
    "geom:bbox":"-73.491979,41.146822,-73.491979,41.146822",
    "geom:latitude":41.146822,
    "geom:longitude":-73.491979,
    "iso:country":"US",
    "sg:address":"9 Burtis Ave",
    "sg:city":"New Canaan",
    "sg:classifiers":[
        {
            "category":"Personal",
            "subcategory":"Barber",
            "type":"Services"
        }
    ],
    "sg:owner":"simplegeo",
    "sg:phone":"+1   ",
    "sg:postcode":"06840",
    "sg:province":"NY",
    "sg:tags":[
        "shop"
    ],
    "src:geom":"simplegeo",
    "wof:belongsto":[
        85688629,
        85633793,
        85851779,
        102084283
    ],
    "wof:breaches":[],
    "wof:concordances":{
        "sg:id":"SG_0RY8UM7FzUnaJcWVS0DJvQ_41.146822_-73.491979@1294177022"
    },
    "wof:country":"US",
    "wof:geomhash":"306449859432364191f9f8cd6b446256",
    "wof:hierarchy":[
        {
            "country_id":85633793,
            "county_id":102084283,
            "neighbourhood_id":85851779,
            "region_id":85688629,
            "venue_id":554939341
        }
    ],
    "wof:id":554939341,
    "wof:lastmodified":1461017554,
    "wof:name":"Lisas Classic Cuts",
    "wof:parent_id":85851779,
    "wof:placetype":"venue",
    "wof:superseded_by":[],
    "wof:supersedes":[],
    "wof:tags":[
        "shop"
    ]
},
  "bbox": [
    -73.491979,
    41.146822,
    -73.491979,
    41.146822
],
  "geometry": {"coordinates":[-73.491979,41.146822],"type":"Point"}
}