{
  "id": 554936897,
  "type": "Feature",
  "properties": {
    "edtf:cessation":"uuuu",
    "edtf:inception":"uuuu",
    "geom:area":0.0,
    "geom:bbox":"-79.758973,42.244297,-79.758973,42.244297",
    "geom:latitude":42.244297,
    "geom:longitude":-79.758973,
    "iso:country":"US",
    "sg:address":"10765 W Main Rd",
    "sg:city":"Ripley",
    "sg:classifiers":[
        {
            "category":"Food & Beverages",
            "subcategory":"Groceries & Convenience Stores",
            "type":"Retail Goods"
        }
    ],
    "sg:owner":"simplegeo",
    "sg:phone":"+1 716 736 3833",
    "sg:postcode":"14775",
    "sg:province":"NY",
    "sg:tags":[
        "grocer"
    ],
    "src:geom":"simplegeo",
    "wof:belongsto":[
        85688481,
        85633793,
        85850957,
        102080955
    ],
    "wof:breaches":[],
    "wof:concordances":{
        "sg:id":"SG_07ffvmV28lza0ONKE5wIeX_42.244297_-79.758973@1294177022"
    },
    "wof:country":"US",
    "wof:geomhash":"0e91b6fd9013aa7b0d4c41663a78f2e2",
    "wof:hierarchy":[
        {
            "country_id":85633793,
            "county_id":102080955,
            "neighbourhood_id":85850957,
            "region_id":85688481,
            "venue_id":554936897
        }
    ],
    "wof:id":554936897,
    "wof:lastmodified":1461017288,
    "wof:name":"State Line Grocery",
    "wof:parent_id":85850957,
    "wof:placetype":"venue",
    "wof:superseded_by":[],
    "wof:supersedes":[],
    "wof:tags":[
        "grocer"
    ]
},
  "bbox": [
    -79.758973,
    42.244297,
    -79.758973,
    42.244297
],
  "geometry": {"coordinates":[-79.758973,42.244297],"type":"Point"}
}