{
  "id": 554935049,
  "type": "Feature",
  "properties": {
    "edtf:cessation":"uuuu",
    "edtf:inception":"uuuu",
    "geom:area":0.0,
    "geom:bbox":"-73.499276,41.145804,-73.499276,41.145804",
    "geom:latitude":41.145804,
    "geom:longitude":-73.499276,
    "iso:country":"US",
    "sg:address":"175 Elm St",
    "sg:city":"New Canaan",
    "sg:classifiers":[
        {
            "category":"Autos & Motor Vehicles",
            "subcategory":"Fuel & Gas Station",
            "type":"Retail Goods"
        }
    ],
    "sg:owner":"simplegeo",
    "sg:phone":"+1   ",
    "sg:postcode":"06840",
    "sg:province":"NY",
    "sg:tags":[
        "repair",
        "station",
        "gasoline",
        "general"
    ],
    "src:geom":"simplegeo",
    "wof:belongsto":[
        85688629,
        85633793,
        85851779,
        102084283
    ],
    "wof:breaches":[],
    "wof:concordances":{
        "sg:id":"SG_4Gj6bC7HQ6AvVOgUM7YflV_41.145804_-73.499276@1294177022"
    },
    "wof:country":"US",
    "wof:geomhash":"50257000ef58cfa2f41f4fe1864bd4e8",
    "wof:hierarchy":[
        {
            "country_id":85633793,
            "county_id":102084283,
            "neighbourhood_id":85851779,
            "region_id":85688629,
            "venue_id":554935049
        }
    ],
    "wof:id":554935049,
    "wof:lastmodified":1461017017,
    "wof:name":"Citgo",
    "wof:parent_id":85851779,
    "wof:placetype":"venue",
    "wof:superseded_by":[],
    "wof:supersedes":[],
    "wof:tags":[
        "repair",
        "station",
        "gasoline",
        "general"
    ]
},
  "bbox": [
    -73.499276,
    41.145804,
    -73.499276,
    41.145804
],
  "geometry": {"coordinates":[-73.49927599999999,41.145804],"type":"Point"}
}