{
  "id": 555644993,
  "type": "Feature",
  "properties": {
    "edtf:cessation":"uuuu",
    "edtf:inception":"uuuu",
    "geom:area":0.0,
    "geom:bbox":"-78.737498,42.628717,-78.737498,42.628717",
    "geom:latitude":42.628717,
    "geom:longitude":-78.737498,
    "iso:country":"US",
    "sg:address":"9368 Boston State Rd",
    "sg:city":"Boston",
    "sg:classifiers":[
        {
            "category":"Restaurant",
            "subcategory":"",
            "type":"Food & Drink"
        }
    ],
    "sg:owner":"simplegeo",
    "sg:phone":"+1 716 941 6886",
    "sg:postcode":"14025",
    "sg:province":"NY",
    "src:geom":"simplegeo",
    "wof:belongsto":[],
    "wof:breaches":[],
    "wof:concordances":{
        "sg:id":"SG_7dK5xvpUpv9QiCcdg0x1kw_42.628717_-78.737498@1294177022"
    },
    "wof:country":"US",
    "wof:geomhash":"00d193fcdb59a91d16b03378f312fc68",
    "wof:hierarchy":[],
    "wof:id":555644993,
    "wof:lastmodified":1461034524,
    "wof:name":"Liberty Tavern",
    "wof:parent_id":-1,
    "wof:placetype":"venue",
    "wof:superseded_by":[],
    "wof:supersedes":[],
    "wof:tags":[]
},
  "bbox": [
    -78.737498,
    42.628717,
    -78.737498,
    42.628717
],
  "geometry": {"coordinates":[-78.737498,42.628717],"type":"Point"}
}