{
  "id": 555490409,
  "type": "Feature",
  "properties": {
    "edtf:cessation":"uuuu",
    "edtf:inception":"uuuu",
    "geom:area":0.0,
    "geom:bbox":"-72.420337,41.077792,-72.420337,41.077792",
    "geom:latitude":41.077792,
    "geom:longitude":-72.420337,
    "iso:country":"US",
    "sg:address":"1180 Long Creek Dr",
    "sg:city":"Southold",
    "sg:classifiers":[
        {
            "category":"Building & Trades",
            "subcategory":"Cleaning & Sanitation",
            "type":"Services"
        }
    ],
    "sg:owner":"simplegeo",
    "sg:phone":"+1 631 765 6586",
    "sg:postcode":"11971",
    "sg:province":"NY",
    "sg:tags":[
        "butler",
        "maid"
    ],
    "src:geom":"simplegeo",
    "wof:belongsto":[],
    "wof:breaches":[],
    "wof:concordances":{
        "sg:id":"SG_4J2J5GMVyo7Al9nOHqciP7_41.077792_-72.420337@1294177022"
    },
    "wof:country":"US",
    "wof:geomhash":"c815caa52aeeab46dfe347286a8776e3",
    "wof:hierarchy":[],
    "wof:id":555490409,
    "wof:lastmodified":1461031104,
    "wof:name":"Maid To Perfection-The East",
    "wof:parent_id":-1,
    "wof:placetype":"venue",
    "wof:superseded_by":[],
    "wof:supersedes":[],
    "wof:tags":[
        "butler",
        "maid"
    ]
},
  "bbox": [
    -72.420337,
    41.077792,
    -72.420337,
    41.077792
],
  "geometry": {"coordinates":[-72.420337,41.077792],"type":"Point"}
}