{
  "id": 554935269,
  "type": "Feature",
  "properties": {
    "edtf:cessation":"uuuu",
    "edtf:inception":"uuuu",
    "geom:area":0.0,
    "geom:bbox":"-74.047975,41.089904,-74.047975,41.089904",
    "geom:latitude":41.089904,
    "geom:longitude":-74.047975,
    "iso:country":"US",
    "sg:address":"11 Weiss Ter",
    "sg:city":"Spring Valley",
    "sg:classifiers":[
        {
            "category":"Local Transit",
            "subcategory":"",
            "type":"Transportation"
        }
    ],
    "sg:owner":"simplegeo",
    "sg:phone":"+1 845 352 1024",
    "sg:postcode":"10977",
    "sg:province":"NY",
    "sg:tags":[
        "passenger",
        "limousine"
    ],
    "sg:website":"www.ad1limo.net",
    "src:geom":"simplegeo",
    "wof:belongsto":[
        85853261,
        102191575,
        404523097,
        85633793,
        85978555,
        102082385,
        85688543
    ],
    "wof:breaches":[],
    "wof:concordances":{
        "sg:id":"SG_3AYe1Q6ykzlqij1lTuaFHl_41.089904_-74.047975@1294177022"
    },
    "wof:country":"US",
    "wof:geomhash":"0dba7891c2c8b99320db2c14068590e5",
    "wof:hierarchy":[
        {
            "continent_id":102191575,
            "country_id":85633793,
            "county_id":102082385,
            "localadmin_id":404523097,
            "locality_id":85978555,
            "neighbourhood_id":85853261,
            "region_id":85688543,
            "venue_id":554935269
        }
    ],
    "wof:id":554935269,
    "wof:lastmodified":1461017047,
    "wof:name":"A-D-1 Limousine Inc",
    "wof:parent_id":85853261,
    "wof:placetype":"venue",
    "wof:superseded_by":[],
    "wof:supersedes":[],
    "wof:tags":[
        "passenger",
        "limousine"
    ]
},
  "bbox": [
    -74.047975,
    41.089904,
    -74.047975,
    41.089904
],
  "geometry": {"coordinates":[-74.04797499999999,41.089904],"type":"Point"}
}