{
  "id": 554939225,
  "type": "Feature",
  "properties": {
    "edtf:cessation":"uuuu",
    "edtf:inception":"uuuu",
    "geom:area":0.0,
    "geom:bbox":"-77.310177,41.986709,-77.310177,41.986709",
    "geom:latitude":41.986709,
    "geom:longitude":-77.310177,
    "iso:country":"US",
    "sg:address":"111 E Main St",
    "sg:city":"Elkland",
    "sg:classifiers":[
        {
            "category":"Autos & Motor Vehicles",
            "subcategory":"Fuel & Gas Station",
            "type":"Retail Goods"
        }
    ],
    "sg:owner":"simplegeo",
    "sg:phone":"+1 814 258 7259",
    "sg:postcode":"16920",
    "sg:province":"NY",
    "sg:tags":[
        "oil"
    ],
    "src:geom":"simplegeo",
    "wof:belongsto":[
        85688481,
        85633793,
        101717081,
        102080937,
        85807903
    ],
    "wof:breaches":[],
    "wof:concordances":{
        "sg:id":"SG_5lRy0EZZu2BXq5WEezLSCc_41.986709_-77.310177@1294177022"
    },
    "wof:country":"US",
    "wof:geomhash":"cb3a94fdb610ae15426672eb6f9312eb",
    "wof:hierarchy":[
        {
            "country_id":85633793,
            "county_id":102080937,
            "locality_id":101717081,
            "neighbourhood_id":85807903,
            "region_id":85688481,
            "venue_id":554939225
        }
    ],
    "wof:id":554939225,
    "wof:lastmodified":1461017536,
    "wof:name":"Elkland Exxon",
    "wof:parent_id":85807903,
    "wof:placetype":"venue",
    "wof:superseded_by":[],
    "wof:supersedes":[],
    "wof:tags":[
        "oil"
    ]
},
  "bbox": [
    -77.310177,
    41.986709,
    -77.310177,
    41.986709
],
  "geometry": {"coordinates":[-77.310177,41.986709],"type":"Point"}
}