{
  "id": 554942013,
  "type": "Feature",
  "properties": {
    "edtf:cessation":"uuuu",
    "edtf:inception":"uuuu",
    "geom:area":0.0,
    "geom:bbox":"-74.039804,41.073998,-74.039804,41.073998",
    "geom:latitude":41.073998,
    "geom:longitude":-74.039804,
    "iso:country":"US",
    "sg:address":"11 Wallace Dr",
    "sg:city":"Spring Valley",
    "sg:classifiers":[
        {
            "category":"Building & Trades",
            "subcategory":"Cleaning & Sanitation",
            "type":"Services"
        }
    ],
    "sg:owner":"simplegeo",
    "sg:phone":"+1 845 735 3322",
    "sg:postcode":"10977",
    "sg:province":"NY",
    "sg:tags":[
        "janitor"
    ],
    "src:geom":"simplegeo",
    "wof:belongsto":[
        85853261,
        102191575,
        404523097,
        85633793,
        85978555,
        102082385,
        85688543
    ],
    "wof:breaches":[],
    "wof:concordances":{
        "sg:id":"SG_3AiKMNUfSaoOszGNLDavYV_41.073998_-74.039804@1294177022"
    },
    "wof:country":"US",
    "wof:geomhash":"9d8618dbb225f90f73831f29ca01dcd5",
    "wof:hierarchy":[
        {
            "continent_id":102191575,
            "country_id":85633793,
            "county_id":102082385,
            "localadmin_id":404523097,
            "locality_id":85978555,
            "neighbourhood_id":85853261,
            "region_id":85688543,
            "venue_id":554942013
        }
    ],
    "wof:id":554942013,
    "wof:lastmodified":1461017834,
    "wof:name":"Constant Building Svc Inc",
    "wof:parent_id":85853261,
    "wof:placetype":"venue",
    "wof:superseded_by":[],
    "wof:supersedes":[],
    "wof:tags":[
        "janitor"
    ]
},
  "bbox": [
    -74.039804,
    41.073998,
    -74.039804,
    41.073998
],
  "geometry": {"coordinates":[-74.039804,41.073998],"type":"Point"}
}