{
  "id": 554936761,
  "type": "Feature",
  "properties": {
    "edtf:cessation":"uuuu",
    "edtf:inception":"uuuu",
    "geom:area":0.0,
    "geom:bbox":"-73.515764,41.115912,-73.515764,41.115912",
    "geom:latitude":41.115912,
    "geom:longitude":-73.515764,
    "iso:country":"US",
    "sg:address":"81 Woodway Ridge Ln",
    "sg:city":"New Canaan",
    "sg:classifiers":[
        {
            "category":"Professional",
            "subcategory":"",
            "type":"Services"
        }
    ],
    "sg:owner":"simplegeo",
    "sg:phone":"+1 203 966 4895",
    "sg:postcode":"06840",
    "sg:province":"NY",
    "src:geom":"simplegeo",
    "wof:belongsto":[
        85688629,
        85633793,
        85851779,
        102084283
    ],
    "wof:breaches":[],
    "wof:concordances":{
        "sg:id":"SG_29vH00RSOjoDQt91sggIop_41.115912_-73.515764@1294177022"
    },
    "wof:country":"US",
    "wof:geomhash":"31a52cfd6eb26fb40d2ae2a8fc71d7f0",
    "wof:hierarchy":[
        {
            "country_id":85633793,
            "county_id":102084283,
            "neighbourhood_id":85851779,
            "region_id":85688629,
            "venue_id":554936761
        }
    ],
    "wof:id":554936761,
    "wof:lastmodified":1461017272,
    "wof:name":"Heaphy Main Street LLC",
    "wof:parent_id":85851779,
    "wof:placetype":"venue",
    "wof:superseded_by":[],
    "wof:supersedes":[],
    "wof:tags":[]
},
  "bbox": [
    -73.515764,
    41.115912,
    -73.515764,
    41.115912
],
  "geometry": {"coordinates":[-73.515764,41.115912],"type":"Point"}
}