{
  "id": 554935889,
  "type": "Feature",
  "properties": {
    "edtf:cessation":"uuuu",
    "edtf:inception":"uuuu",
    "geom:area":0.0,
    "geom:bbox":"-73.221462,42.515478,-73.221462,42.515478",
    "geom:latitude":42.515478,
    "geom:longitude":-73.221462,
    "iso:country":"US",
    "sg:address":"17 Juliann Dr",
    "sg:city":"Lanesboro",
    "sg:classifiers":[
        {
            "category":"Organizations",
            "subcategory":"Religious Organization",
            "type":"Services"
        }
    ],
    "sg:owner":"simplegeo",
    "sg:phone":"+1   ",
    "sg:postcode":"01237",
    "sg:province":"NY",
    "src:geom":"simplegeo",
    "wof:belongsto":[
        85688645,
        85633793,
        85809097,
        102084369
    ],
    "wof:breaches":[],
    "wof:concordances":{
        "sg:id":"SG_7OwlHtJiZ7XWab3JvFLIb7_42.515478_-73.221462@1294177022"
    },
    "wof:country":"US",
    "wof:geomhash":"5b8f42c3b9944922de744123930494d5",
    "wof:hierarchy":[
        {
            "country_id":85633793,
            "county_id":102084369,
            "neighbourhood_id":85809097,
            "region_id":85688645,
            "venue_id":554935889
        }
    ],
    "wof:id":554935889,
    "wof:lastmodified":1461017132,
    "wof:name":"North American Martyrs Parish",
    "wof:parent_id":85809097,
    "wof:placetype":"venue",
    "wof:superseded_by":[],
    "wof:supersedes":[],
    "wof:tags":[]
},
  "bbox": [
    -73.221462,
    42.515478,
    -73.221462,
    42.515478
],
  "geometry": {"coordinates":[-73.221462,42.515478],"type":"Point"}
}