{
  "id": 572170787,
  "type": "Feature",
  "properties": {
    "edtf:cessation":"uuuu",
    "edtf:inception":"uuuu",
    "geom:area":0.0,
    "geom:bbox":"-74.257823,40.643927,-74.257823,40.643927",
    "geom:latitude":40.643927,
    "geom:longitude":-74.257823,
    "iso:country":"US",
    "sg:address":"471 53rd St",
    "sg:city":"Brooklyn",
    "sg:classifiers":[
        {
            "category":"Health Services",
            "subcategory":"Doctor",
            "type":"Services"
        }
    ],
    "sg:owner":"simplegeo",
    "sg:phone":"+1 718 492 4109",
    "sg:postcode":"11220",
    "sg:province":"NY",
    "src:geom":"simplegeo",
    "wof:belongsto":[
        85817887,
        102191575,
        404477587,
        85633793,
        85975833,
        102085995,
        85688607
    ],
    "wof:breaches":[],
    "wof:concordances":{
        "sg:id":"SG_63h1oXtcYOAAusHc6pfmfY_40.643927_-74.257823@1303262344"
    },
    "wof:country":"US",
    "wof:geomhash":"8736b21e0ea0a1460e1c0c993fc0b3a8",
    "wof:hierarchy":[
        {
            "continent_id":102191575,
            "country_id":85633793,
            "county_id":102085995,
            "localadmin_id":404477587,
            "locality_id":85975833,
            "neighbourhood_id":85817887,
            "region_id":85688607,
            "venue_id":572170787
        }
    ],
    "wof:id":572170787,
    "wof:lastmodified":1461051433,
    "wof:name":"Sanchez Pena Jose R",
    "wof:parent_id":85817887,
    "wof:placetype":"venue",
    "wof:superseded_by":[],
    "wof:supersedes":[],
    "wof:tags":[]
},
  "bbox": [
    -74.257823,
    40.643927,
    -74.257823,
    40.643927
],
  "geometry": {"coordinates":[-74.257823,40.643927],"type":"Point"}
}