{
  "id": 554936439,
  "type": "Feature",
  "properties": {
    "edtf:cessation":"uuuu",
    "edtf:inception":"uuuu",
    "geom:area":0.0,
    "geom:bbox":"-73.491965,41.148952,-73.491965,41.148952",
    "geom:latitude":41.148952,
    "geom:longitude":-73.491965,
    "iso:country":"US",
    "sg:address":"3 Forest St",
    "sg:city":"New Canaan",
    "sg:classifiers":[
        {
            "category":"Shopping",
            "subcategory":"Shoes",
            "type":"Retail Goods"
        }
    ],
    "sg:owner":"simplegeo",
    "sg:phone":"+1 203 966 3114",
    "sg:postcode":"06840",
    "sg:province":"NY",
    "src:geom":"simplegeo",
    "wof:belongsto":[
        85688629,
        85633793,
        85851779,
        102084283
    ],
    "wof:breaches":[],
    "wof:concordances":{
        "sg:id":"SG_3qMB7xLdBnX0pxMXU2MMVy_41.148952_-73.491965@1294177022"
    },
    "wof:country":"US",
    "wof:geomhash":"478a446776497f4aee8c2e0a21840a18",
    "wof:hierarchy":[
        {
            "country_id":85633793,
            "county_id":102084283,
            "neighbourhood_id":85851779,
            "region_id":85688629,
            "venue_id":554936439
        }
    ],
    "wof:id":554936439,
    "wof:lastmodified":1461017221,
    "wof:name":"Athletic Shoe Factory",
    "wof:parent_id":85851779,
    "wof:placetype":"venue",
    "wof:superseded_by":[],
    "wof:supersedes":[],
    "wof:tags":[]
},
  "bbox": [
    -73.491965,
    41.148952,
    -73.491965,
    41.148952
],
  "geometry": {"coordinates":[-73.49196499999999,41.148952],"type":"Point"}
}