{
  "id": 554940253,
  "type": "Feature",
  "properties": {
    "edtf:cessation":"uuuu",
    "edtf:inception":"uuuu",
    "geom:area":0.0,
    "geom:bbox":"-79.73509,42.115786,-79.73509,42.115786",
    "geom:latitude":42.115786,
    "geom:longitude":-79.73509,
    "iso:country":"US",
    "sg:address":"2737 Shadyside Rd",
    "sg:city":"Findley Lake",
    "sg:classifiers":[
        {
            "category":"Travel",
            "subcategory":"Hotels & Motels",
            "type":"Entertainment"
        }
    ],
    "sg:owner":"simplegeo",
    "sg:phone":"+1 716 769 7329",
    "sg:postcode":"14724",
    "sg:province":"NY",
    "sg:tags":[
        "breakfast",
        "accommodation",
        "bed"
    ],
    "src:geom":"simplegeo",
    "wof:belongsto":[
        85688481,
        85633793,
        85850957,
        102080955
    ],
    "wof:breaches":[],
    "wof:concordances":{
        "sg:id":"SG_3oESybjoNEPevHBeOjiKAw_42.115786_-79.735090@1294177022"
    },
    "wof:country":"US",
    "wof:geomhash":"907568c54d6f6b411f7d651d968a0d96",
    "wof:hierarchy":[
        {
            "country_id":85633793,
            "county_id":102080955,
            "neighbourhood_id":85850957,
            "region_id":85688481,
            "venue_id":554940253
        }
    ],
    "wof:id":554940253,
    "wof:lastmodified":1461017637,
    "wof:name":"Blair House Bed & Breakfast",
    "wof:parent_id":85850957,
    "wof:placetype":"venue",
    "wof:superseded_by":[],
    "wof:supersedes":[],
    "wof:tags":[
        "breakfast",
        "accommodation",
        "bed"
    ]
},
  "bbox": [
    -79.73509,
    42.115786,
    -79.73509,
    42.115786
],
  "geometry": {"coordinates":[-79.73509,42.115786],"type":"Point"}
}