{
  "id": 554934607,
  "type": "Feature",
  "properties": {
    "edtf:cessation":"uuuu",
    "edtf:inception":"uuuu",
    "geom:area":0.0,
    "geom:bbox":"-73.487399,41.131413,-73.487399,41.131413",
    "geom:latitude":41.131413,
    "geom:longitude":-73.487399,
    "iso:country":"US",
    "sg:address":"681 South Ave",
    "sg:city":"New Canaan",
    "sg:classifiers":[
        {
            "category":"Shopping",
            "subcategory":"",
            "type":"Retail Goods"
        }
    ],
    "sg:owner":"simplegeo",
    "sg:phone":"+1 203 972 1895",
    "sg:postcode":"06840",
    "sg:province":"NY",
    "sg:tags":[
        "art",
        "gallery",
        "dealer"
    ],
    "src:geom":"simplegeo",
    "wof:belongsto":[
        85688629,
        85633793,
        85851779,
        102084283
    ],
    "wof:breaches":[],
    "wof:concordances":{
        "sg:id":"SG_42DtJaX2kf4YZZJtOzG5NX_41.131413_-73.487399@1294177022"
    },
    "wof:country":"US",
    "wof:geomhash":"36f4f05d3e203570cfd2e211986e9a06",
    "wof:hierarchy":[
        {
            "country_id":85633793,
            "county_id":102084283,
            "neighbourhood_id":85851779,
            "region_id":85688629,
            "venue_id":554934607
        }
    ],
    "wof:id":554934607,
    "wof:lastmodified":1461016963,
    "wof:name":"Carriage Barn Arts Ctr-Wavenry",
    "wof:parent_id":85851779,
    "wof:placetype":"venue",
    "wof:superseded_by":[],
    "wof:supersedes":[],
    "wof:tags":[
        "art",
        "gallery",
        "dealer"
    ]
},
  "bbox": [
    -73.487399,
    41.131413,
    -73.487399,
    41.131413
],
  "geometry": {"coordinates":[-73.487399,41.131413],"type":"Point"}
}