{
  "id": 554938541,
  "type": "Feature",
  "properties": {
    "edtf:cessation":"uuuu",
    "edtf:inception":"uuuu",
    "geom:area":0.0,
    "geom:bbox":"-73.637576,41.174762,-73.637576,41.174762",
    "geom:latitude":41.174762,
    "geom:longitude":-73.637576,
    "iso:country":"US",
    "sg:address":"5 Stone Hedge Cir",
    "sg:city":"Bedford",
    "sg:classifiers":[
        {
            "category":"Professional",
            "subcategory":"Computer Services",
            "type":"Services"
        }
    ],
    "sg:owner":"simplegeo",
    "sg:phone":"+1 914 522 4461",
    "sg:postcode":"10506",
    "sg:province":"NY",
    "sg:tags":[
        "repair"
    ],
    "src:geom":"simplegeo",
    "wof:belongsto":[
        85688629,
        85633793,
        85930787,
        102084283,
        85838073
    ],
    "wof:breaches":[],
    "wof:concordances":{
        "sg:id":"SG_5l7Ujofhw9XOfQpORAWoYG_41.174762_-73.637576@1294177022"
    },
    "wof:country":"US",
    "wof:geomhash":"82cf47f7e88038806e928d8112ce3ef7",
    "wof:hierarchy":[
        {
            "country_id":85633793,
            "county_id":102084283,
            "locality_id":85930787,
            "neighbourhood_id":85838073,
            "region_id":85688629,
            "venue_id":554938541
        }
    ],
    "wof:id":554938541,
    "wof:lastmodified":1461017485,
    "wof:name":"Galli Consulting",
    "wof:parent_id":85838073,
    "wof:placetype":"venue",
    "wof:superseded_by":[],
    "wof:supersedes":[],
    "wof:tags":[
        "repair"
    ]
},
  "bbox": [
    -73.637576,
    41.174762,
    -73.637576,
    41.174762
],
  "geometry": {"coordinates":[-73.637576,41.174762],"type":"Point"}
}