{
  "id": 554937415,
  "type": "Feature",
  "properties": {
    "edtf:cessation":"uuuu",
    "edtf:inception":"uuuu",
    "geom:area":0.0,
    "geom:bbox":"-73.493232,41.146834,-73.493232,41.146834",
    "geom:latitude":41.146834,
    "geom:longitude":-73.493232,
    "iso:country":"US",
    "sg:address":"6 Elm St",
    "sg:city":"New Canaan",
    "sg:classifiers":[
        {
            "category":"Retail",
            "subcategory":"Laundry & Dry Cleaning",
            "type":"Services"
        }
    ],
    "sg:owner":"simplegeo",
    "sg:phone":"+1   ",
    "sg:postcode":"06840",
    "sg:province":"NY",
    "src:geom":"simplegeo",
    "wof:belongsto":[
        85688629,
        85633793,
        85851779,
        102084283
    ],
    "wof:breaches":[],
    "wof:concordances":{
        "sg:id":"SG_2cbsBYbzq3JdKvXrpU5Pja_41.146834_-73.493232@1294177022"
    },
    "wof:country":"US",
    "wof:geomhash":"f28ff5badfe88b0a94f492258937fbc1",
    "wof:hierarchy":[
        {
            "country_id":85633793,
            "county_id":102084283,
            "neighbourhood_id":85851779,
            "region_id":85688629,
            "venue_id":554937415
        }
    ],
    "wof:id":554937415,
    "wof:lastmodified":1461017369,
    "wof:name":"Furs By Frederick Mann",
    "wof:parent_id":85851779,
    "wof:placetype":"venue",
    "wof:superseded_by":[],
    "wof:supersedes":[],
    "wof:tags":[]
},
  "bbox": [
    -73.493232,
    41.146834,
    -73.493232,
    41.146834
],
  "geometry": {"coordinates":[-73.49323200000001,41.146834],"type":"Point"}
}