{
  "id": 572171467,
  "type": "Feature",
  "properties": {
    "edtf:cessation":"uuuu",
    "edtf:inception":"uuuu",
    "geom:area":0.0,
    "geom:bbox":"-74.931787,40.682859,-74.931787,40.682859",
    "geom:latitude":40.682859,
    "geom:longitude":-74.931787,
    "iso:country":"US",
    "sg:address":"534 Henry St",
    "sg:city":"Brooklyn",
    "sg:classifiers":[
        {
            "category":"Retail",
            "subcategory":"Laundry & Dry Cleaning",
            "type":"Services"
        }
    ],
    "sg:owner":"simplegeo",
    "sg:phone":"+1 718 624 6724",
    "sg:postcode":"11231",
    "sg:province":"NY",
    "src:geom":"simplegeo",
    "wof:belongsto":[
        85688607,
        85633793,
        85842587,
        102085997
    ],
    "wof:breaches":[],
    "wof:concordances":{
        "sg:id":"SG_12cRl4LFETuK1uKLZl0Is0_40.682859_-74.931787@1303262348"
    },
    "wof:country":"US",
    "wof:geomhash":"d13975c63ef91d067ba048b82fc072de",
    "wof:hierarchy":[
        {
            "country_id":85633793,
            "county_id":102085997,
            "neighbourhood_id":85842587,
            "region_id":85688607,
            "venue_id":572171467
        }
    ],
    "wof:id":572171467,
    "wof:lastmodified":1461051456,
    "wof:name":"Randex Cleaners",
    "wof:parent_id":85842587,
    "wof:placetype":"venue",
    "wof:superseded_by":[],
    "wof:supersedes":[],
    "wof:tags":[]
},
  "bbox": [
    -74.931787,
    40.682859,
    -74.931787,
    40.682859
],
  "geometry": {"coordinates":[-74.931787,40.682859],"type":"Point"}
}