{
  "id": 555713021,
  "type": "Feature",
  "properties": {
    "edtf:cessation":"uuuu",
    "edtf:inception":"uuuu",
    "geom:area":0.0,
    "geom:bbox":"-74.094004,41.11059,-74.094004,41.11059",
    "geom:latitude":41.11059,
    "geom:longitude":-74.094004,
    "iso:country":"US",
    "sg:address":"382 State Hwy 59",
    "sg:city":"Airmont",
    "sg:classifiers":[
        {
            "category":"Autos & Motor Vehicles",
            "subcategory":"Automobile Sales",
            "type":"Retail Goods"
        }
    ],
    "sg:owner":"simplegeo",
    "sg:phone":"+1 845 357 1023",
    "sg:postcode":"10952",
    "sg:province":"NY",
    "sg:tags":[
        "equipment",
        "aircraft",
        "parts",
        "supply"
    ],
    "sg:website":"www.beprincess.com",
    "src:geom":"simplegeo",
    "wof:belongsto":[],
    "wof:breaches":[],
    "wof:concordances":{
        "sg:id":"SG_5xHpUaTFwMHcjNgifxJrCK_41.110590_-74.094004@1294177022"
    },
    "wof:country":"US",
    "wof:geomhash":"225278e2b5f196a52ec56f41fe129ee0",
    "wof:hierarchy":[],
    "wof:id":555713021,
    "wof:lastmodified":1461035932,
    "wof:name":"B E Princess Div",
    "wof:parent_id":-1,
    "wof:placetype":"venue",
    "wof:superseded_by":[],
    "wof:supersedes":[],
    "wof:tags":[
        "equipment",
        "aircraft",
        "parts",
        "supply"
    ]
},
  "bbox": [
    -74.094004,
    41.11059,
    -74.094004,
    41.11059
],
  "geometry": {"coordinates":[-74.094004,41.11059],"type":"Point"}
}