{
  "id": 572170305,
  "type": "Feature",
  "properties": {
    "edtf:cessation":"uuuu",
    "edtf:inception":"uuuu",
    "geom:area":0.0,
    "geom:bbox":"-74.281916,40.619618,-74.281916,40.619618",
    "geom:latitude":40.619618,
    "geom:longitude":-74.281916,
    "iso:country":"US",
    "sg:address":"9116 3rd Ave",
    "sg:city":"Brooklyn",
    "sg:classifiers":[
        {
            "category":"Food & Beverages",
            "subcategory":"Groceries & Convenience Stores",
            "type":"Retail Goods"
        }
    ],
    "sg:owner":"simplegeo",
    "sg:phone":"+1 718 745 9135",
    "sg:postcode":"11209",
    "sg:province":"NY",
    "src:geom":"simplegeo",
    "wof:belongsto":[],
    "wof:breaches":[],
    "wof:concordances":{
        "sg:id":"SG_6USk2Rngdb31BTxzxd5Rml_40.619618_-74.281916@1303262339"
    },
    "wof:country":"US",
    "wof:geomhash":"3a1bd9cdf956525f6bc165fbddfe4bc2",
    "wof:hierarchy":[],
    "wof:id":572170305,
    "wof:lastmodified":1461051416,
    "wof:name":"Sapan Convenience Store",
    "wof:parent_id":-1,
    "wof:placetype":"venue",
    "wof:superseded_by":[],
    "wof:supersedes":[],
    "wof:tags":[]
},
  "bbox": [
    -74.281916,
    40.619618,
    -74.281916,
    40.619618
],
  "geometry": {"coordinates":[-74.281916,40.619618],"type":"Point"}
}