{
  "id": 572170899,
  "type": "Feature",
  "properties": {
    "edtf:cessation":"uuuu",
    "edtf:inception":"uuuu",
    "geom:area":0.0,
    "geom:bbox":"-74.247492,40.636519,-74.247492,40.636519",
    "geom:latitude":40.636519,
    "geom:longitude":-74.247492,
    "iso:country":"US",
    "sg:address":"5803 8th Ave",
    "sg:city":"Brooklyn",
    "sg:classifiers":[
        {
            "category":"Food & Beverages",
            "subcategory":"Groceries & Convenience Stores",
            "type":"Retail Goods"
        }
    ],
    "sg:owner":"simplegeo",
    "sg:phone":"+1 718 633 2521",
    "sg:postcode":"11220",
    "sg:province":"NY",
    "src:geom":"simplegeo",
    "wof:belongsto":[
        85804971,
        102191575,
        404478503,
        85633793,
        85975837,
        102085995,
        85688607
    ],
    "wof:breaches":[],
    "wof:concordances":{
        "sg:id":"SG_3ZcYssdXR0pqiJA4hinylk_40.636519_-74.247492@1303262344"
    },
    "wof:country":"US",
    "wof:geomhash":"f8ea5cc75724fc682cb0159747438b27",
    "wof:hierarchy":[
        {
            "continent_id":102191575,
            "country_id":85633793,
            "county_id":102085995,
            "localadmin_id":404478503,
            "locality_id":85975837,
            "neighbourhood_id":85804971,
            "region_id":85688607,
            "venue_id":572170899
        }
    ],
    "wof:id":572170899,
    "wof:lastmodified":1461051435,
    "wof:name":"First Stop Grocery",
    "wof:parent_id":85804971,
    "wof:placetype":"venue",
    "wof:superseded_by":[],
    "wof:supersedes":[],
    "wof:tags":[]
},
  "bbox": [
    -74.247492,
    40.636519,
    -74.247492,
    40.636519
],
  "geometry": {"coordinates":[-74.24749199999999,40.636519],"type":"Point"}
}