{
  "id": 554935145,
  "type": "Feature",
  "properties": {
    "edtf:cessation":"uuuu",
    "edtf:inception":"uuuu",
    "geom:area":0.0,
    "geom:bbox":"-73.660844,41.025589,-73.660844,41.025589",
    "geom:latitude":41.025589,
    "geom:longitude":-73.660844,
    "iso:country":"US",
    "sg:address":"2 Morgan Ave",
    "sg:city":"Greenwich",
    "sg:classifiers":[
        {
            "category":"Food & Beverages",
            "subcategory":"Groceries & Convenience Stores",
            "type":"Retail Goods"
        }
    ],
    "sg:owner":"simplegeo",
    "sg:phone":"+1 203 531 5353",
    "sg:postcode":"06831",
    "sg:province":"NY",
    "sg:tags":[
        "eating"
    ],
    "src:geom":"simplegeo",
    "wof:belongsto":[
        420555461,
        102191575,
        404495949,
        85633793,
        85930937,
        102084283,
        85688629
    ],
    "wof:breaches":[],
    "wof:concordances":{
        "sg:id":"SG_7fdOeYNbxnnJ4VoPsZpGP3_41.025589_-73.660844@1294177022"
    },
    "wof:country":"US",
    "wof:geomhash":"bd42585b6b33693d6c68a70a94e29e2d",
    "wof:hierarchy":[
        {
            "continent_id":102191575,
            "country_id":85633793,
            "county_id":102084283,
            "localadmin_id":404495949,
            "locality_id":85930937,
            "neighbourhood_id":420555461,
            "region_id":85688629,
            "venue_id":554935145
        }
    ],
    "wof:id":554935145,
    "wof:lastmodified":1461017029,
    "wof:name":"Castle View Deli & Catering",
    "wof:parent_id":420555461,
    "wof:placetype":"venue",
    "wof:superseded_by":[],
    "wof:supersedes":[],
    "wof:tags":[
        "eating"
    ]
},
  "bbox": [
    -73.660844,
    41.025589,
    -73.660844,
    41.025589
],
  "geometry": {"coordinates":[-73.660844,41.025589],"type":"Point"}
}