{
  "id": 554940019,
  "type": "Feature",
  "properties": {
    "edtf:cessation":"uuuu",
    "edtf:inception":"uuuu",
    "geom:area":0.0,
    "geom:bbox":"-73.701395,41.066768,-73.701395,41.066768",
    "geom:latitude":41.066768,
    "geom:longitude":-73.701395,
    "iso:country":"US",
    "sg:address":"10 Hangar Rd",
    "sg:city":"White Plains",
    "sg:classifiers":[
        {
            "category":"Airport",
            "subcategory":"",
            "type":"Transportation"
        }
    ],
    "sg:owner":"simplegeo",
    "sg:phone":"+1   ",
    "sg:postcode":"10604",
    "sg:province":"NY",
    "sg:tags":[
        "nonscheduled",
        "air"
    ],
    "src:geom":"simplegeo",
    "wof:belongsto":[
        85845073,
        102191575,
        404523361,
        85633793,
        85978735,
        102082373,
        85688543
    ],
    "wof:breaches":[],
    "wof:concordances":{
        "sg:id":"SG_3sN3MNT3KBuLRmYQNW49Gy_41.066768_-73.701395@1294177022"
    },
    "wof:country":"US",
    "wof:geomhash":"81206bc1e8b84345cfd7b289ec052165",
    "wof:hierarchy":[
        {
            "continent_id":102191575,
            "country_id":85633793,
            "county_id":102082373,
            "localadmin_id":404523361,
            "locality_id":85978735,
            "neighbourhood_id":85845073,
            "region_id":85688543,
            "venue_id":554940019
        }
    ],
    "wof:id":554940019,
    "wof:lastmodified":1461017616,
    "wof:name":"Tag Aviation",
    "wof:parent_id":85845073,
    "wof:placetype":"venue",
    "wof:superseded_by":[],
    "wof:supersedes":[],
    "wof:tags":[
        "nonscheduled",
        "air"
    ]
},
  "bbox": [
    -73.701395,
    41.066768,
    -73.701395,
    41.066768
],
  "geometry": {"coordinates":[-73.70139500000001,41.066768],"type":"Point"}
}