{
  "id": 572064799,
  "type": "Feature",
  "properties": {
    "edtf:cessation":"uuuu",
    "edtf:inception":"uuuu",
    "geom:area":0.0,
    "geom:bbox":"-73.708601,41.118796,-73.708601,41.118796",
    "geom:latitude":41.118796,
    "geom:longitude":-73.708601,
    "iso:country":"US",
    "sg:address":"84 Business Park Dr Ste 202",
    "sg:city":"Armonk",
    "sg:classifiers":[
        {
            "category":"Banks & Credit Unions",
            "subcategory":"Investment Brokerage",
            "type":"Services"
        }
    ],
    "sg:owner":"simplegeo",
    "sg:phone":"+1 914 730 5800",
    "sg:postcode":"10504",
    "sg:province":"NY",
    "sg:tags":[
        "investing"
    ],
    "sg:website":"www.parallelasset.com",
    "src:geom":"simplegeo",
    "wof:belongsto":[],
    "wof:breaches":[],
    "wof:concordances":{
        "sg:id":"SG_0OI1J8AsNYGesg9FWzR7NI_41.118796_-73.708601@1303262324"
    },
    "wof:country":"US",
    "wof:geomhash":"cfb2fd274128cb9dba73c9d58ab5ffde",
    "wof:hierarchy":[],
    "wof:id":572064799,
    "wof:lastmodified":1461049157,
    "wof:name":"Parallel Asset Management Llc",
    "wof:parent_id":420530403,
    "wof:placetype":"venue",
    "wof:superseded_by":[],
    "wof:supersedes":[],
    "wof:tags":[
        "investing"
    ]
},
  "bbox": [
    -73.708601,
    41.118796,
    -73.708601,
    41.118796
],
  "geometry": {"coordinates":[-73.708601,41.118796],"type":"Point"}
}