{
  "id": 554940763,
  "type": "Feature",
  "properties": {
    "edtf:cessation":"uuuu",
    "edtf:inception":"uuuu",
    "geom:area":0.0,
    "geom:bbox":"-73.487465,41.138538,-73.487465,41.138538",
    "geom:latitude":41.138538,
    "geom:longitude":-73.487465,
    "iso:country":"US",
    "sg:address":"47 Kelley Green",
    "sg:city":"New Canaan",
    "sg:classifiers":[
        {
            "category":"Professional",
            "subcategory":"Advertising",
            "type":"Services"
        }
    ],
    "sg:owner":"simplegeo",
    "sg:phone":"+1   ",
    "sg:postcode":"06840",
    "sg:province":"NY",
    "sg:tags":[
        "agency"
    ],
    "src:geom":"simplegeo",
    "wof:belongsto":[
        85688629,
        85633793,
        85851779,
        102084283
    ],
    "wof:breaches":[],
    "wof:concordances":{
        "sg:id":"SG_2GKKnrOyjVt9EhkN26Pdbz_41.138538_-73.487465@1294177022"
    },
    "wof:country":"US",
    "wof:geomhash":"2f12bb3867f1b7dd242323cc48c3fd07",
    "wof:hierarchy":[
        {
            "country_id":85633793,
            "county_id":102084283,
            "neighbourhood_id":85851779,
            "region_id":85688629,
            "venue_id":554940763
        }
    ],
    "wof:id":554940763,
    "wof:lastmodified":1461017677,
    "wof:name":"Kerchoff Ad & Design",
    "wof:parent_id":85851779,
    "wof:placetype":"venue",
    "wof:superseded_by":[],
    "wof:supersedes":[],
    "wof:tags":[
        "agency"
    ]
},
  "bbox": [
    -73.487465,
    41.138538,
    -73.487465,
    41.138538
],
  "geometry": {"coordinates":[-73.487465,41.138538],"type":"Point"}
}