{
  "id": 554935933,
  "type": "Feature",
  "properties": {
    "edtf:cessation":"uuuu",
    "edtf:inception":"uuuu",
    "geom:area":0.0,
    "geom:bbox":"-73.48527,41.126653,-73.48527,41.126653",
    "geom:latitude":41.126653,
    "geom:longitude":-73.48527,
    "iso:country":"US",
    "sg:address":"468 South Ave",
    "sg:city":"New Canaan",
    "sg:classifiers":[
        {
            "category":"Education",
            "subcategory":"School",
            "type":"Public Place"
        }
    ],
    "sg:owner":"simplegeo",
    "sg:phone":"+1 203 972 4425",
    "sg:postcode":"06840",
    "sg:province":"NY",
    "sg:tags":[
        "executive"
    ],
    "src:geom":"simplegeo",
    "wof:belongsto":[
        85688629,
        85633793,
        85851779,
        102084283
    ],
    "wof:breaches":[],
    "wof:concordances":{
        "sg:id":"SG_3BaRknHbbaMy7hHfCWlV9X_41.126653_-73.485270@1294177022"
    },
    "wof:country":"US",
    "wof:geomhash":"404e50fb3488d830389bd8d6afee0705",
    "wof:hierarchy":[
        {
            "country_id":85633793,
            "county_id":102084283,
            "neighbourhood_id":85851779,
            "region_id":85688629,
            "venue_id":554935933
        }
    ],
    "wof:id":554935933,
    "wof:lastmodified":1461017138,
    "wof:name":"Saxe Middle School",
    "wof:parent_id":85851779,
    "wof:placetype":"venue",
    "wof:superseded_by":[],
    "wof:supersedes":[],
    "wof:tags":[
        "executive"
    ]
},
  "bbox": [
    -73.48527,
    41.126653,
    -73.48527,
    41.126653
],
  "geometry": {"coordinates":[-73.48527,41.126653],"type":"Point"}
}