{
  "id": 555454601,
  "type": "Feature",
  "properties": {
    "edtf:cessation":"uuuu",
    "edtf:inception":"uuuu",
    "geom:area":0.0,
    "geom:bbox":"-77.96153,43.051266,-77.96153,43.051266",
    "geom:latitude":43.051266,
    "geom:longitude":-77.96153,
    "iso:country":"US",
    "sg:address":"7451 S Lake Rd",
    "sg:city":"Bergen",
    "sg:classifiers":[
        {
            "category":"Shopping",
            "subcategory":"Gifts & Souvenirs",
            "type":"Retail Goods"
        }
    ],
    "sg:owner":"simplegeo",
    "sg:phone":"+1   ",
    "sg:postcode":"14416",
    "sg:province":"NY",
    "src:geom":"simplegeo",
    "wof:belongsto":[],
    "wof:breaches":[],
    "wof:concordances":{
        "sg:id":"SG_4UOpbWS3FBn6ODr9ZmFtHx_43.051266_-77.961530@1294177022"
    },
    "wof:country":"US",
    "wof:geomhash":"571cc1b29566d53ace9a80d72e039b3d",
    "wof:hierarchy":[],
    "wof:id":555454601,
    "wof:lastmodified":1461030231,
    "wof:name":"Wonders of Woods",
    "wof:parent_id":420528727,
    "wof:placetype":"venue",
    "wof:superseded_by":[],
    "wof:supersedes":[],
    "wof:tags":[]
},
  "bbox": [
    -77.96153,
    43.051266,
    -77.96153,
    43.051266
],
  "geometry": {"coordinates":[-77.96153,43.051266],"type":"Point"}
}