{
  "id": 554935575,
  "type": "Feature",
  "properties": {
    "edtf:cessation":"uuuu",
    "edtf:inception":"uuuu",
    "geom:area":0.0,
    "geom:bbox":"-79.740382,42.12606,-79.740382,42.12606",
    "geom:latitude":42.12606,
    "geom:longitude":-79.740382,
    "iso:country":"US",
    "sg:address":"2905 State Hwy 426",
    "sg:city":"Findley Lake",
    "sg:classifiers":[
        {
            "category":"Manufacturing",
            "subcategory":"Tools & Machinery",
            "type":"Manufacturing & Wholesale Goods"
        }
    ],
    "sg:owner":"simplegeo",
    "sg:phone":"+1   ",
    "sg:postcode":"14736",
    "sg:province":"NY",
    "sg:tags":[
        "turbine",
        "mfg"
    ],
    "src:geom":"simplegeo",
    "wof:belongsto":[
        85688481,
        85633793,
        85850957,
        102080955
    ],
    "wof:breaches":[],
    "wof:concordances":{
        "sg:id":"SG_0epxGUGwVoSF6lQRzi6zlK_42.126060_-79.740382@1294177022"
    },
    "wof:country":"US",
    "wof:geomhash":"52d18717c2dd951779ebd54de20d90fc",
    "wof:hierarchy":[
        {
            "country_id":85633793,
            "county_id":102080955,
            "neighbourhood_id":85850957,
            "region_id":85688481,
            "venue_id":554935575
        }
    ],
    "wof:id":554935575,
    "wof:lastmodified":1461017091,
    "wof:name":"Gorski Power",
    "wof:parent_id":85850957,
    "wof:placetype":"venue",
    "wof:superseded_by":[],
    "wof:supersedes":[],
    "wof:tags":[
        "turbine",
        "mfg"
    ]
},
  "bbox": [
    -79.740382,
    42.12606,
    -79.740382,
    42.12606
],
  "geometry": {"coordinates":[-79.740382,42.12606],"type":"Point"}
}