{
  "id": 554937081,
  "type": "Feature",
  "properties": {
    "edtf:cessation":"uuuu",
    "edtf:inception":"uuuu",
    "geom:area":0.0,
    "geom:bbox":"-73.49304,41.145882,-73.49304,41.145882",
    "geom:latitude":41.145882,
    "geom:longitude":-73.49304,
    "iso:country":"US",
    "sg:address":"16 South Ave",
    "sg:city":"New Canaan",
    "sg:classifiers":[
        {
            "category":"Autos & Motor Vehicles",
            "subcategory":"Fuel & Gas Station",
            "type":"Retail Goods"
        }
    ],
    "sg:owner":"simplegeo",
    "sg:phone":"+1 203 966 5004",
    "sg:postcode":"06840",
    "sg:province":"NY",
    "sg:tags":[
        "repair",
        "oil",
        "gasoline",
        "general",
        "convenience",
        "station"
    ],
    "src:geom":"simplegeo",
    "wof:belongsto":[
        85688629,
        85633793,
        85851779,
        102084283
    ],
    "wof:breaches":[],
    "wof:concordances":{
        "sg:id":"SG_2Tk8SjbQhecCMFDABqajr7_41.145882_-73.493040@1294177022"
    },
    "wof:country":"US",
    "wof:geomhash":"90d23852500cd383823f967513c4bbcb",
    "wof:hierarchy":[
        {
            "country_id":85633793,
            "county_id":102084283,
            "neighbourhood_id":85851779,
            "region_id":85688629,
            "venue_id":554937081
        }
    ],
    "wof:id":554937081,
    "wof:lastmodified":1461017314,
    "wof:name":"New Canaan Mobile",
    "wof:parent_id":85851779,
    "wof:placetype":"venue",
    "wof:superseded_by":[],
    "wof:supersedes":[],
    "wof:tags":[
        "repair",
        "oil",
        "gasoline",
        "general",
        "convenience",
        "station"
    ]
},
  "bbox": [
    -73.49304,
    41.145882,
    -73.49304,
    41.145882
],
  "geometry": {"coordinates":[-73.49303999999999,41.145882],"type":"Point"}
}