{
  "id": 555062205,
  "type": "Feature",
  "properties": {
    "edtf:cessation":"uuuu",
    "edtf:inception":"uuuu",
    "geom:area":0.0,
    "geom:bbox":"-74.648279,41.405097,-74.648279,41.405097",
    "geom:latitude":41.405097,
    "geom:longitude":-74.648279,
    "iso:country":"US",
    "sg:address":"9 Mallard Dr",
    "sg:city":"Port Jervis",
    "sg:classifiers":[
        {
            "category":"Manufacturing",
            "subcategory":"Paper Products",
            "type":"Manufacturing & Wholesale Goods"
        }
    ],
    "sg:owner":"simplegeo",
    "sg:phone":"+1   ",
    "sg:postcode":"12771",
    "sg:province":"NY",
    "sg:tags":[
        "mill"
    ],
    "src:geom":"simplegeo",
    "wof:belongsto":[],
    "wof:breaches":[],
    "wof:concordances":{
        "sg:id":"SG_4eP6Ku5tGfDoazGAkPqeq6_41.405097_-74.648279@1294177022"
    },
    "wof:country":"US",
    "wof:geomhash":"8cf9fd28217afcfb36328ba679019269",
    "wof:hierarchy":[],
    "wof:id":555062205,
    "wof:lastmodified":1461020949,
    "wof:name":"Kippys Creations",
    "wof:parent_id":420529459,
    "wof:placetype":"venue",
    "wof:superseded_by":[],
    "wof:supersedes":[],
    "wof:tags":[
        "mill"
    ]
},
  "bbox": [
    -74.648279,
    41.405097,
    -74.648279,
    41.405097
],
  "geometry": {"coordinates":[-74.648279,41.405097],"type":"Point"}
}