{
  "id": 554935387,
  "type": "Feature",
  "properties": {
    "edtf:cessation":"uuuu",
    "edtf:inception":"uuuu",
    "geom:area":0.0,
    "geom:bbox":"-73.628789,41.166833,-73.628789,41.166833",
    "geom:latitude":41.166833,
    "geom:longitude":-73.628789,
    "iso:country":"US",
    "sg:address":"5 Mianus River Rd",
    "sg:city":"Bedford",
    "sg:classifiers":[
        {
            "category":"Professional",
            "subcategory":"",
            "type":"Services"
        }
    ],
    "sg:owner":"simplegeo",
    "sg:phone":"+1 914 234 3841",
    "sg:postcode":"10506",
    "sg:province":"NY",
    "sg:tags":[
        "establishment"
    ],
    "src:geom":"simplegeo",
    "wof:belongsto":[
        85688629,
        85633793,
        85930787,
        102084283,
        85838073
    ],
    "wof:breaches":[],
    "wof:concordances":{
        "sg:id":"SG_5YoVu0cObb3KWIWoeeYAX1_41.166833_-73.628789@1294177022"
    },
    "wof:country":"US",
    "wof:geomhash":"6b5593b277415f0bd0b4c57cebd63f95",
    "wof:hierarchy":[
        {
            "country_id":85633793,
            "county_id":102084283,
            "locality_id":85930787,
            "neighbourhood_id":85838073,
            "region_id":85688629,
            "venue_id":554935387
        }
    ],
    "wof:id":554935387,
    "wof:lastmodified":1461017064,
    "wof:name":"Mac Donald Piers",
    "wof:parent_id":85838073,
    "wof:placetype":"venue",
    "wof:superseded_by":[],
    "wof:supersedes":[],
    "wof:tags":[
        "establishment"
    ]
},
  "bbox": [
    -73.628789,
    41.166833,
    -73.628789,
    41.166833
],
  "geometry": {"coordinates":[-73.628789,41.166833],"type":"Point"}
}