{
  "id": 572171609,
  "type": "Feature",
  "properties": {
    "edtf:cessation":"uuuu",
    "edtf:inception":"uuuu",
    "geom:area":0.0,
    "geom:bbox":"-74.180673,40.654854,-74.180673,40.654854",
    "geom:latitude":40.654854,
    "geom:longitude":-74.180673,
    "iso:country":"US",
    "sg:address":"940 4th Ave",
    "sg:city":"Brooklyn",
    "sg:classifiers":[
        {
            "category":"Shopping",
            "subcategory":"Mobile Phones",
            "type":"Retail Goods"
        }
    ],
    "sg:owner":"simplegeo",
    "sg:phone":"+1 718 788 8204",
    "sg:postcode":"11232",
    "sg:province":"NY",
    "src:geom":"simplegeo",
    "wof:belongsto":[
        85877221,
        102191575,
        404478497,
        85633793,
        85975847,
        102085995,
        85688607
    ],
    "wof:breaches":[],
    "wof:concordances":{
        "sg:id":"SG_0hyleKr5CfDwKMX3MWiCSg_40.654854_-74.180673@1303262348"
    },
    "wof:country":"US",
    "wof:geomhash":"3f8f1b1667c83fb5eaf0ecdb0b423e3d",
    "wof:hierarchy":[
        {
            "continent_id":102191575,
            "country_id":85633793,
            "county_id":102085995,
            "localadmin_id":404478497,
            "locality_id":85975847,
            "neighbourhood_id":85877221,
            "region_id":85688607,
            "venue_id":572171609
        }
    ],
    "wof:id":572171609,
    "wof:lastmodified":1461051458,
    "wof:name":"Mycell Communication",
    "wof:parent_id":85877221,
    "wof:placetype":"venue",
    "wof:superseded_by":[],
    "wof:supersedes":[],
    "wof:tags":[]
},
  "bbox": [
    -74.180673,
    40.654854,
    -74.180673,
    40.654854
],
  "geometry": {"coordinates":[-74.180673,40.654854],"type":"Point"}
}