{
  "id": 554935651,
  "type": "Feature",
  "properties": {
    "edtf:cessation":"uuuu",
    "edtf:inception":"uuuu",
    "geom:area":0.0,
    "geom:bbox":"-73.481125,41.193856,-73.481125,41.193856",
    "geom:latitude":41.193856,
    "geom:longitude":-73.481125,
    "iso:country":"US",
    "sg:address":"38 Evergreen Rd",
    "sg:city":"New Canaan",
    "sg:classifiers":[
        {
            "category":"Building & Trades",
            "subcategory":"Construction",
            "type":"Services"
        }
    ],
    "sg:owner":"simplegeo",
    "sg:phone":"+1 203 972 3210",
    "sg:postcode":"06840",
    "sg:province":"NY",
    "sg:tags":[
        "fence",
        "contractor"
    ],
    "src:geom":"simplegeo",
    "wof:belongsto":[],
    "wof:breaches":[],
    "wof:concordances":{
        "sg:id":"SG_0EyriH7DrsXmX3i8oCZv2Q_41.193856_-73.481125@1294177022"
    },
    "wof:country":"US",
    "wof:geomhash":"8d6cbb53e628662ff8801a08da154555",
    "wof:hierarchy":[],
    "wof:id":554935651,
    "wof:lastmodified":1461017103,
    "wof:name":"Parameters",
    "wof:parent_id":-1,
    "wof:placetype":"venue",
    "wof:superseded_by":[],
    "wof:supersedes":[],
    "wof:tags":[
        "fence",
        "contractor"
    ]
},
  "bbox": [
    -73.481125,
    41.193856,
    -73.481125,
    41.193856
],
  "geometry": {"coordinates":[-73.48112500000001,41.193856],"type":"Point"}
}