{
  "id": 554935363,
  "type": "Feature",
  "properties": {
    "edtf:cessation":"uuuu",
    "edtf:inception":"uuuu",
    "geom:area":0.0,
    "geom:bbox":"-73.656783,41.008729,-73.656783,41.008729",
    "geom:latitude":41.008729,
    "geom:longitude":-73.656783,
    "iso:country":"US",
    "sg:address":"460 N Main St",
    "sg:city":"Port Chester",
    "sg:classifiers":[
        {
            "category":"Wholesale",
            "subcategory":"Construction Materials",
            "type":"Manufacturing & Wholesale Goods"
        }
    ],
    "sg:owner":"simplegeo",
    "sg:phone":"+1 914 939 1100",
    "sg:postcode":"10573",
    "sg:province":"NY",
    "sg:tags":[
        "tile",
        "ceramic",
        "retail"
    ],
    "src:geom":"simplegeo",
    "wof:belongsto":[
        85808713,
        102191575,
        404523389,
        85633793,
        85978705,
        102082373,
        85688543,
        85885307,
        404495949,
        85930941,
        102084283,
        85688629
    ],
    "wof:breaches":[],
    "wof:concordances":{
        "sg:id":"SG_4uZwVac6Rg0Q7XlX9uZJ1Q_41.008729_-73.656783@1294177022"
    },
    "wof:country":"US",
    "wof:geomhash":"11e0eee0bacff00b8c9cd5e90b495d86",
    "wof:hierarchy":[
        {
            "continent_id":102191575,
            "country_id":85633793,
            "county_id":102082373,
            "localadmin_id":404523389,
            "locality_id":85978705,
            "neighbourhood_id":85808713,
            "region_id":85688543,
            "venue_id":554935363
        },
        {
            "continent_id":102191575,
            "country_id":85633793,
            "county_id":102084283,
            "localadmin_id":404495949,
            "locality_id":85930941,
            "neighbourhood_id":85885307,
            "region_id":85688629,
            "venue_id":554935363
        }
    ],
    "wof:id":554935363,
    "wof:lastmodified":1461017060,
    "wof:name":"Rye Ridge Ceramic Tile Inc",
    "wof:parent_id":-1,
    "wof:placetype":"venue",
    "wof:superseded_by":[],
    "wof:supersedes":[],
    "wof:tags":[
        "tile",
        "ceramic",
        "retail"
    ]
},
  "bbox": [
    -73.656783,
    41.008729,
    -73.656783,
    41.008729
],
  "geometry": {"coordinates":[-73.656783,41.008729],"type":"Point"}
}