{
  "id": 554936095,
  "type": "Feature",
  "properties": {
    "edtf:cessation":"uuuu",
    "edtf:inception":"uuuu",
    "geom:area":0.0,
    "geom:bbox":"-73.497651,41.156849,-73.497651,41.156849",
    "geom:latitude":41.156849,
    "geom:longitude":-73.497651,
    "iso:country":"US",
    "sg:address":"36 Rural Dr",
    "sg:city":"New Canaan",
    "sg:classifiers":[
        {
            "category":"Communications",
            "subcategory":"Film & Video Production",
            "type":"Services"
        }
    ],
    "sg:owner":"simplegeo",
    "sg:phone":"+1   ",
    "sg:postcode":"06840",
    "sg:province":"NY",
    "sg:tags":[
        "motion"
    ],
    "src:geom":"simplegeo",
    "wof:belongsto":[
        85688629,
        85633793,
        85851779,
        102084283
    ],
    "wof:breaches":[],
    "wof:concordances":{
        "sg:id":"SG_2jar5hSUVna1xRmYIKF0Qh_41.156849_-73.497651@1294177022"
    },
    "wof:country":"US",
    "wof:geomhash":"5715674f656d7641ce7b6ce8bea478f8",
    "wof:hierarchy":[
        {
            "country_id":85633793,
            "county_id":102084283,
            "neighbourhood_id":85851779,
            "region_id":85688629,
            "venue_id":554936095
        }
    ],
    "wof:id":554936095,
    "wof:lastmodified":1461017165,
    "wof:name":"Reel Communications",
    "wof:parent_id":85851779,
    "wof:placetype":"venue",
    "wof:superseded_by":[],
    "wof:supersedes":[],
    "wof:tags":[
        "motion"
    ]
},
  "bbox": [
    -73.497651,
    41.156849,
    -73.497651,
    41.156849
],
  "geometry": {"coordinates":[-73.497651,41.156849],"type":"Point"}
}