{
  "id": 554959113,
  "type": "Feature",
  "properties": {
    "edtf:cessation":"uuuu",
    "edtf:inception":"uuuu",
    "geom:area":0.0,
    "geom:bbox":"-73.932602,42.892024,-73.932602,42.892024",
    "geom:latitude":42.892024,
    "geom:longitude":-73.932602,
    "iso:country":"US",
    "sg:address":"3 Dawn Dr",
    "sg:city":"Scotia",
    "sg:classifiers":[
        {
            "category":"Professional",
            "subcategory":"Management & Consulting",
            "type":"Services"
        }
    ],
    "sg:owner":"simplegeo",
    "sg:phone":"+1 518 399 2147",
    "sg:postcode":"12302",
    "sg:province":"NY",
    "sg:tags":[
        "consultant"
    ],
    "src:geom":"simplegeo",
    "wof:belongsto":[],
    "wof:breaches":[],
    "wof:concordances":{
        "sg:id":"SG_1kIpO5wxoZn9b56FsoZFL8_42.892024_-73.932602@1294177022"
    },
    "wof:country":"US",
    "wof:geomhash":"fed58af0c2cfea746533953c60f4d517",
    "wof:hierarchy":[],
    "wof:id":554959113,
    "wof:lastmodified":1461018491,
    "wof:name":"Positive Line Assoc",
    "wof:parent_id":420529891,
    "wof:placetype":"venue",
    "wof:superseded_by":[],
    "wof:supersedes":[],
    "wof:tags":[
        "consultant"
    ]
},
  "bbox": [
    -73.932602,
    42.892024,
    -73.932602,
    42.892024
],
  "geometry": {"coordinates":[-73.932602,42.892024],"type":"Point"}
}