{
  "id": 554936537,
  "type": "Feature",
  "properties": {
    "edtf:cessation":"uuuu",
    "edtf:inception":"uuuu",
    "geom:area":0.0,
    "geom:bbox":"-73.630934,41.029971,-73.630934,41.029971",
    "geom:latitude":41.029971,
    "geom:longitude":-73.630934,
    "iso:country":"US",
    "sg:address":"68 Dearfield Dr",
    "sg:city":"Greenwich",
    "sg:classifiers":[
        {
            "category":"Health Services",
            "subcategory":"Doctor",
            "type":"Services"
        }
    ],
    "sg:owner":"simplegeo",
    "sg:phone":"+1 203 869 8155",
    "sg:postcode":"06831",
    "sg:province":"NY",
    "sg:tags":[
        "dentist"
    ],
    "src:geom":"simplegeo",
    "wof:belongsto":[
        420555529,
        102191575,
        404495949,
        85633793,
        85930941,
        102084283,
        85688629
    ],
    "wof:breaches":[],
    "wof:concordances":{
        "sg:id":"SG_1wyZVFHNWouZuyndXzAboK_41.029971_-73.630934@1294177022"
    },
    "wof:country":"US",
    "wof:geomhash":"3c3046f34868e81f3f1c465fe65be2ff",
    "wof:hierarchy":[
        {
            "continent_id":102191575,
            "country_id":85633793,
            "county_id":102084283,
            "localadmin_id":404495949,
            "locality_id":85930941,
            "neighbourhood_id":420555529,
            "region_id":85688629,
            "venue_id":554936537
        }
    ],
    "wof:id":554936537,
    "wof:lastmodified":1461017237,
    "wof:name":"Dustin Dental",
    "wof:parent_id":420555529,
    "wof:placetype":"venue",
    "wof:superseded_by":[],
    "wof:supersedes":[],
    "wof:tags":[
        "dentist"
    ]
},
  "bbox": [
    -73.630934,
    41.029971,
    -73.630934,
    41.029971
],
  "geometry": {"coordinates":[-73.630934,41.029971],"type":"Point"}
}