{
  "id": 554941785,
  "type": "Feature",
  "properties": {
    "edtf:cessation":"uuuu",
    "edtf:inception":"uuuu",
    "geom:area":0.0,
    "geom:bbox":"-74.147961,41.107463,-74.147961,41.107463",
    "geom:latitude":41.107463,
    "geom:longitude":-74.147961,
    "iso:country":"US",
    "sg:address":"9 South St",
    "sg:city":"Suffern",
    "sg:classifiers":[
        {
            "category":"Local Transit",
            "subcategory":"",
            "type":"Transportation"
        }
    ],
    "sg:owner":"simplegeo",
    "sg:phone":"+1 845 627 8000",
    "sg:postcode":"10901",
    "sg:province":"NY",
    "sg:tags":[
        "limousine"
    ],
    "src:geom":"simplegeo",
    "wof:belongsto":[
        85855885,
        102191575,
        404523097,
        85633793,
        85978523,
        102082385,
        85688543
    ],
    "wof:breaches":[],
    "wof:concordances":{
        "sg:id":"SG_2xrhOApVZiS1FS8F7tjSkn_41.107463_-74.147961@1294177022"
    },
    "wof:country":"US",
    "wof:geomhash":"f58560c83604f61a93c0cd7255080dea",
    "wof:hierarchy":[
        {
            "continent_id":102191575,
            "country_id":85633793,
            "county_id":102082385,
            "localadmin_id":404523097,
            "locality_id":85978523,
            "neighbourhood_id":85855885,
            "region_id":85688543,
            "venue_id":554941785
        }
    ],
    "wof:id":554941785,
    "wof:lastmodified":1461017807,
    "wof:name":"Presidential Limousine",
    "wof:parent_id":85855885,
    "wof:placetype":"venue",
    "wof:superseded_by":[],
    "wof:supersedes":[],
    "wof:tags":[
        "limousine"
    ]
},
  "bbox": [
    -74.147961,
    41.107463,
    -74.147961,
    41.107463
],
  "geometry": {"coordinates":[-74.147961,41.107463],"type":"Point"}
}