{
  "id": 555523327,
  "type": "Feature",
  "properties": {
    "edtf:cessation":"uuuu",
    "edtf:inception":"uuuu",
    "geom:area":0.0,
    "geom:bbox":"-79.391965,42.159124,-79.391965,42.159124",
    "geom:latitude":42.159124,
    "geom:longitude":-79.391965,
    "iso:country":"US",
    "sg:address":"20 Main St",
    "sg:city":"Bemus Point",
    "sg:classifiers":[
        {
            "category":"Real Estate",
            "subcategory":"Real Estate Agent",
            "type":"Services"
        }
    ],
    "sg:owner":"simplegeo",
    "sg:phone":"+1 716 386 2800",
    "sg:postcode":"14712",
    "sg:province":"NY",
    "src:geom":"simplegeo",
    "wof:belongsto":[],
    "wof:breaches":[],
    "wof:concordances":{
        "sg:id":"SG_0jcgwx57faGzL3fPWej6JS_42.159124_-79.391965@1294177022"
    },
    "wof:country":"US",
    "wof:geomhash":"34874c405963f1b4aa25d8fb7b475271",
    "wof:hierarchy":[],
    "wof:id":555523327,
    "wof:lastmodified":1461031925,
    "wof:name":"Vacation Properties Realty",
    "wof:parent_id":420528239,
    "wof:placetype":"venue",
    "wof:superseded_by":[],
    "wof:supersedes":[],
    "wof:tags":[]
},
  "bbox": [
    -79.391965,
    42.159124,
    -79.391965,
    42.159124
],
  "geometry": {"coordinates":[-79.391965,42.159124],"type":"Point"}
}