{
  "id": 554937347,
  "type": "Feature",
  "properties": {
    "edtf:cessation":"uuuu",
    "edtf:inception":"uuuu",
    "geom:area":0.0,
    "geom:bbox":"-73.493002,41.156367,-73.493002,41.156367",
    "geom:latitude":41.156367,
    "geom:longitude":-73.493002,
    "iso:country":"US",
    "sg:address":"61 Strawberry Hill Rd",
    "sg:city":"New Canaan",
    "sg:classifiers":[
        {
            "category":"Personal",
            "subcategory":"",
            "type":"Services"
        }
    ],
    "sg:owner":"simplegeo",
    "sg:phone":"+1 203 966 3322",
    "sg:postcode":"06840",
    "sg:province":"NY",
    "sg:tags":[
        "therapist",
        "massage"
    ],
    "src:geom":"simplegeo",
    "wof:belongsto":[
        85688629,
        85633793,
        85851779,
        102084283
    ],
    "wof:breaches":[],
    "wof:concordances":{
        "sg:id":"SG_5AvUZECNu8oHUOLdCxdkMm_41.156367_-73.493002@1294177022"
    },
    "wof:country":"US",
    "wof:geomhash":"f2a268252d6d894ce1f5e3494728666d",
    "wof:hierarchy":[
        {
            "country_id":85633793,
            "county_id":102084283,
            "neighbourhood_id":85851779,
            "region_id":85688629,
            "venue_id":554937347
        }
    ],
    "wof:id":554937347,
    "wof:lastmodified":1461017355,
    "wof:name":"Relaxology",
    "wof:parent_id":85851779,
    "wof:placetype":"venue",
    "wof:superseded_by":[],
    "wof:supersedes":[],
    "wof:tags":[
        "therapist",
        "massage"
    ]
},
  "bbox": [
    -73.493002,
    41.156367,
    -73.493002,
    41.156367
],
  "geometry": {"coordinates":[-73.493002,41.156367],"type":"Point"}
}