{
  "id": 555481407,
  "type": "Feature",
  "properties": {
    "edtf:cessation":"uuuu",
    "edtf:inception":"uuuu",
    "geom:area":0.0,
    "geom:bbox":"-74.664433,44.972833,-74.664433,44.972833",
    "geom:latitude":44.972833,
    "geom:longitude":-74.664433,
    "iso:country":"US",
    "sg:address":"647 State Hwy 37",
    "sg:city":"Hogansburg",
    "sg:classifiers":[
        {
            "category":"Government",
            "subcategory":"Office",
            "type":"Public Place"
        }
    ],
    "sg:owner":"simplegeo",
    "sg:phone":"+1 518 358 2464",
    "sg:postcode":"13655",
    "sg:province":"NY",
    "src:geom":"simplegeo",
    "wof:belongsto":[],
    "wof:breaches":[],
    "wof:concordances":{
        "sg:id":"SG_2kzYRD8OVop5EYlvRmVNNW_44.972833_-74.664433@1294177022"
    },
    "wof:country":"US",
    "wof:geomhash":"0462319f5d18079eeccc99049cb85b98",
    "wof:hierarchy":[],
    "wof:id":555481407,
    "wof:lastmodified":1461030918,
    "wof:name":"St Regis Indian Welfare Ofc",
    "wof:parent_id":420528669,
    "wof:placetype":"venue",
    "wof:superseded_by":[],
    "wof:supersedes":[],
    "wof:tags":[]
},
  "bbox": [
    -74.664433,
    44.972833,
    -74.664433,
    44.972833
],
  "geometry": {"coordinates":[-74.664433,44.972833],"type":"Point"}
}