{
  "id": 555482865,
  "type": "Feature",
  "properties": {
    "edtf:cessation":"uuuu",
    "edtf:inception":"uuuu",
    "geom:area":0.0,
    "geom:bbox":"-73.775115,41.133427,-73.775115,41.133427",
    "geom:latitude":41.133427,
    "geom:longitude":-73.775115,
    "iso:country":"US",
    "sg:address":"71 Lake St",
    "sg:city":"Pleasantville",
    "sg:classifiers":[
        {
            "category":"Wholesale",
            "subcategory":"Electrical",
            "type":"Manufacturing & Wholesale Goods"
        }
    ],
    "sg:owner":"simplegeo",
    "sg:phone":"+1 914 773 1779",
    "sg:postcode":"10570",
    "sg:province":"NY",
    "sg:tags":[
        "control",
        "security",
        "system"
    ],
    "src:geom":"simplegeo",
    "wof:belongsto":[],
    "wof:breaches":[],
    "wof:concordances":{
        "sg:id":"SG_4aseVBIdM5p5Lf9UF3S4dW_41.133427_-73.775115@1294177022"
    },
    "wof:country":"US",
    "wof:geomhash":"948af8f51069f7b5ff5ed40912cc3ad5",
    "wof:hierarchy":[],
    "wof:id":555482865,
    "wof:lastmodified":1461030946,
    "wof:name":"Electronic Defense Systems",
    "wof:parent_id":-1,
    "wof:placetype":"venue",
    "wof:superseded_by":[],
    "wof:supersedes":[],
    "wof:tags":[
        "control",
        "security",
        "system"
    ]
},
  "bbox": [
    -73.775115,
    41.133427,
    -73.775115,
    41.133427
],
  "geometry": {"coordinates":[-73.775115,41.133427],"type":"Point"}
}