{
  "id": 572171487,
  "type": "Feature",
  "properties": {
    "edtf:cessation":"uuuu",
    "edtf:inception":"uuuu",
    "geom:area":0.0,
    "geom:bbox":"-74.114442,40.684289,-74.114442,40.684289",
    "geom:latitude":40.684289,
    "geom:longitude":-74.114442,
    "iso:country":"US",
    "sg:address":"145 Union St",
    "sg:city":"Brooklyn",
    "sg:classifiers":[
        {
            "category":"Autos & Motor Vehicles",
            "subcategory":"Automobile Sales",
            "type":"Retail Goods"
        }
    ],
    "sg:owner":"simplegeo",
    "sg:phone":"+1 877 969 5466",
    "sg:postcode":"11231",
    "sg:province":"NY",
    "sg:tags":[
        "limo"
    ],
    "src:geom":"simplegeo",
    "wof:belongsto":[
        85868459,
        102191575,
        404478127,
        85633793,
        85975307,
        102080719,
        85688607
    ],
    "wof:breaches":[],
    "wof:concordances":{
        "sg:id":"SG_7ARFKh8nPzrBJzd5WBsSd6_40.684289_-74.114442@1303262348"
    },
    "wof:country":"US",
    "wof:geomhash":"de61eb201ae677bc5602992deeb1612b",
    "wof:hierarchy":[
        {
            "continent_id":102191575,
            "country_id":85633793,
            "county_id":102080719,
            "localadmin_id":404478127,
            "locality_id":85975307,
            "neighbourhood_id":85868459,
            "region_id":85688607,
            "venue_id":572171487
        }
    ],
    "wof:id":572171487,
    "wof:lastmodified":1461051456,
    "wof:name":"Symphony Limousine Co",
    "wof:parent_id":85868459,
    "wof:placetype":"venue",
    "wof:superseded_by":[],
    "wof:supersedes":[],
    "wof:tags":[
        "limo"
    ]
},
  "bbox": [
    -74.114442,
    40.684289,
    -74.114442,
    40.684289
],
  "geometry": {"coordinates":[-74.114442,40.684289],"type":"Point"}
}