{
  "id": 554934495,
  "type": "Feature",
  "properties": {
    "edtf:cessation":"uuuu",
    "edtf:inception":"uuuu",
    "geom:area":0.0,
    "geom:bbox":"-73.504139,41.144697,-73.504139,41.144697",
    "geom:latitude":41.144697,
    "geom:longitude":-73.504139,
    "iso:country":"US",
    "sg:address":"738 Weed St",
    "sg:city":"New Canaan",
    "sg:classifiers":[
        {
            "category":"Organizations",
            "subcategory":"Labor Organization",
            "type":"Services"
        }
    ],
    "sg:owner":"simplegeo",
    "sg:phone":"+1   ",
    "sg:postcode":"06840",
    "sg:province":"NY",
    "src:geom":"simplegeo",
    "wof:belongsto":[
        85688629,
        85633793,
        85851779,
        102084283
    ],
    "wof:breaches":[],
    "wof:concordances":{
        "sg:id":"SG_4JQhhMBO3wOdZFMMIIavQ1_41.144697_-73.504139@1294177022"
    },
    "wof:country":"US",
    "wof:geomhash":"15e9b7461eef3e375e04f8583689839e",
    "wof:hierarchy":[
        {
            "country_id":85633793,
            "county_id":102084283,
            "neighbourhood_id":85851779,
            "region_id":85688629,
            "venue_id":554934495
        }
    ],
    "wof:id":554934495,
    "wof:lastmodified":1461016946,
    "wof:name":"Brotherhood Kielland Sherri",
    "wof:parent_id":85851779,
    "wof:placetype":"venue",
    "wof:superseded_by":[],
    "wof:supersedes":[],
    "wof:tags":[]
},
  "bbox": [
    -73.504139,
    41.144697,
    -73.504139,
    41.144697
],
  "geometry": {"coordinates":[-73.504139,41.144697],"type":"Point"}
}