{
  "id": 554936109,
  "type": "Feature",
  "properties": {
    "edtf:cessation":"uuuu",
    "edtf:inception":"uuuu",
    "geom:area":0.0,
    "geom:bbox":"-73.491932,41.148738,-73.491932,41.148738",
    "geom:latitude":41.148738,
    "geom:longitude":-73.491932,
    "iso:country":"US",
    "sg:address":"11 Forest St",
    "sg:city":"New Canaan",
    "sg:classifiers":[
        {
            "category":"Professional",
            "subcategory":"Advertising",
            "type":"Services"
        }
    ],
    "sg:owner":"simplegeo",
    "sg:phone":"+1   ",
    "sg:postcode":"06840",
    "sg:province":"NY",
    "sg:tags":[
        "representative"
    ],
    "src:geom":"simplegeo",
    "wof:belongsto":[
        85688629,
        85633793,
        85851779,
        102084283
    ],
    "wof:breaches":[],
    "wof:concordances":{
        "sg:id":"SG_31rE4nW9ggFtlHep1f0JhD_41.148738_-73.491932@1294177022"
    },
    "wof:country":"US",
    "wof:geomhash":"9731684e7ffea98c3b1510ae362ffd2a",
    "wof:hierarchy":[
        {
            "country_id":85633793,
            "county_id":102084283,
            "neighbourhood_id":85851779,
            "region_id":85688629,
            "venue_id":554936109
        }
    ],
    "wof:id":554936109,
    "wof:lastmodified":1461017167,
    "wof:name":"Media Selections",
    "wof:parent_id":85851779,
    "wof:placetype":"venue",
    "wof:superseded_by":[],
    "wof:supersedes":[],
    "wof:tags":[
        "representative"
    ]
},
  "bbox": [
    -73.491932,
    41.148738,
    -73.491932,
    41.148738
],
  "geometry": {"coordinates":[-73.49193200000001,41.148738],"type":"Point"}
}