{
  "id": 554936695,
  "type": "Feature",
  "properties": {
    "edtf:cessation":"uuuu",
    "edtf:inception":"uuuu",
    "geom:area":0.0,
    "geom:bbox":"-73.460632,41.147093,-73.460632,41.147093",
    "geom:latitude":41.147093,
    "geom:longitude":-73.460632,
    "iso:country":"US",
    "sg:address":"401 Cedar Ln",
    "sg:city":"New Canaan",
    "sg:classifiers":[
        {
            "category":"Banks & Credit Unions",
            "subcategory":"Financial Services",
            "type":"Services"
        }
    ],
    "sg:owner":"simplegeo",
    "sg:phone":"+1 203 966 3782",
    "sg:postcode":"06840",
    "sg:province":"NY",
    "sg:tags":[
        "investment",
        "closed"
    ],
    "src:geom":"simplegeo",
    "wof:belongsto":[
        85688629,
        85633793,
        85848785,
        102084283
    ],
    "wof:breaches":[],
    "wof:concordances":{
        "sg:id":"SG_00odhNzpuG06YMSmbFCPwc_41.147093_-73.460632@1294177022"
    },
    "wof:country":"US",
    "wof:geomhash":"2d0c1648bc68ab24a2268cbb2d42c475",
    "wof:hierarchy":[
        {
            "country_id":85633793,
            "county_id":102084283,
            "neighbourhood_id":85848785,
            "region_id":85688629,
            "venue_id":554936695
        }
    ],
    "wof:id":554936695,
    "wof:lastmodified":1461017258,
    "wof:name":"OK Capital LLC",
    "wof:parent_id":85848785,
    "wof:placetype":"venue",
    "wof:superseded_by":[],
    "wof:supersedes":[],
    "wof:tags":[
        "investment",
        "closed"
    ]
},
  "bbox": [
    -73.460632,
    41.147093,
    -73.460632,
    41.147093
],
  "geometry": {"coordinates":[-73.460632,41.147093],"type":"Point"}
}