{
  "id": 554935179,
  "type": "Feature",
  "properties": {
    "edtf:cessation":"uuuu",
    "edtf:inception":"uuuu",
    "geom:area":0.0,
    "geom:bbox":"-73.506997,41.127228,-73.506997,41.127228",
    "geom:latitude":41.127228,
    "geom:longitude":-73.506997,
    "iso:country":"US",
    "sg:address":"21 Driftway Ln",
    "sg:city":"New Canaan",
    "sg:classifiers":[
        {
            "category":"Professional",
            "subcategory":"Management & Consulting",
            "type":"Services"
        }
    ],
    "sg:owner":"simplegeo",
    "sg:phone":"+1   ",
    "sg:postcode":"06840",
    "sg:province":"NY",
    "src:geom":"simplegeo",
    "wof:belongsto":[
        85688629,
        85633793,
        85851779,
        102084283
    ],
    "wof:breaches":[],
    "wof:concordances":{
        "sg:id":"SG_1vSgGcCnk1nHTkkekAC0mn_41.127228_-73.506997@1294177022"
    },
    "wof:country":"US",
    "wof:geomhash":"b811912ad996076dfddc77be0bea259b",
    "wof:hierarchy":[
        {
            "country_id":85633793,
            "county_id":102084283,
            "neighbourhood_id":85851779,
            "region_id":85688629,
            "venue_id":554935179
        }
    ],
    "wof:id":554935179,
    "wof:lastmodified":1461017034,
    "wof:name":"Vodacomp Technology Group",
    "wof:parent_id":85851779,
    "wof:placetype":"venue",
    "wof:superseded_by":[],
    "wof:supersedes":[],
    "wof:tags":[]
},
  "bbox": [
    -73.506997,
    41.127228,
    -73.506997,
    41.127228
],
  "geometry": {"coordinates":[-73.506997,41.127228],"type":"Point"}
}