{
  "id": 554936545,
  "type": "Feature",
  "properties": {
    "edtf:cessation":"uuuu",
    "edtf:inception":"uuuu",
    "geom:area":0.0,
    "geom:bbox":"-74.04183,41.073748,-74.04183,41.073748",
    "geom:latitude":41.073748,
    "geom:longitude":-74.04183,
    "iso:country":"US",
    "sg:address":"52 Grotke Rd",
    "sg:city":"Spring Valley",
    "sg:classifiers":[
        {
            "category":"Building & Trades",
            "subcategory":"Construction",
            "type":"Services"
        }
    ],
    "sg:owner":"simplegeo",
    "sg:phone":"+1 845 735 4096",
    "sg:postcode":"10977",
    "sg:province":"NY",
    "sg:tags":[
        "excavating",
        "contractor"
    ],
    "src:geom":"simplegeo",
    "wof:belongsto":[
        85853261,
        102191575,
        404523097,
        85633793,
        85978555,
        102082385,
        85688543
    ],
    "wof:breaches":[],
    "wof:concordances":{
        "sg:id":"SG_3iDT1Z991rqODccelos9Ok_41.073748_-74.041830@1294177022"
    },
    "wof:country":"US",
    "wof:geomhash":"1dcb186e627413ce5da5a714d9b3dbcd",
    "wof:hierarchy":[
        {
            "continent_id":102191575,
            "country_id":85633793,
            "county_id":102082385,
            "localadmin_id":404523097,
            "locality_id":85978555,
            "neighbourhood_id":85853261,
            "region_id":85688543,
            "venue_id":554936545
        }
    ],
    "wof:id":554936545,
    "wof:lastmodified":1461017238,
    "wof:name":"Kevin Stokes Excavating Inc",
    "wof:parent_id":85853261,
    "wof:placetype":"venue",
    "wof:superseded_by":[],
    "wof:supersedes":[],
    "wof:tags":[
        "excavating",
        "contractor"
    ]
},
  "bbox": [
    -74.04183,
    41.073748,
    -74.04183,
    41.073748
],
  "geometry": {"coordinates":[-74.04183,41.073748],"type":"Point"}
}