{
  "id": 554935533,
  "type": "Feature",
  "properties": {
    "edtf:cessation":"uuuu",
    "edtf:inception":"uuuu",
    "geom:area":0.0,
    "geom:bbox":"-73.643886,41.161558,-73.643886,41.161558",
    "geom:latitude":41.161558,
    "geom:longitude":-73.643886,
    "iso:country":"US",
    "sg:address":"8 Kingdom Ridge Rd",
    "sg:city":"Bedford",
    "sg:classifiers":[
        {
            "category":"Building & Trades",
            "subcategory":"Construction",
            "type":"Services"
        }
    ],
    "sg:owner":"simplegeo",
    "sg:phone":"+1 914 234 7643",
    "sg:postcode":"10506",
    "sg:province":"NY",
    "sg:tags":[
        "house"
    ],
    "src:geom":"simplegeo",
    "wof:belongsto":[
        85688629,
        85633793,
        85930787,
        102084283,
        85838073
    ],
    "wof:breaches":[],
    "wof:concordances":{
        "sg:id":"SG_4hGIjZMhqhg5LrK3ire1fO_41.161558_-73.643886@1294177022"
    },
    "wof:country":"US",
    "wof:geomhash":"9b7c694e497aebac6dfed0419235d120",
    "wof:hierarchy":[
        {
            "country_id":85633793,
            "county_id":102084283,
            "locality_id":85930787,
            "neighbourhood_id":85838073,
            "region_id":85688629,
            "venue_id":554935533
        }
    ],
    "wof:id":554935533,
    "wof:lastmodified":1461017085,
    "wof:name":"Cosimo Construction",
    "wof:parent_id":85838073,
    "wof:placetype":"venue",
    "wof:superseded_by":[],
    "wof:supersedes":[],
    "wof:tags":[
        "house"
    ]
},
  "bbox": [
    -73.643886,
    41.161558,
    -73.643886,
    41.161558
],
  "geometry": {"coordinates":[-73.64388599999999,41.161558],"type":"Point"}
}