{
  "id": 554937487,
  "type": "Feature",
  "properties": {
    "edtf:cessation":"uuuu",
    "edtf:inception":"uuuu",
    "geom:area":0.0,
    "geom:bbox":"-74.146392,41.10611,-74.146392,41.10611",
    "geom:latitude":41.10611,
    "geom:longitude":-74.146392,
    "iso:country":"US",
    "sg:address":"4 Interstate St",
    "sg:city":"Suffern",
    "sg:classifiers":[
        {
            "category":"Utilities",
            "subcategory":"Refuse",
            "type":"Services"
        }
    ],
    "sg:owner":"simplegeo",
    "sg:phone":"+1 845 357 8219",
    "sg:postcode":"10901",
    "sg:province":"NY",
    "sg:tags":[
        "garbage",
        "collection"
    ],
    "src:geom":"simplegeo",
    "wof:belongsto":[
        85855885,
        102191575,
        404523097,
        85633793,
        85978523,
        102082385,
        85688543
    ],
    "wof:breaches":[],
    "wof:concordances":{
        "sg:id":"SG_4TBUxQNizufC3MdFiB4Vao_41.106110_-74.146392@1294177022"
    },
    "wof:country":"US",
    "wof:geomhash":"fa2da2d97128c337cbb992d2cf2fad71",
    "wof:hierarchy":[
        {
            "continent_id":102191575,
            "country_id":85633793,
            "county_id":102082385,
            "localadmin_id":404523097,
            "locality_id":85978523,
            "neighbourhood_id":85855885,
            "region_id":85688543,
            "venue_id":554937487
        }
    ],
    "wof:id":554937487,
    "wof:lastmodified":1461017379,
    "wof:name":"3 C Rubbish Removal Inc",
    "wof:parent_id":85855885,
    "wof:placetype":"venue",
    "wof:superseded_by":[],
    "wof:supersedes":[],
    "wof:tags":[
        "garbage",
        "collection"
    ]
},
  "bbox": [
    -74.146392,
    41.10611,
    -74.146392,
    41.10611
],
  "geometry": {"coordinates":[-74.14639200000001,41.10611],"type":"Point"}
}