{
  "id": 554941871,
  "type": "Feature",
  "properties": {
    "edtf:cessation":"uuuu",
    "edtf:inception":"uuuu",
    "geom:area":0.0,
    "geom:bbox":"-73.471266,41.126661,-73.471266,41.126661",
    "geom:latitude":41.126661,
    "geom:longitude":-73.471266,
    "iso:country":"US",
    "sg:address":"65 Nursery Rd",
    "sg:city":"New Canaan",
    "sg:classifiers":[
        {
            "category":"Professional",
            "subcategory":"Business Services",
            "type":"Services"
        }
    ],
    "sg:owner":"simplegeo",
    "sg:phone":"+1   ",
    "sg:postcode":"06840",
    "sg:province":"NY",
    "src:geom":"simplegeo",
    "wof:belongsto":[
        85688629,
        85633793,
        85851779,
        102084283
    ],
    "wof:breaches":[],
    "wof:concordances":{
        "sg:id":"SG_3ywmkH9x9Ml4jYEB4WlIGL_41.126661_-73.471266@1294177022"
    },
    "wof:country":"US",
    "wof:geomhash":"44a171566ca8dd96c456476e50850cb5",
    "wof:hierarchy":[
        {
            "country_id":85633793,
            "county_id":102084283,
            "neighbourhood_id":85851779,
            "region_id":85688629,
            "venue_id":554941871
        }
    ],
    "wof:id":554941871,
    "wof:lastmodified":1461017816,
    "wof:name":"Andresen Interiors",
    "wof:parent_id":85851779,
    "wof:placetype":"venue",
    "wof:superseded_by":[],
    "wof:supersedes":[],
    "wof:tags":[]
},
  "bbox": [
    -73.471266,
    41.126661,
    -73.471266,
    41.126661
],
  "geometry": {"coordinates":[-73.471266,41.126661],"type":"Point"}
}