{
  "id": 555025333,
  "type": "Feature",
  "properties": {
    "edtf:cessation":"uuuu",
    "edtf:inception":"uuuu",
    "geom:area":0.0,
    "geom:bbox":"-73.4002,40.681844,-73.4002,40.681844",
    "geom:latitude":40.681844,
    "geom:longitude":-73.4002,
    "iso:country":"US",
    "sg:address":"1905 Great Neck Rd",
    "sg:city":"Copiague",
    "sg:classifiers":[
        {
            "category":"Food & Beverages",
            "subcategory":"Bakery",
            "type":"Retail Goods"
        }
    ],
    "sg:owner":"simplegeo",
    "sg:phone":"+1 631 789 1945",
    "sg:postcode":"11726",
    "sg:province":"NY",
    "sg:tags":[
        "baker"
    ],
    "src:geom":"simplegeo",
    "wof:belongsto":[],
    "wof:breaches":[],
    "wof:concordances":{
        "sg:id":"SG_7hvUph1nMqZ9QSSdRSOFeR_40.681844_-73.400200@1294177022"
    },
    "wof:country":"US",
    "wof:geomhash":"b725e01ac8003ae255f41816abc85ecd",
    "wof:hierarchy":[],
    "wof:id":555025333,
    "wof:lastmodified":1461020029,
    "wof:name":"Dudek Polish Bakery",
    "wof:parent_id":-1,
    "wof:placetype":"venue",
    "wof:superseded_by":[],
    "wof:supersedes":[],
    "wof:tags":[
        "baker"
    ]
},
  "bbox": [
    -73.4002,
    40.681844,
    -73.4002,
    40.681844
],
  "geometry": {"coordinates":[-73.4002,40.681844],"type":"Point"}
}