{
  "id": 554937341,
  "type": "Feature",
  "properties": {
    "edtf:cessation":"uuuu",
    "edtf:inception":"uuuu",
    "geom:area":0.0,
    "geom:bbox":"-73.660033,41.018279,-73.660033,41.018279",
    "geom:latitude":41.018279,
    "geom:longitude":-73.660033,
    "iso:country":"US",
    "sg:address":"49 Hickory Dr",
    "sg:city":"Greenwich",
    "sg:classifiers":[
        {
            "category":"Building & Trades",
            "subcategory":"Construction",
            "type":"Services"
        }
    ],
    "sg:owner":"simplegeo",
    "sg:phone":"+1 203 531 5494",
    "sg:postcode":"06831",
    "sg:province":"NY",
    "sg:tags":[
        "tile",
        "dealer"
    ],
    "src:geom":"simplegeo",
    "wof:belongsto":[
        85885307,
        102191575,
        404495949,
        85633793,
        85930941,
        102084283,
        85688629,
        420555461,
        85930937
    ],
    "wof:breaches":[],
    "wof:concordances":{
        "sg:id":"SG_1gouagLDmgXbDjWuyXqGL2_41.018279_-73.660033@1294177022"
    },
    "wof:country":"US",
    "wof:geomhash":"82413f8780cf0af08da4da8a685770b5",
    "wof:hierarchy":[
        {
            "continent_id":102191575,
            "country_id":85633793,
            "county_id":102084283,
            "localadmin_id":404495949,
            "locality_id":85930941,
            "neighbourhood_id":85885307,
            "region_id":85688629,
            "venue_id":554937341
        },
        {
            "continent_id":102191575,
            "country_id":85633793,
            "county_id":102084283,
            "localadmin_id":404495949,
            "locality_id":85930937,
            "neighbourhood_id":420555461,
            "region_id":85688629,
            "venue_id":554937341
        }
    ],
    "wof:id":554937341,
    "wof:lastmodified":1461017354,
    "wof:name":"Byram Tile Co",
    "wof:parent_id":-1,
    "wof:placetype":"venue",
    "wof:superseded_by":[],
    "wof:supersedes":[],
    "wof:tags":[
        "tile",
        "dealer"
    ]
},
  "bbox": [
    -73.660033,
    41.018279,
    -73.660033,
    41.018279
],
  "geometry": {"coordinates":[-73.660033,41.018279],"type":"Point"}
}