{
  "id": 554935691,
  "type": "Feature",
  "properties": {
    "edtf:cessation":"uuuu",
    "edtf:inception":"uuuu",
    "geom:area":0.0,
    "geom:bbox":"-73.653483,41.020137,-73.653483,41.020137",
    "geom:latitude":41.020137,
    "geom:longitude":-73.653483,
    "iso:country":"US",
    "sg:address":"2 Highland Pl",
    "sg:city":"Greenwich",
    "sg:classifiers":[
        {
            "category":"Building & Trades",
            "subcategory":"Electrical",
            "type":"Services"
        }
    ],
    "sg:owner":"simplegeo",
    "sg:phone":"+1 203 531 2895",
    "sg:postcode":"06831",
    "sg:province":"NY",
    "sg:tags":[
        "electrical",
        "contractor"
    ],
    "src:geom":"simplegeo",
    "wof:belongsto":[
        85885307,
        102191575,
        404495949,
        85633793,
        85930941,
        102084283,
        85688629,
        420555461,
        85930937
    ],
    "wof:breaches":[],
    "wof:concordances":{
        "sg:id":"SG_4CVw61B7JJUMRpYdsLyiRW_41.020137_-73.653483@1294177022"
    },
    "wof:country":"US",
    "wof:geomhash":"22543ac209d31acb708d7c9e40c9739e",
    "wof:hierarchy":[
        {
            "continent_id":102191575,
            "country_id":85633793,
            "county_id":102084283,
            "localadmin_id":404495949,
            "locality_id":85930941,
            "neighbourhood_id":85885307,
            "region_id":85688629,
            "venue_id":554935691
        },
        {
            "continent_id":102191575,
            "country_id":85633793,
            "county_id":102084283,
            "localadmin_id":404495949,
            "locality_id":85930937,
            "neighbourhood_id":420555461,
            "region_id":85688629,
            "venue_id":554935691
        }
    ],
    "wof:id":554935691,
    "wof:lastmodified":1461017108,
    "wof:name":"Randall Enterprises",
    "wof:parent_id":-1,
    "wof:placetype":"venue",
    "wof:superseded_by":[],
    "wof:supersedes":[],
    "wof:tags":[
        "electrical",
        "contractor"
    ]
},
  "bbox": [
    -73.653483,
    41.020137,
    -73.653483,
    41.020137
],
  "geometry": {"coordinates":[-73.65348299999999,41.020137],"type":"Point"}
}