{
  "id": 554934067,
  "type": "Feature",
  "properties": {
    "edtf:cessation":"uuuu",
    "edtf:inception":"uuuu",
    "geom:area":0.0,
    "geom:bbox":"-74.050032,41.074563,-74.050032,41.074563",
    "geom:latitude":41.074563,
    "geom:longitude":-74.050032,
    "iso:country":"US",
    "sg:address":"1 Erin Ln",
    "sg:city":"Spring Valley",
    "sg:classifiers":[
        {
            "category":"Professional",
            "subcategory":"Computer Services",
            "type":"Services"
        }
    ],
    "sg:owner":"simplegeo",
    "sg:phone":"+1 845 623 4321",
    "sg:postcode":"10977",
    "sg:province":"NY",
    "sg:tags":[
        "development",
        "consulting",
        "company",
        "software"
    ],
    "src:geom":"simplegeo",
    "wof:belongsto":[
        85853261,
        102191575,
        404523097,
        85633793,
        85978555,
        102082385,
        85688543
    ],
    "wof:breaches":[],
    "wof:concordances":{
        "sg:id":"SG_072LY9fnz8NdHCylYSRDA8_41.074563_-74.050032@1294177022"
    },
    "wof:country":"US",
    "wof:geomhash":"df05da6c94b6f8844c8a2e8b13c5ed4e",
    "wof:hierarchy":[
        {
            "continent_id":102191575,
            "country_id":85633793,
            "county_id":102082385,
            "localadmin_id":404523097,
            "locality_id":85978555,
            "neighbourhood_id":85853261,
            "region_id":85688543,
            "venue_id":554934067
        }
    ],
    "wof:id":554934067,
    "wof:lastmodified":1461016896,
    "wof:name":"Netmagic Systems Inc",
    "wof:parent_id":85853261,
    "wof:placetype":"venue",
    "wof:superseded_by":[],
    "wof:supersedes":[],
    "wof:tags":[
        "development",
        "consulting",
        "company",
        "software"
    ]
},
  "bbox": [
    -74.050032,
    41.074563,
    -74.050032,
    41.074563
],
  "geometry": {"coordinates":[-74.050032,41.074563],"type":"Point"}
}