{
  "id": 554940251,
  "type": "Feature",
  "properties": {
    "edtf:cessation":"uuuu",
    "edtf:inception":"uuuu",
    "geom:area":0.0,
    "geom:bbox":"-73.467075,41.158902,-73.467075,41.158902",
    "geom:latitude":41.158902,
    "geom:longitude":-73.467075,
    "iso:country":"US",
    "sg:address":"70 Fable Farm Rd",
    "sg:city":"New Canaan",
    "sg:classifiers":[
        {
            "category":"Farming",
            "subcategory":"Farm",
            "type":"Manufacturing & Wholesale Goods"
        }
    ],
    "sg:owner":"simplegeo",
    "sg:phone":"+1 203 966 2037",
    "sg:postcode":"06840",
    "sg:province":"NY",
    "sg:tags":[
        "crop",
        "general"
    ],
    "src:geom":"simplegeo",
    "wof:belongsto":[],
    "wof:breaches":[],
    "wof:concordances":{
        "sg:id":"SG_7FNoNrSL7KoI6fHA3gy2Vj_41.158902_-73.467075@1294177022"
    },
    "wof:country":"US",
    "wof:geomhash":"a65a50aa5209332a3538be1ffdfbe7ed",
    "wof:hierarchy":[],
    "wof:id":554940251,
    "wof:lastmodified":1461017637,
    "wof:name":"Fable Farm Corporation",
    "wof:parent_id":-1,
    "wof:placetype":"venue",
    "wof:superseded_by":[],
    "wof:supersedes":[],
    "wof:tags":[
        "crop",
        "general"
    ]
},
  "bbox": [
    -73.467075,
    41.158902,
    -73.467075,
    41.158902
],
  "geometry": {"coordinates":[-73.46707499999999,41.158902],"type":"Point"}
}