{
  "id": 554941939,
  "type": "Feature",
  "properties": {
    "edtf:cessation":"uuuu",
    "edtf:inception":"uuuu",
    "geom:area":0.0,
    "geom:bbox":"-73.493257,41.146982,-73.493257,41.146982",
    "geom:latitude":41.146982,
    "geom:longitude":-73.493257,
    "iso:country":"US",
    "sg:address":"5 Elm St",
    "sg:city":"New Canaan",
    "sg:classifiers":[
        {
            "category":"Professional",
            "subcategory":"Lawyer & Legal Services",
            "type":"Services"
        }
    ],
    "sg:owner":"simplegeo",
    "sg:phone":"+1 203 972 0006",
    "sg:postcode":"06840",
    "sg:province":"NY",
    "sg:tags":[
        "attorney"
    ],
    "sg:website":"www.bmtpatent.com",
    "src:geom":"simplegeo",
    "wof:belongsto":[
        85688629,
        85633793,
        85851779,
        102084283
    ],
    "wof:breaches":[],
    "wof:concordances":{
        "sg:id":"SG_3OVa6XMaJoO9QgbmcWxY7u_41.146982_-73.493257@1294177022"
    },
    "wof:country":"US",
    "wof:geomhash":"d8b2618ae232ef23cf6610808d8cc1fa",
    "wof:hierarchy":[
        {
            "country_id":85633793,
            "county_id":102084283,
            "neighbourhood_id":85851779,
            "region_id":85688629,
            "venue_id":554941939
        }
    ],
    "wof:id":554941939,
    "wof:lastmodified":1461017822,
    "wof:name":"Buckley Maschoff Talwalker",
    "wof:parent_id":85851779,
    "wof:placetype":"venue",
    "wof:superseded_by":[],
    "wof:supersedes":[],
    "wof:tags":[
        "attorney"
    ]
},
  "bbox": [
    -73.493257,
    41.146982,
    -73.493257,
    41.146982
],
  "geometry": {"coordinates":[-73.493257,41.146982],"type":"Point"}
}