{
  "id": 555265585,
  "type": "Feature",
  "properties": {
    "edtf:cessation":"uuuu",
    "edtf:inception":"uuuu",
    "geom:area":0.0,
    "geom:bbox":"-74.271184,41.362462,-74.271184,41.362462",
    "geom:latitude":41.362462,
    "geom:longitude":-74.271184,
    "iso:country":"US",
    "sg:address":"3 Howland St",
    "sg:city":"Chester",
    "sg:classifiers":[
        {
            "category":"Shopping",
            "subcategory":"Stationery & Office Supplies",
            "type":"Retail Goods"
        }
    ],
    "sg:owner":"simplegeo",
    "sg:phone":"+1 845 469 5078",
    "sg:postcode":"10918",
    "sg:province":"NY",
    "sg:tags":[
        "equipment",
        "filing",
        "system"
    ],
    "src:geom":"simplegeo",
    "wof:belongsto":[],
    "wof:breaches":[],
    "wof:concordances":{
        "sg:id":"SG_7Iz5ENfN1sgu32nbujt2wK_41.362462_-74.271184@1294177022"
    },
    "wof:country":"US",
    "wof:geomhash":"c2b1c5d336c9965ed9af8f7119a3f427",
    "wof:hierarchy":[],
    "wof:id":555265585,
    "wof:lastmodified":1461025714,
    "wof:name":"Filing Solutions Inc",
    "wof:parent_id":420529501,
    "wof:placetype":"venue",
    "wof:superseded_by":[],
    "wof:supersedes":[],
    "wof:tags":[
        "equipment",
        "filing",
        "system"
    ]
},
  "bbox": [
    -74.271184,
    41.362462,
    -74.271184,
    41.362462
],
  "geometry": {"coordinates":[-74.27118400000001,41.362462],"type":"Point"}
}