{
  "id": 554941537,
  "type": "Feature",
  "properties": {
    "edtf:cessation":"uuuu",
    "edtf:inception":"uuuu",
    "geom:area":0.0,
    "geom:bbox":"-73.492101,41.148387,-73.492101,41.148387",
    "geom:latitude":41.148387,
    "geom:longitude":-73.492101,
    "iso:country":"US",
    "sg:address":"16 Forest St",
    "sg:city":"New Canaan",
    "sg:classifiers":[
        {
            "category":"Professional",
            "subcategory":"Business Services",
            "type":"Services"
        }
    ],
    "sg:owner":"simplegeo",
    "sg:phone":"+1 203 972 1000",
    "sg:postcode":"06840",
    "sg:province":"NY",
    "sg:tags":[
        "commodity",
        "contract",
        "broker"
    ],
    "src:geom":"simplegeo",
    "wof:belongsto":[
        85688629,
        85633793,
        85851779,
        102084283
    ],
    "wof:breaches":[],
    "wof:concordances":{
        "sg:id":"SG_7OFXPFg8vWaWPDH1ACyHLo_41.148387_-73.492101@1294177022"
    },
    "wof:country":"US",
    "wof:geomhash":"bf0d05c26a58be2568ec88c3ae25ea38",
    "wof:hierarchy":[
        {
            "country_id":85633793,
            "county_id":102084283,
            "neighbourhood_id":85851779,
            "region_id":85688629,
            "venue_id":554941537
        }
    ],
    "wof:id":554941537,
    "wof:lastmodified":1461017770,
    "wof:name":"Ram Management Group LTD",
    "wof:parent_id":85851779,
    "wof:placetype":"venue",
    "wof:superseded_by":[],
    "wof:supersedes":[],
    "wof:tags":[
        "commodity",
        "contract",
        "broker"
    ]
},
  "bbox": [
    -73.492101,
    41.148387,
    -73.492101,
    41.148387
],
  "geometry": {"coordinates":[-73.49210100000001,41.148387],"type":"Point"}
}