{
  "id": 555172277,
  "type": "Feature",
  "properties": {
    "edtf:cessation":"uuuu",
    "edtf:inception":"uuuu",
    "geom:area":0.0,
    "geom:bbox":"-73.987644,40.751419,-73.987644,40.751419",
    "geom:latitude":40.751419,
    "geom:longitude":-73.987644,
    "iso:country":"US",
    "sg:address":"1370 Broadway",
    "sg:city":"New York",
    "sg:classifiers":[
        {
            "category":"Wholesale",
            "subcategory":"Apparel",
            "type":"Manufacturing & Wholesale Goods"
        }
    ],
    "sg:owner":"simplegeo",
    "sg:phone":"+1 212 563 1663",
    "sg:postcode":"10018",
    "sg:province":"NY",
    "sg:tags":[
        "trade"
    ],
    "src:geom":"simplegeo",
    "wof:belongsto":[],
    "wof:breaches":[],
    "wof:concordances":{
        "sg:id":"SG_22uCph4NobKhWR8CqC5wmm_40.751419_-73.987644@1294177022"
    },
    "wof:country":"US",
    "wof:geomhash":"d3e6976c377519828f5f2f48b0d7539a",
    "wof:hierarchy":[],
    "wof:id":555172277,
    "wof:lastmodified":1461023658,
    "wof:name":"Coupe DEtat",
    "wof:parent_id":-1,
    "wof:placetype":"venue",
    "wof:superseded_by":[],
    "wof:supersedes":[],
    "wof:tags":[
        "trade"
    ]
},
  "bbox": [
    -73.987644,
    40.751419,
    -73.987644,
    40.751419
],
  "geometry": {"coordinates":[-73.987644,40.751419],"type":"Point"}
}