{
  "id": 554934381,
  "type": "Feature",
  "properties": {
    "edtf:cessation":"uuuu",
    "edtf:inception":"uuuu",
    "geom:area":0.0,
    "geom:bbox":"-73.487545,41.1491,-73.487545,41.1491",
    "geom:latitude":41.1491,
    "geom:longitude":-73.487545,
    "iso:country":"US",
    "sg:address":"7 Vitti St",
    "sg:city":"New Canaan",
    "sg:classifiers":[
        {
            "category":"Retail",
            "subcategory":"Veterinary Services",
            "type":"Services"
        }
    ],
    "sg:owner":"simplegeo",
    "sg:phone":"+1 203 966 1627",
    "sg:postcode":"06840",
    "sg:province":"NY",
    "sg:tags":[
        "animal"
    ],
    "src:geom":"simplegeo",
    "wof:belongsto":[
        85688629,
        85633793,
        85851779,
        102084283
    ],
    "wof:breaches":[],
    "wof:concordances":{
        "sg:id":"SG_7WPrzLK8eoPDdFozlAxqv4_41.149100_-73.487545@1294177022"
    },
    "wof:country":"US",
    "wof:geomhash":"885168a00eaa8e92b6079b0cf3eb0a03",
    "wof:hierarchy":[
        {
            "country_id":85633793,
            "county_id":102084283,
            "neighbourhood_id":85851779,
            "region_id":85688629,
            "venue_id":554934381
        }
    ],
    "wof:id":554934381,
    "wof:lastmodified":1461016931,
    "wof:name":"New Canaan Veterinary Hospital",
    "wof:parent_id":85851779,
    "wof:placetype":"venue",
    "wof:superseded_by":[],
    "wof:supersedes":[],
    "wof:tags":[
        "animal"
    ]
},
  "bbox": [
    -73.487545,
    41.1491,
    -73.487545,
    41.1491
],
  "geometry": {"coordinates":[-73.487545,41.1491],"type":"Point"}
}