{
  "id": 554935111,
  "type": "Feature",
  "properties": {
    "edtf:cessation":"uuuu",
    "edtf:inception":"uuuu",
    "geom:area":0.0,
    "geom:bbox":"-73.477087,41.150907,-73.477087,41.150907",
    "geom:latitude":41.150907,
    "geom:longitude":-73.477087,
    "iso:country":"US",
    "sg:address":"74 Clapboard Hill Rd",
    "sg:city":"New Canaan",
    "sg:classifiers":[
        {
            "category":"Wholesale",
            "subcategory":"Durable Goods & Equipment",
            "type":"Manufacturing & Wholesale Goods"
        }
    ],
    "sg:owner":"simplegeo",
    "sg:phone":"+1 203 972 5701",
    "sg:postcode":"06840",
    "sg:province":"NY",
    "sg:tags":[
        "exporter"
    ],
    "src:geom":"simplegeo",
    "wof:belongsto":[],
    "wof:breaches":[],
    "wof:concordances":{
        "sg:id":"SG_4ANEvVzr0jwlzdtjdrcCKg_41.150907_-73.477087@1294177022"
    },
    "wof:country":"US",
    "wof:geomhash":"51af701f43d78a6efe0a707f2b658ad6",
    "wof:hierarchy":[],
    "wof:id":554935111,
    "wof:lastmodified":1461017025,
    "wof:name":"Tepper Co",
    "wof:parent_id":-1,
    "wof:placetype":"venue",
    "wof:superseded_by":[],
    "wof:supersedes":[],
    "wof:tags":[
        "exporter"
    ]
},
  "bbox": [
    -73.477087,
    41.150907,
    -73.477087,
    41.150907
],
  "geometry": {"coordinates":[-73.477087,41.150907],"type":"Point"}
}