{
  "id": 554939561,
  "type": "Feature",
  "properties": {
    "edtf:cessation":"uuuu",
    "edtf:inception":"uuuu",
    "geom:area":0.0,
    "geom:bbox":"-73.472922,41.137109,-73.472922,41.137109",
    "geom:latitude":41.137109,
    "geom:longitude":-73.472922,
    "iso:country":"US",
    "sg:address":"27 Birchwood Ave",
    "sg:city":"New Canaan",
    "sg:classifiers":[
        {
            "category":"Professional",
            "subcategory":"",
            "type":"Services"
        }
    ],
    "sg:owner":"simplegeo",
    "sg:phone":"+1 203 966 1823",
    "sg:postcode":"06840",
    "sg:province":"NY",
    "src:geom":"simplegeo",
    "wof:belongsto":[
        85688629,
        85633793,
        85851779,
        102084283
    ],
    "wof:breaches":[],
    "wof:concordances":{
        "sg:id":"SG_34NSJYDRo3XnUxwPUzjbUr_41.137109_-73.472922@1294177022"
    },
    "wof:country":"US",
    "wof:geomhash":"6b39d26e01731502fbe13bb6c1c25537",
    "wof:hierarchy":[
        {
            "country_id":85633793,
            "county_id":102084283,
            "neighbourhood_id":85851779,
            "region_id":85688629,
            "venue_id":554939561
        }
    ],
    "wof:id":554939561,
    "wof:lastmodified":1461017575,
    "wof:name":"Inside Sports LLC",
    "wof:parent_id":85851779,
    "wof:placetype":"venue",
    "wof:superseded_by":[],
    "wof:supersedes":[],
    "wof:tags":[]
},
  "bbox": [
    -73.472922,
    41.137109,
    -73.472922,
    41.137109
],
  "geometry": {"coordinates":[-73.472922,41.137109],"type":"Point"}
}