{
  "id": 554936317,
  "type": "Feature",
  "properties": {
    "edtf:cessation":"uuuu",
    "edtf:inception":"uuuu",
    "geom:area":0.0,
    "geom:bbox":"-73.487023,41.138957,-73.487023,41.138957",
    "geom:latitude":41.138957,
    "geom:longitude":-73.487023,
    "iso:country":"US",
    "sg:address":"23 Kelley Green",
    "sg:city":"New Canaan",
    "sg:classifiers":[
        {
            "category":"Professional",
            "subcategory":"Management & Consulting",
            "type":"Services"
        }
    ],
    "sg:owner":"simplegeo",
    "sg:phone":"+1 203 972 8502",
    "sg:postcode":"06840",
    "sg:province":"NY",
    "sg:tags":[
        "consultant"
    ],
    "sg:website":"www.jamescole.com",
    "src:geom":"simplegeo",
    "wof:belongsto":[
        85688629,
        85633793,
        85851779,
        102084283
    ],
    "wof:breaches":[],
    "wof:concordances":{
        "sg:id":"SG_7ircq2QxprwY4HtTbm2RLH_41.138957_-73.487023@1294177022"
    },
    "wof:country":"US",
    "wof:geomhash":"18f4549e2201be07529ee949c5d8d416",
    "wof:hierarchy":[
        {
            "country_id":85633793,
            "county_id":102084283,
            "neighbourhood_id":85851779,
            "region_id":85688629,
            "venue_id":554936317
        }
    ],
    "wof:id":554936317,
    "wof:lastmodified":1461017199,
    "wof:name":"James S Cole Consulting Inc",
    "wof:parent_id":85851779,
    "wof:placetype":"venue",
    "wof:superseded_by":[],
    "wof:supersedes":[],
    "wof:tags":[
        "consultant"
    ]
},
  "bbox": [
    -73.487023,
    41.138957,
    -73.487023,
    41.138957
],
  "geometry": {"coordinates":[-73.48702299999999,41.138957],"type":"Point"}
}