{
  "id": 554938759,
  "type": "Feature",
  "properties": {
    "edtf:cessation":"uuuu",
    "edtf:inception":"uuuu",
    "geom:area":0.0,
    "geom:bbox":"-73.69292,41.105242,-73.69292,41.105242",
    "geom:latitude":41.105242,
    "geom:longitude":-73.69292,
    "iso:country":"US",
    "sg:address":"613 Riversville Rd",
    "sg:city":"Greenwich",
    "sg:classifiers":[
        {
            "category":"Professional",
            "subcategory":"",
            "type":"Services"
        }
    ],
    "sg:owner":"simplegeo",
    "sg:phone":"+1 203 661 4587",
    "sg:postcode":"06831",
    "sg:province":"NY",
    "sg:tags":[
        "establishment"
    ],
    "src:geom":"simplegeo",
    "wof:belongsto":[
        85688629,
        85633793,
        85837667,
        102084283
    ],
    "wof:breaches":[],
    "wof:concordances":{
        "sg:id":"SG_2PL1xZ0Vws8FYU9TgiqGkg_41.105242_-73.692920@1294177022"
    },
    "wof:country":"US",
    "wof:geomhash":"a1683f71dd2bb6eb77c14f699b70760f",
    "wof:hierarchy":[
        {
            "country_id":85633793,
            "county_id":102084283,
            "neighbourhood_id":85837667,
            "region_id":85688629,
            "venue_id":554938759
        }
    ],
    "wof:id":554938759,
    "wof:lastmodified":1461017501,
    "wof:name":"Audubon Ecology Workshop",
    "wof:parent_id":85837667,
    "wof:placetype":"venue",
    "wof:superseded_by":[],
    "wof:supersedes":[],
    "wof:tags":[
        "establishment"
    ]
},
  "bbox": [
    -73.69292,
    41.105242,
    -73.69292,
    41.105242
],
  "geometry": {"coordinates":[-73.69292,41.105242],"type":"Point"}
}