{
  "id": 554937641,
  "type": "Feature",
  "properties": {
    "edtf:cessation":"uuuu",
    "edtf:inception":"uuuu",
    "geom:area":0.0,
    "geom:bbox":"-73.507614,41.196739,-73.507614,41.196739",
    "geom:latitude":41.196739,
    "geom:longitude":-73.507614,
    "iso:country":"US",
    "sg:address":"1279 Smith Ridge Rd",
    "sg:city":"New Canaan",
    "sg:classifiers":[
        {
            "category":"Professional",
            "subcategory":"Management & Consulting",
            "type":"Services"
        }
    ],
    "sg:owner":"simplegeo",
    "sg:phone":"+1 203 966 6653",
    "sg:postcode":"06840",
    "sg:province":"NY",
    "sg:tags":[
        "consultant",
        "training"
    ],
    "sg:website":"www.benchpress.com",
    "src:geom":"simplegeo",
    "wof:belongsto":[],
    "wof:breaches":[],
    "wof:concordances":{
        "sg:id":"SG_4F8pQjvhqVJOS45WtUPh2n_41.196739_-73.507614@1294177022"
    },
    "wof:country":"US",
    "wof:geomhash":"58144d51a272ecb4063c021008812d18",
    "wof:hierarchy":[],
    "wof:id":554937641,
    "wof:lastmodified":1461017398,
    "wof:name":"Benchmark Publications Inc",
    "wof:parent_id":-1,
    "wof:placetype":"venue",
    "wof:superseded_by":[],
    "wof:supersedes":[],
    "wof:tags":[
        "consultant",
        "training"
    ]
},
  "bbox": [
    -73.507614,
    41.196739,
    -73.507614,
    41.196739
],
  "geometry": {"coordinates":[-73.507614,41.196739],"type":"Point"}
}