{
  "id": 572178401,
  "type": "Feature",
  "properties": {
    "edtf:cessation":"uuuu",
    "edtf:inception":"uuuu",
    "geom:area":0.0,
    "geom:bbox":"-79.714257,42.265395,-79.714257,42.265395",
    "geom:latitude":42.265395,
    "geom:longitude":-79.714257,
    "iso:country":"US",
    "sg:address":"84 W Main St",
    "sg:city":"Ripley",
    "sg:classifiers":[
        {
            "category":"Place Of Worship",
            "subcategory":"Church",
            "type":"Public Place"
        },
        {
            "category":"Place Of Worship",
            "subcategory":"",
            "type":"Public Place"
        }
    ],
    "sg:owner":"simplegeo",
    "sg:phone":"+1 716 736 3090",
    "sg:postcode":"14775",
    "sg:province":"NY",
    "sg:tags":[
        "churches-methodist"
    ],
    "src:geom":"simplegeo",
    "wof:belongsto":[
        85688481,
        85633793,
        85850957,
        102080955
    ],
    "wof:breaches":[],
    "wof:concordances":{
        "sg:id":"SG_6S3EBcEIRWQY5AkDKZ4TRi_42.265395_-79.714257@1303262403"
    },
    "wof:country":"US",
    "wof:geomhash":"b90bf4e06d958ba32875cd6949ee9224",
    "wof:hierarchy":[
        {
            "country_id":85633793,
            "county_id":102080955,
            "neighbourhood_id":85850957,
            "region_id":85688481,
            "venue_id":572178401
        }
    ],
    "wof:id":572178401,
    "wof:lastmodified":1461051668,
    "wof:name":"Ripley United Methodist Church",
    "wof:parent_id":85850957,
    "wof:placetype":"venue",
    "wof:superseded_by":[],
    "wof:supersedes":[],
    "wof:tags":[
        "churches-methodist"
    ]
},
  "bbox": [
    -79.714257,
    42.265395,
    -79.714257,
    42.265395
],
  "geometry": {"coordinates":[-79.714257,42.265395],"type":"Point"}
}