{
  "id": 572171037,
  "type": "Feature",
  "properties": {
    "edtf:cessation":"uuuu",
    "edtf:inception":"uuuu",
    "geom:area":0.0,
    "geom:bbox":"-74.21364,40.636033,-74.21364,40.636033",
    "geom:latitude":40.636033,
    "geom:longitude":-74.21364,
    "iso:country":"US",
    "sg:address":"5924 8th Ave",
    "sg:city":"Brooklyn",
    "sg:classifiers":[
        {
            "category":"Food & Beverages",
            "subcategory":"Groceries & Convenience Stores",
            "type":"Retail Goods"
        }
    ],
    "sg:owner":"simplegeo",
    "sg:phone":"+1 800 496 1280",
    "sg:postcode":"11220",
    "sg:province":"NY",
    "src:geom":"simplegeo",
    "wof:belongsto":[
        85804971,
        102191575,
        404478503,
        85633793,
        85975837,
        102085995,
        85688607
    ],
    "wof:breaches":[],
    "wof:concordances":{
        "sg:id":"SG_6w0Myugd77z2p1OK4kWkC9_40.636033_-74.213640@1303262344"
    },
    "wof:country":"US",
    "wof:geomhash":"7dc15b9a90de038a0e64fa338b724a04",
    "wof:hierarchy":[
        {
            "continent_id":102191575,
            "country_id":85633793,
            "county_id":102085995,
            "localadmin_id":404478503,
            "locality_id":85975837,
            "neighbourhood_id":85804971,
            "region_id":85688607,
            "venue_id":572171037
        }
    ],
    "wof:id":572171037,
    "wof:lastmodified":1461051438,
    "wof:name":"Nelly's Mini Market",
    "wof:parent_id":85804971,
    "wof:placetype":"venue",
    "wof:superseded_by":[],
    "wof:supersedes":[],
    "wof:tags":[]
},
  "bbox": [
    -74.21364,
    40.636033,
    -74.21364,
    40.636033
],
  "geometry": {"coordinates":[-74.21364,40.636033],"type":"Point"}
}