{
  "id": 555233933,
  "type": "Feature",
  "properties": {
    "edtf:cessation":"uuuu",
    "edtf:inception":"uuuu",
    "geom:area":0.0,
    "geom:bbox":"-74.162354,40.635168,-74.162354,40.635168",
    "geom:latitude":40.635168,
    "geom:longitude":-74.162354,
    "iso:country":"US",
    "sg:address":"141 Andros Ave",
    "sg:city":"Staten Island",
    "sg:classifiers":[
        {
            "category":"Autos & Motor Vehicles",
            "subcategory":"Auto Supplies",
            "type":"Retail Goods"
        }
    ],
    "sg:owner":"simplegeo",
    "sg:phone":"+1 718 816 7859",
    "sg:postcode":"10303",
    "sg:province":"NY",
    "sg:tags":[
        "automobile",
        "parts"
    ],
    "src:geom":"simplegeo",
    "wof:belongsto":[],
    "wof:breaches":[],
    "wof:concordances":{
        "sg:id":"SG_4lwTvahUMsQSbf1TUawYll_40.635168_-74.162354@1294177022"
    },
    "wof:country":"US",
    "wof:geomhash":"1aa5bda889fe3cacb4cd85ef31514924",
    "wof:hierarchy":[],
    "wof:id":555233933,
    "wof:lastmodified":1461024972,
    "wof:name":"Staten Island Spring Corp",
    "wof:parent_id":-1,
    "wof:placetype":"venue",
    "wof:superseded_by":[],
    "wof:supersedes":[],
    "wof:tags":[
        "automobile",
        "parts"
    ]
},
  "bbox": [
    -74.162354,
    40.635168,
    -74.162354,
    40.635168
],
  "geometry": {"coordinates":[-74.16235399999999,40.635168],"type":"Point"}
}