{
  "id": 554939621,
  "type": "Feature",
  "properties": {
    "edtf:cessation":"uuuu",
    "edtf:inception":"uuuu",
    "geom:area":0.0,
    "geom:bbox":"-74.060784,41.081541,-74.060784,41.081541",
    "geom:latitude":41.081541,
    "geom:longitude":-74.060784,
    "iso:country":"US",
    "sg:address":"884 Chestnut Ridge Rd",
    "sg:city":"Chestnut Ridge",
    "sg:classifiers":[
        {
            "category":"Organizations",
            "subcategory":"Religious Organization",
            "type":"Services"
        }
    ],
    "sg:owner":"simplegeo",
    "sg:phone":"+1 845 352 5518",
    "sg:postcode":"10977",
    "sg:province":"NY",
    "sg:tags":[
        "mosque"
    ],
    "sg:website":"www.jerrahi.org",
    "src:geom":"simplegeo",
    "wof:belongsto":[
        85853261,
        102191575,
        404523097,
        85633793,
        85978555,
        102082385,
        85688543
    ],
    "wof:breaches":[],
    "wof:concordances":{
        "sg:id":"SG_06i7Zb6DXpLIPVkfDQOCCk_41.081541_-74.060784@1294177022"
    },
    "wof:country":"US",
    "wof:geomhash":"82705dc9d405e01f1f7dcd2f4e115ab7",
    "wof:hierarchy":[
        {
            "continent_id":102191575,
            "country_id":85633793,
            "county_id":102082385,
            "localadmin_id":404523097,
            "locality_id":85978555,
            "neighbourhood_id":85853261,
            "region_id":85688543,
            "venue_id":554939621
        }
    ],
    "wof:id":554939621,
    "wof:lastmodified":1461017580,
    "wof:name":"Mosque Of The Jerrahi Order",
    "wof:parent_id":85853261,
    "wof:placetype":"venue",
    "wof:superseded_by":[],
    "wof:supersedes":[],
    "wof:tags":[
        "mosque"
    ]
},
  "bbox": [
    -74.060784,
    41.081541,
    -74.060784,
    41.081541
],
  "geometry": {"coordinates":[-74.060784,41.081541],"type":"Point"}
}