{
  "id": 554939863,
  "type": "Feature",
  "properties": {
    "edtf:cessation":"uuuu",
    "edtf:inception":"uuuu",
    "geom:area":0.0,
    "geom:bbox":"-73.664967,41.026307,-73.664967,41.026307",
    "geom:latitude":41.026307,
    "geom:longitude":-73.664967,
    "iso:country":"US",
    "sg:address":"9 Greenwich Hills Dr",
    "sg:city":"Greenwich",
    "sg:classifiers":[
        {
            "category":"Banks & Credit Unions",
            "subcategory":"Investment Brokerage",
            "type":"Services"
        }
    ],
    "sg:owner":"simplegeo",
    "sg:phone":"+1 617 308 4934",
    "sg:postcode":"06831",
    "sg:province":"NY",
    "sg:tags":[
        "management"
    ],
    "src:geom":"simplegeo",
    "wof:belongsto":[
        420555461,
        102191575,
        404495949,
        85633793,
        85930937,
        102084283,
        85688629
    ],
    "wof:breaches":[],
    "wof:concordances":{
        "sg:id":"SG_6fjJaET4sZ9j7gTX1jdqrn_41.026307_-73.664967@1294177022"
    },
    "wof:country":"US",
    "wof:geomhash":"bdc0dcaa11d8c907d4f503dd4ebb2176",
    "wof:hierarchy":[
        {
            "continent_id":102191575,
            "country_id":85633793,
            "county_id":102084283,
            "localadmin_id":404495949,
            "locality_id":85930937,
            "neighbourhood_id":420555461,
            "region_id":85688629,
            "venue_id":554939863
        }
    ],
    "wof:id":554939863,
    "wof:lastmodified":1461017602,
    "wof:name":"Carrington Capital MGT LLC",
    "wof:parent_id":420555461,
    "wof:placetype":"venue",
    "wof:superseded_by":[],
    "wof:supersedes":[],
    "wof:tags":[
        "management"
    ]
},
  "bbox": [
    -73.664967,
    41.026307,
    -73.664967,
    41.026307
],
  "geometry": {"coordinates":[-73.664967,41.026307],"type":"Point"}
}