{
  "id": 572171703,
  "type": "Feature",
  "properties": {
    "edtf:cessation":"uuuu",
    "edtf:inception":"uuuu",
    "geom:area":0.0,
    "geom:bbox":"-74.226801,40.653344,-74.226801,40.653344",
    "geom:latitude":40.653344,
    "geom:longitude":-74.226801,
    "iso:country":"US",
    "sg:address":"4223 2nd Ave",
    "sg:city":"Brooklyn",
    "sg:classifiers":[
        {
            "category":"Building & Trades",
            "subcategory":"Construction",
            "type":"Services"
        }
    ],
    "sg:owner":"simplegeo",
    "sg:phone":"+1 718 788 3509",
    "sg:postcode":"11232",
    "sg:province":"NY",
    "sg:tags":[
        "contractor"
    ],
    "src:geom":"simplegeo",
    "wof:belongsto":[
        85868017,
        102191575,
        404478497,
        85633793,
        85975847,
        102085995,
        85688607
    ],
    "wof:breaches":[],
    "wof:concordances":{
        "sg:id":"SG_76Kr9tmBZbv00t85cCXsh3_40.653344_-74.226801@1303262348"
    },
    "wof:country":"US",
    "wof:geomhash":"e598a0f47bfc1643e227811c1520a339",
    "wof:hierarchy":[
        {
            "continent_id":102191575,
            "country_id":85633793,
            "county_id":102085995,
            "localadmin_id":404478497,
            "locality_id":85975847,
            "neighbourhood_id":85868017,
            "region_id":85688607,
            "venue_id":572171703
        }
    ],
    "wof:id":572171703,
    "wof:lastmodified":1461051460,
    "wof:name":"Ifm Contracting Incorporated",
    "wof:parent_id":85868017,
    "wof:placetype":"venue",
    "wof:superseded_by":[],
    "wof:supersedes":[],
    "wof:tags":[
        "contractor"
    ]
},
  "bbox": [
    -74.226801,
    40.653344,
    -74.226801,
    40.653344
],
  "geometry": {"coordinates":[-74.22680099999999,40.653344],"type":"Point"}
}