{
  "id": 554937481,
  "type": "Feature",
  "properties": {
    "edtf:cessation":"uuuu",
    "edtf:inception":"uuuu",
    "geom:area":0.0,
    "geom:bbox":"-77.31319,41.98346,-77.31319,41.98346",
    "geom:latitude":41.98346,
    "geom:longitude":-77.31319,
    "iso:country":"US",
    "sg:address":"206 W River St",
    "sg:city":"Elkland",
    "sg:classifiers":[
        {
            "category":"Building & Trades",
            "subcategory":"Construction",
            "type":"Services"
        }
    ],
    "sg:owner":"simplegeo",
    "sg:phone":"+1 814 258 5358",
    "sg:postcode":"16920",
    "sg:province":"NY",
    "sg:tags":[
        "home",
        "builder"
    ],
    "src:geom":"simplegeo",
    "wof:belongsto":[],
    "wof:breaches":[],
    "wof:concordances":{
        "sg:id":"SG_0RtA43V0wneDcy0XG3JV7g_41.983460_-77.313190@1294177022"
    },
    "wof:country":"US",
    "wof:geomhash":"f958e0f206cf2d794ace69df11f961e2",
    "wof:hierarchy":[],
    "wof:id":554937481,
    "wof:lastmodified":1461017378,
    "wof:name":"S Cerchie Home & Auto",
    "wof:parent_id":420539789,
    "wof:placetype":"venue",
    "wof:superseded_by":[],
    "wof:supersedes":[],
    "wof:tags":[
        "home",
        "builder"
    ]
},
  "bbox": [
    -77.31319,
    41.98346,
    -77.31319,
    41.98346
],
  "geometry": {"coordinates":[-77.31319000000001,41.98346],"type":"Point"}
}