{
  "id": 554934379,
  "type": "Feature",
  "properties": {
    "edtf:cessation":"uuuu",
    "edtf:inception":"uuuu",
    "geom:area":0.0,
    "geom:bbox":"-73.492977,41.148644,-73.492977,41.148644",
    "geom:latitude":41.148644,
    "geom:longitude":-73.492977,
    "iso:country":"US",
    "sg:address":"23 Locust Ave",
    "sg:city":"New Canaan",
    "sg:classifiers":[
        {
            "category":"Retail",
            "subcategory":"Laundry & Dry Cleaning",
            "type":"Services"
        }
    ],
    "sg:owner":"simplegeo",
    "sg:phone":"+1   ",
    "sg:postcode":"06840",
    "sg:province":"NY",
    "src:geom":"simplegeo",
    "wof:belongsto":[
        85688629,
        85633793,
        85851779,
        102084283
    ],
    "wof:breaches":[],
    "wof:concordances":{
        "sg:id":"SG_22Yx3Yx5rweLG7iyf4tFEH_41.148644_-73.492977@1294177022"
    },
    "wof:country":"US",
    "wof:geomhash":"9f1e8a8ae014e3a4ce331c81b5966c56",
    "wof:hierarchy":[
        {
            "country_id":85633793,
            "county_id":102084283,
            "neighbourhood_id":85851779,
            "region_id":85688629,
            "venue_id":554934379
        }
    ],
    "wof:id":554934379,
    "wof:lastmodified":1461016931,
    "wof:name":"Coppolas Custom Tailor & Fur",
    "wof:parent_id":85851779,
    "wof:placetype":"venue",
    "wof:superseded_by":[],
    "wof:supersedes":[],
    "wof:tags":[]
},
  "bbox": [
    -73.492977,
    41.148644,
    -73.492977,
    41.148644
],
  "geometry": {"coordinates":[-73.492977,41.148644],"type":"Point"}
}