{
  "id": 554936143,
  "type": "Feature",
  "properties": {
    "edtf:cessation":"uuuu",
    "edtf:inception":"uuuu",
    "geom:area":0.0,
    "geom:bbox":"-73.492454,41.147501,-73.492454,41.147501",
    "geom:latitude":41.147501,
    "geom:longitude":-73.492454,
    "iso:country":"US",
    "sg:address":"101 Main St",
    "sg:city":"New Canaan",
    "sg:classifiers":[
        {
            "category":"Shopping",
            "subcategory":"Hobbies, Toys, & Games",
            "type":"Retail Goods"
        }
    ],
    "sg:owner":"simplegeo",
    "sg:phone":"+1 203 972 0007",
    "sg:postcode":"06840",
    "sg:province":"NY",
    "src:geom":"simplegeo",
    "wof:belongsto":[
        85688629,
        85633793,
        85851779,
        102084283
    ],
    "wof:breaches":[],
    "wof:concordances":{
        "sg:id":"SG_5AdcZ8ELlNrGlmy1p934Zr_41.147501_-73.492454@1294177022"
    },
    "wof:country":"US",
    "wof:geomhash":"d6c4fc5d04b40eb518b9cb95b2b4742c",
    "wof:hierarchy":[
        {
            "country_id":85633793,
            "county_id":102084283,
            "neighbourhood_id":85851779,
            "region_id":85688629,
            "venue_id":554936143
        }
    ],
    "wof:id":554936143,
    "wof:lastmodified":1461017171,
    "wof:name":"Toy Chest Of New Canaan",
    "wof:parent_id":85851779,
    "wof:placetype":"venue",
    "wof:superseded_by":[],
    "wof:supersedes":[],
    "wof:tags":[]
},
  "bbox": [
    -73.492454,
    41.147501,
    -73.492454,
    41.147501
],
  "geometry": {"coordinates":[-73.492454,41.147501],"type":"Point"}
}