{
  "id": 554939423,
  "type": "Feature",
  "properties": {
    "edtf:cessation":"uuuu",
    "edtf:inception":"uuuu",
    "geom:area":0.0,
    "geom:bbox":"-73.49307,41.1529,-73.49307,41.1529",
    "geom:latitude":41.1529,
    "geom:longitude":-73.49307,
    "iso:country":"US",
    "sg:address":"124 Forest St",
    "sg:city":"New Canaan",
    "sg:classifiers":[
        {
            "category":"Building & Trades",
            "subcategory":"Construction",
            "type":"Services"
        }
    ],
    "sg:owner":"simplegeo",
    "sg:phone":"+1 203 966 8363",
    "sg:postcode":"06840",
    "sg:province":"NY",
    "sg:tags":[
        "contractor"
    ],
    "src:geom":"simplegeo",
    "wof:belongsto":[
        85688629,
        85633793,
        85851779,
        102084283
    ],
    "wof:breaches":[],
    "wof:concordances":{
        "sg:id":"SG_5mNuHHznvedny6ydYUPQVw_41.152900_-73.493070@1294177022"
    },
    "wof:country":"US",
    "wof:geomhash":"89bb02b6db38d6799d42dd1cc4c8e53c",
    "wof:hierarchy":[
        {
            "country_id":85633793,
            "county_id":102084283,
            "neighbourhood_id":85851779,
            "region_id":85688629,
            "venue_id":554939423
        }
    ],
    "wof:id":554939423,
    "wof:lastmodified":1461017562,
    "wof:name":"Coppola Builders Inc",
    "wof:parent_id":85851779,
    "wof:placetype":"venue",
    "wof:superseded_by":[],
    "wof:supersedes":[],
    "wof:tags":[
        "contractor"
    ]
},
  "bbox": [
    -73.49307,
    41.1529,
    -73.49307,
    41.1529
],
  "geometry": {"coordinates":[-73.49307,41.1529],"type":"Point"}
}