{
  "id": 572170661,
  "type": "Feature",
  "properties": {
    "edtf:cessation":"uuuu",
    "edtf:inception":"uuuu",
    "geom:area":0.0,
    "geom:bbox":"-74.240965,40.629029,-74.240965,40.629029",
    "geom:latitude":40.629029,
    "geom:longitude":-74.240965,
    "iso:country":"US",
    "sg:address":"909R Bay Ridge Ave",
    "sg:city":"Brooklyn",
    "sg:classifiers":[
        {
            "category":"Building & Trades",
            "subcategory":"Construction",
            "type":"Services"
        }
    ],
    "sg:owner":"simplegeo",
    "sg:phone":"+1 718 238 2227",
    "sg:postcode":"11219",
    "sg:province":"NY",
    "sg:tags":[
        "contractor"
    ],
    "src:geom":"simplegeo",
    "wof:belongsto":[
        85804971,
        102191575,
        404478503,
        85633793,
        85975837,
        102085995,
        85688607
    ],
    "wof:breaches":[],
    "wof:concordances":{
        "sg:id":"SG_1Pc0fcek1LQK479FJvvtEE_40.629029_-74.240965@1303262343"
    },
    "wof:country":"US",
    "wof:geomhash":"3b63092ab1d0e097cac70aaa9569890e",
    "wof:hierarchy":[
        {
            "continent_id":102191575,
            "country_id":85633793,
            "county_id":102085995,
            "localadmin_id":404478503,
            "locality_id":85975837,
            "neighbourhood_id":85804971,
            "region_id":85688607,
            "venue_id":572170661
        }
    ],
    "wof:id":572170661,
    "wof:lastmodified":1461051429,
    "wof:name":"Delwood Developement Llc",
    "wof:parent_id":85804971,
    "wof:placetype":"venue",
    "wof:superseded_by":[],
    "wof:supersedes":[],
    "wof:tags":[
        "contractor"
    ]
},
  "bbox": [
    -74.240965,
    40.629029,
    -74.240965,
    40.629029
],
  "geometry": {"coordinates":[-74.240965,40.629029],"type":"Point"}
}