{
  "id": 554939219,
  "type": "Feature",
  "properties": {
    "edtf:cessation":"uuuu",
    "edtf:inception":"uuuu",
    "geom:area":0.0,
    "geom:bbox":"-73.503882,41.157318,-73.503882,41.157318",
    "geom:latitude":41.157318,
    "geom:longitude":-73.503882,
    "iso:country":"US",
    "sg:address":"24 Parade Hill Ln",
    "sg:city":"New Canaan",
    "sg:classifiers":[
        {
            "category":"Professional",
            "subcategory":"Management & Consulting",
            "type":"Services"
        }
    ],
    "sg:owner":"simplegeo",
    "sg:phone":"+1   ",
    "sg:postcode":"06840",
    "sg:province":"NY",
    "sg:tags":[
        "business"
    ],
    "src:geom":"simplegeo",
    "wof:belongsto":[
        85688629,
        85633793,
        85851779,
        102084283
    ],
    "wof:breaches":[],
    "wof:concordances":{
        "sg:id":"SG_4FunkIFiLLJBBE2H1UdFXX_41.157318_-73.503882@1294177022"
    },
    "wof:country":"US",
    "wof:geomhash":"3e9db790a4883c23a929e76abf44f686",
    "wof:hierarchy":[
        {
            "country_id":85633793,
            "county_id":102084283,
            "neighbourhood_id":85851779,
            "region_id":85688629,
            "venue_id":554939219
        }
    ],
    "wof:id":554939219,
    "wof:lastmodified":1461017535,
    "wof:name":"Design Control",
    "wof:parent_id":85851779,
    "wof:placetype":"venue",
    "wof:superseded_by":[],
    "wof:supersedes":[],
    "wof:tags":[
        "business"
    ]
},
  "bbox": [
    -73.503882,
    41.157318,
    -73.503882,
    41.157318
],
  "geometry": {"coordinates":[-73.503882,41.157318],"type":"Point"}
}