{
  "id": 572171293,
  "type": "Feature",
  "properties": {
    "edtf:cessation":"uuuu",
    "edtf:inception":"uuuu",
    "geom:area":0.0,
    "geom:bbox":"-74.297871,40.628295,-74.297871,40.628295",
    "geom:latitude":40.628295,
    "geom:longitude":-74.297871,
    "iso:country":"US",
    "sg:address":"7004 Fort Hamilton Pkwy",
    "sg:city":"Brooklyn",
    "sg:classifiers":[
        {
            "category":"Food & Beverages",
            "subcategory":"Groceries & Convenience Stores",
            "type":"Retail Goods"
        }
    ],
    "sg:owner":"simplegeo",
    "sg:phone":"+1 718 680 0899",
    "sg:postcode":"11228",
    "sg:province":"NY",
    "src:geom":"simplegeo",
    "wof:belongsto":[],
    "wof:breaches":[],
    "wof:concordances":{
        "sg:id":"SG_4FFRghrFbdBsYqEM3x4PVR_40.628295_-74.297871@1303262347"
    },
    "wof:country":"US",
    "wof:geomhash":"3e807d4e889a9bf928902af9b8235c05",
    "wof:hierarchy":[],
    "wof:id":572171293,
    "wof:lastmodified":1461051451,
    "wof:name":"Ling G Grocery Incorporated",
    "wof:parent_id":-1,
    "wof:placetype":"venue",
    "wof:superseded_by":[],
    "wof:supersedes":[],
    "wof:tags":[]
},
  "bbox": [
    -74.297871,
    40.628295,
    -74.297871,
    40.628295
],
  "geometry": {"coordinates":[-74.297871,40.628295],"type":"Point"}
}