{
  "id": 555266847,
  "type": "Feature",
  "properties": {
    "edtf:cessation":"uuuu",
    "edtf:inception":"uuuu",
    "geom:area":0.0,
    "geom:bbox":"-75.50104,43.309299,-75.50104,43.309299",
    "geom:latitude":43.309299,
    "geom:longitude":-75.50104,
    "iso:country":"US",
    "sg:address":"9291 Wilkinson Rd",
    "sg:city":"Lee Center",
    "sg:classifiers":[
        {
            "category":"Manufacturing",
            "subcategory":"Wood Products",
            "type":"Manufacturing & Wholesale Goods"
        }
    ],
    "sg:owner":"simplegeo",
    "sg:phone":"+1   ",
    "sg:postcode":"13363",
    "sg:province":"NY",
    "sg:tags":[
        "mfg"
    ],
    "src:geom":"simplegeo",
    "wof:belongsto":[],
    "wof:breaches":[],
    "wof:concordances":{
        "sg:id":"SG_0BghmBp6ns071iaWYGVt3v_43.309299_-75.501040@1294177022"
    },
    "wof:country":"US",
    "wof:geomhash":"356b4c58a7d77ed1dce05c0143383bf6",
    "wof:hierarchy":[],
    "wof:id":555266847,
    "wof:lastmodified":1461025744,
    "wof:name":"Lee Center Lumber Co",
    "wof:parent_id":420529265,
    "wof:placetype":"venue",
    "wof:superseded_by":[],
    "wof:supersedes":[],
    "wof:tags":[
        "mfg"
    ]
},
  "bbox": [
    -75.50104,
    43.309299,
    -75.50104,
    43.309299
],
  "geometry": {"coordinates":[-75.50104,43.309299],"type":"Point"}
}