{
  "id": 554936171,
  "type": "Feature",
  "properties": {
    "edtf:cessation":"uuuu",
    "edtf:inception":"uuuu",
    "geom:area":0.0,
    "geom:bbox":"-73.228024,42.509332,-73.228024,42.509332",
    "geom:latitude":42.509332,
    "geom:longitude":-73.228024,
    "iso:country":"US",
    "sg:address":"33 Stormview Rd",
    "sg:city":"Lanesboro",
    "sg:classifiers":[
        {
            "category":"Communications",
            "subcategory":"Film & Video Production",
            "type":"Services"
        }
    ],
    "sg:owner":"simplegeo",
    "sg:phone":"+1   ",
    "sg:postcode":"01237",
    "sg:province":"NY",
    "src:geom":"simplegeo",
    "wof:belongsto":[
        85688645,
        85633793,
        85829509,
        102084369
    ],
    "wof:breaches":[],
    "wof:concordances":{
        "sg:id":"SG_0zQ7YKEArdyKvexhDpB0yn_42.509332_-73.228024@1294177022"
    },
    "wof:country":"US",
    "wof:geomhash":"55d50333fe15581e5e152b532d81f6c7",
    "wof:hierarchy":[
        {
            "country_id":85633793,
            "county_id":102084369,
            "neighbourhood_id":85829509,
            "region_id":85688645,
            "venue_id":554936171
        }
    ],
    "wof:id":554936171,
    "wof:lastmodified":1461017176,
    "wof:name":"Berkshire Film and Video",
    "wof:parent_id":85829509,
    "wof:placetype":"venue",
    "wof:superseded_by":[],
    "wof:supersedes":[],
    "wof:tags":[]
},
  "bbox": [
    -73.228024,
    42.509332,
    -73.228024,
    42.509332
],
  "geometry": {"coordinates":[-73.228024,42.509332],"type":"Point"}
}