{
  "id": 572075539,
  "type": "Feature",
  "properties": {
    "edtf:cessation":"uuuu",
    "edtf:inception":"uuuu",
    "geom:area":0.0,
    "geom:bbox":"-73.746264,41.362767,-73.746264,41.362767",
    "geom:latitude":41.362767,
    "geom:longitude":-73.746264,
    "iso:country":"US",
    "sg:address":"4 Veschi Ln N 1",
    "sg:city":"Mahopac",
    "sg:classifiers":[
        {
            "category":"Personal",
            "subcategory":"Beauty Salon",
            "type":"Services"
        }
    ],
    "sg:owner":"simplegeo",
    "sg:phone":"+1 845 628 5707",
    "sg:postcode":"10541",
    "sg:province":"NY",
    "src:geom":"simplegeo",
    "wof:belongsto":[],
    "wof:breaches":[],
    "wof:concordances":{
        "sg:id":"SG_1pgeczOQTqdz5ex8ZmB9EY_41.362767_-73.746264@1303262325"
    },
    "wof:country":"US",
    "wof:geomhash":"898e56ad8751f3b3e93a7e545601cf3d",
    "wof:hierarchy":[],
    "wof:id":572075539,
    "wof:lastmodified":1461049388,
    "wof:name":"Nails By Christie",
    "wof:parent_id":420529681,
    "wof:placetype":"venue",
    "wof:superseded_by":[],
    "wof:supersedes":[],
    "wof:tags":[]
},
  "bbox": [
    -73.746264,
    41.362767,
    -73.746264,
    41.362767
],
  "geometry": {"coordinates":[-73.746264,41.362767],"type":"Point"}
}