{
  "id": 554937735,
  "type": "Feature",
  "properties": {
    "edtf:cessation":"uuuu",
    "edtf:inception":"uuuu",
    "geom:area":0.0,
    "geom:bbox":"-73.666099,41.107285,-73.666099,41.107285",
    "geom:latitude":41.107285,
    "geom:longitude":-73.666099,
    "iso:country":"US",
    "sg:address":"465 Round Hill Rd",
    "sg:city":"Greenwich",
    "sg:classifiers":[
        {
            "category":"Communications",
            "subcategory":"Film & Video Production",
            "type":"Services"
        }
    ],
    "sg:owner":"simplegeo",
    "sg:phone":"+1   ",
    "sg:postcode":"06831",
    "sg:province":"NY",
    "sg:tags":[
        "motion"
    ],
    "src:geom":"simplegeo",
    "wof:belongsto":[
        85688629,
        85633793,
        85837667,
        102084283
    ],
    "wof:breaches":[],
    "wof:concordances":{
        "sg:id":"SG_4eT9gIsPmhWUA6jdifbcz3_41.107285_-73.666099@1294177022"
    },
    "wof:country":"US",
    "wof:geomhash":"49a3f9abc1e15f599a7c7d80f0db1ebc",
    "wof:hierarchy":[
        {
            "country_id":85633793,
            "county_id":102084283,
            "neighbourhood_id":85837667,
            "region_id":85688629,
            "venue_id":554937735
        }
    ],
    "wof:id":554937735,
    "wof:lastmodified":1461017412,
    "wof:name":"Lucy & Jake Productions",
    "wof:parent_id":85837667,
    "wof:placetype":"venue",
    "wof:superseded_by":[],
    "wof:supersedes":[],
    "wof:tags":[
        "motion"
    ]
},
  "bbox": [
    -73.666099,
    41.107285,
    -73.666099,
    41.107285
],
  "geometry": {"coordinates":[-73.666099,41.107285],"type":"Point"}
}