{
  "id": 554936329,
  "type": "Feature",
  "properties": {
    "edtf:cessation":"uuuu",
    "edtf:inception":"uuuu",
    "geom:area":0.0,
    "geom:bbox":"-73.675517,41.092504,-73.675517,41.092504",
    "geom:latitude":41.092504,
    "geom:longitude":-73.675517,
    "iso:country":"US",
    "sg:address":"7 Old Round Hill Ln",
    "sg:city":"Greenwich",
    "sg:classifiers":[
        {
            "category":"Retail",
            "subcategory":"Repair Shop",
            "type":"Services"
        }
    ],
    "sg:owner":"simplegeo",
    "sg:phone":"+1   ",
    "sg:postcode":"06831",
    "sg:province":"NY",
    "src:geom":"simplegeo",
    "wof:belongsto":[
        85688629,
        85633793,
        85837667,
        102084283
    ],
    "wof:breaches":[],
    "wof:concordances":{
        "sg:id":"SG_4rczHxkBIeuYqSdoxgiTvb_41.092504_-73.675517@1294177022"
    },
    "wof:country":"US",
    "wof:geomhash":"102e88207b8fc73adb34feef6d205cfb",
    "wof:hierarchy":[
        {
            "country_id":85633793,
            "county_id":102084283,
            "neighbourhood_id":85837667,
            "region_id":85688629,
            "venue_id":554936329
        }
    ],
    "wof:id":554936329,
    "wof:lastmodified":1461017199,
    "wof:name":"Lisa B Zelinsky",
    "wof:parent_id":85837667,
    "wof:placetype":"venue",
    "wof:superseded_by":[],
    "wof:supersedes":[],
    "wof:tags":[]
},
  "bbox": [
    -73.675517,
    41.092504,
    -73.675517,
    41.092504
],
  "geometry": {"coordinates":[-73.675517,41.092504],"type":"Point"}
}