{
  "id": 554940267,
  "type": "Feature",
  "properties": {
    "edtf:cessation":"uuuu",
    "edtf:inception":"uuuu",
    "geom:area":0.0,
    "geom:bbox":"-73.662495,41.046524,-73.662495,41.046524",
    "geom:latitude":41.046524,
    "geom:longitude":-73.662495,
    "iso:country":"US",
    "sg:address":"238 Riversville Rd",
    "sg:city":"Greenwich",
    "sg:classifiers":[
        {
            "category":"Building & Trades",
            "subcategory":"Electrical",
            "type":"Services"
        }
    ],
    "sg:owner":"simplegeo",
    "sg:phone":"+1 203 661 9033",
    "sg:postcode":"06831",
    "sg:province":"NY",
    "sg:tags":[
        "electrical",
        "contractor"
    ],
    "src:geom":"simplegeo",
    "wof:belongsto":[
        420555461,
        102191575,
        404495949,
        85633793,
        85930937,
        102084283,
        85688629
    ],
    "wof:breaches":[],
    "wof:concordances":{
        "sg:id":"SG_6v82kimZ80v9iuhEyL0RbQ_41.046524_-73.662495@1294177022"
    },
    "wof:country":"US",
    "wof:geomhash":"944cde7502c7c7525e3fc540f12f4778",
    "wof:hierarchy":[
        {
            "continent_id":102191575,
            "country_id":85633793,
            "county_id":102084283,
            "localadmin_id":404495949,
            "locality_id":85930937,
            "neighbourhood_id":420555461,
            "region_id":85688629,
            "venue_id":554940267
        }
    ],
    "wof:id":554940267,
    "wof:lastmodified":1461017639,
    "wof:name":"Jamelectric LLC",
    "wof:parent_id":420555461,
    "wof:placetype":"venue",
    "wof:superseded_by":[],
    "wof:supersedes":[],
    "wof:tags":[
        "electrical",
        "contractor"
    ]
},
  "bbox": [
    -73.662495,
    41.046524,
    -73.662495,
    41.046524
],
  "geometry": {"coordinates":[-73.66249500000001,41.046524],"type":"Point"}
}