{
  "id": 555525161,
  "type": "Feature",
  "properties": {
    "edtf:cessation":"uuuu",
    "edtf:inception":"uuuu",
    "geom:area":0.0,
    "geom:bbox":"-78.87232,43.037735,-78.87232,43.037735",
    "geom:latitude":43.037735,
    "geom:longitude":-78.87232,
    "iso:country":"US",
    "sg:address":"359 Stanley St",
    "sg:city":"North Tonawanda",
    "sg:classifiers":[
        {
            "category":"Professional",
            "subcategory":"",
            "type":"Services"
        }
    ],
    "sg:owner":"simplegeo",
    "sg:phone":"+1   ",
    "sg:postcode":"14120",
    "sg:province":"NY",
    "src:geom":"simplegeo",
    "wof:belongsto":[],
    "wof:breaches":[],
    "wof:concordances":{
        "sg:id":"SG_2T2OXzbbPQY4pAOV0ZMcTg_43.037735_-78.872320@1294177022"
    },
    "wof:country":"US",
    "wof:geomhash":"845a40e27f8d93b32f62b69d6a93aea4",
    "wof:hierarchy":[],
    "wof:id":555525161,
    "wof:lastmodified":1461031960,
    "wof:name":"Homespun",
    "wof:parent_id":-1,
    "wof:placetype":"venue",
    "wof:superseded_by":[],
    "wof:supersedes":[],
    "wof:tags":[]
},
  "bbox": [
    -78.87232,
    43.037735,
    -78.87232,
    43.037735
],
  "geometry": {"coordinates":[-78.87232,43.037735],"type":"Point"}
}