{
  "id": 554935755,
  "type": "Feature",
  "properties": {
    "edtf:cessation":"uuuu",
    "edtf:inception":"uuuu",
    "geom:area":0.0,
    "geom:bbox":"-73.450586,41.151534,-73.450586,41.151534",
    "geom:latitude":41.151534,
    "geom:longitude":-73.450586,
    "iso:country":"US",
    "sg:address":"1037 Silvermine Rd",
    "sg:city":"New Canaan",
    "sg:classifiers":[
        {
            "category":"Professional",
            "subcategory":"",
            "type":"Services"
        }
    ],
    "sg:owner":"simplegeo",
    "sg:phone":"+1   ",
    "sg:postcode":"06840",
    "sg:province":"NY",
    "src:geom":"simplegeo",
    "wof:belongsto":[
        85688629,
        85633793,
        85848785,
        102084283
    ],
    "wof:breaches":[],
    "wof:concordances":{
        "sg:id":"SG_6HPt0uHcjHfHusPbuAIP7e_41.151534_-73.450586@1294177022"
    },
    "wof:country":"US",
    "wof:geomhash":"3b5161d1a8e8d17f424328530585d98e",
    "wof:hierarchy":[
        {
            "country_id":85633793,
            "county_id":102084283,
            "neighbourhood_id":85848785,
            "region_id":85688629,
            "venue_id":554935755
        }
    ],
    "wof:id":554935755,
    "wof:lastmodified":1461017115,
    "wof:name":"Silvermine Art Center",
    "wof:parent_id":85848785,
    "wof:placetype":"venue",
    "wof:superseded_by":[],
    "wof:supersedes":[],
    "wof:tags":[]
},
  "bbox": [
    -73.450586,
    41.151534,
    -73.450586,
    41.151534
],
  "geometry": {"coordinates":[-73.450586,41.151534],"type":"Point"}
}