{
  "id": 554937337,
  "type": "Feature",
  "properties": {
    "edtf:cessation":"uuuu",
    "edtf:inception":"uuuu",
    "geom:area":0.0,
    "geom:bbox":"-73.515795,41.132667,-73.515795,41.132667",
    "geom:latitude":41.132667,
    "geom:longitude":-73.515795,
    "iso:country":"US",
    "sg:address":"313 Frogtown Rd",
    "sg:city":"New Canaan",
    "sg:classifiers":[
        {
            "category":"Professional",
            "subcategory":"Management & Consulting",
            "type":"Services"
        }
    ],
    "sg:owner":"simplegeo",
    "sg:phone":"+1   ",
    "sg:postcode":"06840",
    "sg:province":"NY",
    "sg:tags":[
        "website",
        "application",
        "training",
        "internet"
    ],
    "src:geom":"simplegeo",
    "wof:belongsto":[
        85688629,
        85633793,
        85851779,
        102084283
    ],
    "wof:breaches":[],
    "wof:concordances":{
        "sg:id":"SG_6wYnzxsjTF33tXL4Bjze1F_41.132667_-73.515795@1294177022"
    },
    "wof:country":"US",
    "wof:geomhash":"3e692d318961006475721fa7651066e7",
    "wof:hierarchy":[
        {
            "country_id":85633793,
            "county_id":102084283,
            "neighbourhood_id":85851779,
            "region_id":85688629,
            "venue_id":554937337
        }
    ],
    "wof:id":554937337,
    "wof:lastmodified":1461017354,
    "wof:name":"Access Technologies Group Inc",
    "wof:parent_id":85851779,
    "wof:placetype":"venue",
    "wof:superseded_by":[],
    "wof:supersedes":[],
    "wof:tags":[
        "website",
        "application",
        "training",
        "internet"
    ]
},
  "bbox": [
    -73.515795,
    41.132667,
    -73.515795,
    41.132667
],
  "geometry": {"coordinates":[-73.515795,41.132667],"type":"Point"}
}