{
  "id": 554936739,
  "type": "Feature",
  "properties": {
    "edtf:cessation":"uuuu",
    "edtf:inception":"uuuu",
    "geom:area":0.0,
    "geom:bbox":"-74.053857,41.071963,-74.053857,41.071963",
    "geom:latitude":41.071963,
    "geom:longitude":-74.053857,
    "iso:country":"US",
    "sg:address":"146 Red Schoolhouse Rd",
    "sg:city":"Spring Valley",
    "sg:classifiers":[
        {
            "category":"Professional",
            "subcategory":"",
            "type":"Services"
        }
    ],
    "sg:owner":"simplegeo",
    "sg:phone":"+1 845 735 2600",
    "sg:postcode":"10977",
    "sg:province":"NY",
    "src:geom":"simplegeo",
    "wof:belongsto":[
        85853261,
        102191575,
        404523097,
        85633793,
        85978555,
        102082385,
        85688543
    ],
    "wof:breaches":[],
    "wof:concordances":{
        "sg:id":"SG_241oN59ybgFfa0dTr6brGl_41.071963_-74.053857@1294177022"
    },
    "wof:country":"US",
    "wof:geomhash":"990d2080ceb9727d03ccaace70178226",
    "wof:hierarchy":[
        {
            "continent_id":102191575,
            "country_id":85633793,
            "county_id":102082385,
            "localadmin_id":404523097,
            "locality_id":85978555,
            "neighbourhood_id":85853261,
            "region_id":85688543,
            "venue_id":554936739
        }
    ],
    "wof:id":554936739,
    "wof:lastmodified":1461017269,
    "wof:name":"Van Gelderen Svc Inc",
    "wof:parent_id":85853261,
    "wof:placetype":"venue",
    "wof:superseded_by":[],
    "wof:supersedes":[],
    "wof:tags":[]
},
  "bbox": [
    -74.053857,
    41.071963,
    -74.053857,
    41.071963
],
  "geometry": {"coordinates":[-74.05385699999999,41.071963],"type":"Point"}
}