{
  "id": 554939141,
  "type": "Feature",
  "properties": {
    "edtf:cessation":"uuuu",
    "edtf:inception":"uuuu",
    "geom:area":0.0,
    "geom:bbox":"-73.491611,41.14573,-73.491611,41.14573",
    "geom:latitude":41.14573,
    "geom:longitude":-73.491611,
    "iso:country":"US",
    "sg:address":"160 Main St",
    "sg:city":"New Canaan",
    "sg:classifiers":[
        {
            "category":"Personal",
            "subcategory":"Beauty Salon",
            "type":"Services"
        }
    ],
    "sg:owner":"simplegeo",
    "sg:phone":"+1 203 972 1804",
    "sg:postcode":"06840",
    "sg:province":"NY",
    "src:geom":"simplegeo",
    "wof:belongsto":[
        85688629,
        85633793,
        85851779,
        102084283
    ],
    "wof:breaches":[],
    "wof:concordances":{
        "sg:id":"SG_1yQrmLs9Xw8vXTxjreN5ER_41.145730_-73.491611@1294177022"
    },
    "wof:country":"US",
    "wof:geomhash":"49fd44d40674483fc7ea007fc348a450",
    "wof:hierarchy":[
        {
            "country_id":85633793,
            "county_id":102084283,
            "neighbourhood_id":85851779,
            "region_id":85688629,
            "venue_id":554939141
        }
    ],
    "wof:id":554939141,
    "wof:lastmodified":1461017526,
    "wof:name":"Hide Away Spa Inc",
    "wof:parent_id":85851779,
    "wof:placetype":"venue",
    "wof:superseded_by":[],
    "wof:supersedes":[],
    "wof:tags":[]
},
  "bbox": [
    -73.491611,
    41.14573,
    -73.491611,
    41.14573
],
  "geometry": {"coordinates":[-73.49161100000001,41.14573],"type":"Point"}
}