{
  "id": 554935025,
  "type": "Feature",
  "properties": {
    "edtf:cessation":"uuuu",
    "edtf:inception":"uuuu",
    "geom:area":0.0,
    "geom:bbox":"-73.512401,41.149233,-73.512401,41.149233",
    "geom:latitude":41.149233,
    "geom:longitude":-73.512401,
    "iso:country":"US",
    "sg:address":"162 Wahackme Rd",
    "sg:city":"New Canaan",
    "sg:classifiers":[
        {
            "category":"Manufacturing",
            "subcategory":"Printing",
            "type":"Manufacturing & Wholesale Goods"
        }
    ],
    "sg:owner":"simplegeo",
    "sg:phone":"+1 203 972 6305",
    "sg:postcode":"06840",
    "sg:province":"NY",
    "sg:tags":[
        "miscellaneous",
        "publishing"
    ],
    "src:geom":"simplegeo",
    "wof:belongsto":[
        85688629,
        85633793,
        85851779,
        102084283
    ],
    "wof:breaches":[],
    "wof:concordances":{
        "sg:id":"SG_5r6ImmHwi9RIeZGoQAk5W0_41.149233_-73.512401@1294177022"
    },
    "wof:country":"US",
    "wof:geomhash":"19fba519e338dadafdd36c25174e84ee",
    "wof:hierarchy":[
        {
            "country_id":85633793,
            "county_id":102084283,
            "neighbourhood_id":85851779,
            "region_id":85688629,
            "venue_id":554935025
        }
    ],
    "wof:id":554935025,
    "wof:lastmodified":1461017012,
    "wof:name":"Total-Content LLC",
    "wof:parent_id":85851779,
    "wof:placetype":"venue",
    "wof:superseded_by":[],
    "wof:supersedes":[],
    "wof:tags":[
        "miscellaneous",
        "publishing"
    ]
},
  "bbox": [
    -73.512401,
    41.149233,
    -73.512401,
    41.149233
],
  "geometry": {"coordinates":[-73.512401,41.149233],"type":"Point"}
}