{
  "id": 554934775,
  "type": "Feature",
  "properties": {
    "edtf:cessation":"uuuu",
    "edtf:inception":"uuuu",
    "geom:area":0.0,
    "geom:bbox":"-73.47112,41.137109,-73.47112,41.137109",
    "geom:latitude":41.137109,
    "geom:longitude":-73.47112,
    "iso:country":"US",
    "sg:address":"51 Birchwood Ave",
    "sg:city":"New Canaan",
    "sg:classifiers":[
        {
            "category":"Professional",
            "subcategory":"Management & Consulting",
            "type":"Services"
        }
    ],
    "sg:owner":"simplegeo",
    "sg:phone":"+1   ",
    "sg:postcode":"06840",
    "sg:province":"NY",
    "sg:tags":[
        "business"
    ],
    "src:geom":"simplegeo",
    "wof:belongsto":[
        85688629,
        85633793,
        85851779,
        102084283
    ],
    "wof:breaches":[],
    "wof:concordances":{
        "sg:id":"SG_74fsScfhUIQLn2Yw2MQOUy_41.137109_-73.471120@1294177022"
    },
    "wof:country":"US",
    "wof:geomhash":"2f31190b84285042ad153d5503cbc099",
    "wof:hierarchy":[
        {
            "country_id":85633793,
            "county_id":102084283,
            "neighbourhood_id":85851779,
            "region_id":85688629,
            "venue_id":554934775
        }
    ],
    "wof:id":554934775,
    "wof:lastmodified":1461016982,
    "wof:name":"Birchwood Consulting LLC",
    "wof:parent_id":85851779,
    "wof:placetype":"venue",
    "wof:superseded_by":[],
    "wof:supersedes":[],
    "wof:tags":[
        "business"
    ]
},
  "bbox": [
    -73.47112,
    41.137109,
    -73.47112,
    41.137109
],
  "geometry": {"coordinates":[-73.47112,41.137109],"type":"Point"}
}