{
  "id": 554940083,
  "type": "Feature",
  "properties": {
    "edtf:cessation":"uuuu",
    "edtf:inception":"uuuu",
    "geom:area":0.0,
    "geom:bbox":"-73.480052,41.1282,-73.480052,41.1282",
    "geom:latitude":41.1282,
    "geom:longitude":-73.480052,
    "iso:country":"US",
    "sg:address":"174 Butler Ln",
    "sg:city":"New Canaan",
    "sg:classifiers":[
        {
            "category":"Retail",
            "subcategory":"Portrait Studio",
            "type":"Services"
        }
    ],
    "sg:owner":"simplegeo",
    "sg:phone":"+1 203 972 3595",
    "sg:postcode":"06840",
    "sg:province":"NY",
    "sg:tags":[
        "photographer"
    ],
    "src:geom":"simplegeo",
    "wof:belongsto":[
        85688629,
        85633793,
        85851779,
        102084283
    ],
    "wof:breaches":[],
    "wof:concordances":{
        "sg:id":"SG_6fpco9b6LfIrdTOZJfnvqc_41.128200_-73.480052@1294177022"
    },
    "wof:country":"US",
    "wof:geomhash":"b183eac00c62d59fd335809a97ccc9ce",
    "wof:hierarchy":[
        {
            "country_id":85633793,
            "county_id":102084283,
            "neighbourhood_id":85851779,
            "region_id":85688629,
            "venue_id":554940083
        }
    ],
    "wof:id":554940083,
    "wof:lastmodified":1461017624,
    "wof:name":"Portraits By Christine",
    "wof:parent_id":85851779,
    "wof:placetype":"venue",
    "wof:superseded_by":[],
    "wof:supersedes":[],
    "wof:tags":[
        "photographer"
    ]
},
  "bbox": [
    -73.480052,
    41.1282,
    -73.480052,
    41.1282
],
  "geometry": {"coordinates":[-73.480052,41.1282],"type":"Point"}
}