{
  "id": 554934211,
  "type": "Feature",
  "properties": {
    "edtf:cessation":"uuuu",
    "edtf:inception":"uuuu",
    "geom:area":0.0,
    "geom:bbox":"-73.674235,41.042401,-73.674235,41.042401",
    "geom:latitude":41.042401,
    "geom:longitude":-73.674235,
    "iso:country":"US",
    "sg:address":"69 Stonehedge Dr S",
    "sg:city":"Greenwich",
    "sg:classifiers":[
        {
            "category":"Professional",
            "subcategory":"Research",
            "type":"Services"
        }
    ],
    "sg:owner":"simplegeo",
    "sg:phone":"+1   ",
    "sg:postcode":"06831",
    "sg:province":"NY",
    "sg:tags":[
        "nonphysical",
        "commercial"
    ],
    "src:geom":"simplegeo",
    "wof:belongsto":[
        420555461,
        102191575,
        404495949,
        85633793,
        85930937,
        102084283,
        85688629
    ],
    "wof:breaches":[],
    "wof:concordances":{
        "sg:id":"SG_08CNkav6fBhHj1TUTvANna_41.042401_-73.674235@1294177022"
    },
    "wof:country":"US",
    "wof:geomhash":"30ad9289f9bcf9893a720599bbe39325",
    "wof:hierarchy":[
        {
            "continent_id":102191575,
            "country_id":85633793,
            "county_id":102084283,
            "localadmin_id":404495949,
            "locality_id":85930937,
            "neighbourhood_id":420555461,
            "region_id":85688629,
            "venue_id":554934211
        }
    ],
    "wof:id":554934211,
    "wof:lastmodified":1461016913,
    "wof:name":"Stern Marketing Co",
    "wof:parent_id":420555461,
    "wof:placetype":"venue",
    "wof:superseded_by":[],
    "wof:supersedes":[],
    "wof:tags":[
        "nonphysical",
        "commercial"
    ]
},
  "bbox": [
    -73.674235,
    41.042401,
    -73.674235,
    41.042401
],
  "geometry": {"coordinates":[-73.674235,41.042401],"type":"Point"}
}