{
  "id": 571478519,
  "type": "Feature",
  "properties": {
    "edtf:cessation":"uuuu",
    "edtf:inception":"uuuu",
    "geom:area":0.0,
    "geom:bbox":"-74.025137,41.514906,-74.025137,41.514906",
    "geom:latitude":41.514906,
    "geom:longitude":-74.025137,
    "iso:country":"US",
    "sg:address":"327 Fullerton Ave",
    "sg:city":"Newburgh",
    "sg:classifiers":[
        {
            "category":"Health Services",
            "subcategory":"Doctor",
            "type":"Services"
        }
    ],
    "sg:owner":"simplegeo",
    "sg:phone":"+1 845 565 4400",
    "sg:postcode":"12550",
    "sg:province":"NY",
    "sg:tags":[
        "medical"
    ],
    "src:geom":"simplegeo",
    "wof:belongsto":[],
    "wof:breaches":[],
    "wof:concordances":{
        "sg:id":"SG_3EJhtEkxozm5Wvapubmmu5_41.514906_-74.025137@1294177022"
    },
    "wof:country":"US",
    "wof:geomhash":"3528eb98a087d75f55ba3e834c932050",
    "wof:hierarchy":[],
    "wof:id":571478519,
    "wof:lastmodified":1461036674,
    "wof:name":"Saleh Z Sarwar",
    "wof:parent_id":-1,
    "wof:placetype":"venue",
    "wof:superseded_by":[],
    "wof:supersedes":[],
    "wof:tags":[
        "medical"
    ]
},
  "bbox": [
    -74.025137,
    41.514906,
    -74.025137,
    41.514906
],
  "geometry": {"coordinates":[-74.025137,41.514906],"type":"Point"}
}