{
  "id": 572171529,
  "type": "Feature",
  "properties": {
    "edtf:cessation":"uuuu",
    "edtf:inception":"uuuu",
    "geom:area":0.0,
    "geom:bbox":"-74.733279,40.67764,-74.733279,40.67764",
    "geom:latitude":40.67764,
    "geom:longitude":-74.733279,
    "iso:country":"US",
    "sg:address":"204 Van Dyke St Ste 207",
    "sg:city":"Brooklyn",
    "sg:classifiers":[
        {
            "category":"Building & Trades",
            "subcategory":"Construction",
            "type":"Services"
        }
    ],
    "sg:owner":"simplegeo",
    "sg:phone":"+1 718 624 0160",
    "sg:postcode":"11231",
    "sg:province":"NY",
    "sg:tags":[
        "contractor"
    ],
    "src:geom":"simplegeo",
    "wof:belongsto":[],
    "wof:breaches":[],
    "wof:concordances":{
        "sg:id":"SG_4CcFAz2H5LE8reLeXKXWX6_40.677640_-74.733279@1303262348"
    },
    "wof:country":"US",
    "wof:geomhash":"f23699f81aa65897591ed6519523d6d0",
    "wof:hierarchy":[],
    "wof:id":572171529,
    "wof:lastmodified":1461051457,
    "wof:name":"O C Construction",
    "wof:parent_id":-1,
    "wof:placetype":"venue",
    "wof:superseded_by":[],
    "wof:supersedes":[],
    "wof:tags":[
        "contractor"
    ]
},
  "bbox": [
    -74.733279,
    40.67764,
    -74.733279,
    40.67764
],
  "geometry": {"coordinates":[-74.733279,40.67764],"type":"Point"}
}