{
  "id": 554937189,
  "type": "Feature",
  "properties": {
    "edtf:cessation":"uuuu",
    "edtf:inception":"uuuu",
    "geom:area":0.0,
    "geom:bbox":"-73.537509,41.161108,-73.537509,41.161108",
    "geom:latitude":41.161108,
    "geom:longitude":-73.537509,
    "iso:country":"US",
    "sg:address":"1510 Ponus Ridge",
    "sg:city":"New Canaan",
    "sg:classifiers":[
        {
            "category":"Professional",
            "subcategory":"Management & Consulting",
            "type":"Services"
        }
    ],
    "sg:owner":"simplegeo",
    "sg:phone":"+1   ",
    "sg:postcode":"06840",
    "sg:province":"NY",
    "src:geom":"simplegeo",
    "wof:belongsto":[
        85688629,
        85633793,
        85842701,
        102084283
    ],
    "wof:breaches":[],
    "wof:concordances":{
        "sg:id":"SG_4kKpXUNo0yddCxmsuJXsHe_41.161108_-73.537509@1294177022"
    },
    "wof:country":"US",
    "wof:geomhash":"9d56db6a01022b5a1cf513d53e5a30e4",
    "wof:hierarchy":[
        {
            "country_id":85633793,
            "county_id":102084283,
            "neighbourhood_id":85842701,
            "region_id":85688629,
            "venue_id":554937189
        }
    ],
    "wof:id":554937189,
    "wof:lastmodified":1461017334,
    "wof:name":"Staunton Associates Inc",
    "wof:parent_id":85842701,
    "wof:placetype":"venue",
    "wof:superseded_by":[],
    "wof:supersedes":[],
    "wof:tags":[]
},
  "bbox": [
    -73.537509,
    41.161108,
    -73.537509,
    41.161108
],
  "geometry": {"coordinates":[-73.537509,41.161108],"type":"Point"}
}