{
  "id": 554941013,
  "type": "Feature",
  "properties": {
    "edtf:cessation":"uuuu",
    "edtf:inception":"uuuu",
    "geom:area":0.0,
    "geom:bbox":"-73.480561,41.129296,-73.480561,41.129296",
    "geom:latitude":41.129296,
    "geom:longitude":-73.480561,
    "iso:country":"US",
    "sg:address":"66 Butler Ln",
    "sg:city":"New Canaan",
    "sg:classifiers":[
        {
            "category":"Professional",
            "subcategory":"Employment Agencies",
            "type":"Services"
        }
    ],
    "sg:owner":"simplegeo",
    "sg:phone":"+1   ",
    "sg:postcode":"06840",
    "sg:province":"NY",
    "src:geom":"simplegeo",
    "wof:belongsto":[
        85688629,
        85633793,
        85851779,
        102084283
    ],
    "wof:breaches":[],
    "wof:concordances":{
        "sg:id":"SG_2CtqgCBOpo82CmCPcf1iSa_41.129296_-73.480561@1294177022"
    },
    "wof:country":"US",
    "wof:geomhash":"214887b4f7dd531ad14ffa31fd91cfec",
    "wof:hierarchy":[
        {
            "country_id":85633793,
            "county_id":102084283,
            "neighbourhood_id":85851779,
            "region_id":85688629,
            "venue_id":554941013
        }
    ],
    "wof:id":554941013,
    "wof:lastmodified":1461017698,
    "wof:name":"Kellsare Group",
    "wof:parent_id":85851779,
    "wof:placetype":"venue",
    "wof:superseded_by":[],
    "wof:supersedes":[],
    "wof:tags":[]
},
  "bbox": [
    -73.480561,
    41.129296,
    -73.480561,
    41.129296
],
  "geometry": {"coordinates":[-73.48056099999999,41.129296],"type":"Point"}
}