{
  "id": 555330977,
  "type": "Feature",
  "properties": {
    "edtf:cessation":"uuuu",
    "edtf:inception":"uuuu",
    "geom:area":0.0,
    "geom:bbox":"-73.416708,40.687307,-73.416708,40.687307",
    "geom:latitude":40.687307,
    "geom:longitude":-73.416708,
    "iso:country":"US",
    "sg:address":"215 Sunrise Hwy",
    "sg:city":"Amityville",
    "sg:classifiers":[
        {
            "category":"Food & Beverages",
            "subcategory":"Groceries & Convenience Stores",
            "type":"Retail Goods"
        }
    ],
    "sg:owner":"simplegeo",
    "sg:phone":"+1   ",
    "sg:postcode":"11701",
    "sg:province":"NY",
    "src:geom":"simplegeo",
    "wof:belongsto":[],
    "wof:breaches":[],
    "wof:concordances":{
        "sg:id":"SG_1mviUPNgwoQybv7PKGDTym_40.687307_-73.416708@1294177022"
    },
    "wof:country":"US",
    "wof:geomhash":"de61b942a222a5510247c9a5530e5b0e",
    "wof:hierarchy":[],
    "wof:id":555330977,
    "wof:lastmodified":1461027339,
    "wof:name":"Sunrise Deli",
    "wof:parent_id":-1,
    "wof:placetype":"venue",
    "wof:superseded_by":[],
    "wof:supersedes":[],
    "wof:tags":[]
},
  "bbox": [
    -73.416708,
    40.687307,
    -73.416708,
    40.687307
],
  "geometry": {"coordinates":[-73.416708,40.687307],"type":"Point"}
}