{
  "id": 572171299,
  "type": "Feature",
  "properties": {
    "edtf:cessation":"uuuu",
    "edtf:inception":"uuuu",
    "geom:area":0.0,
    "geom:bbox":"-74.311474,40.620185,-74.311474,40.620185",
    "geom:latitude":40.620185,
    "geom:longitude":-74.311474,
    "iso:country":"US",
    "sg:address":"7505 13th Ave",
    "sg:city":"Brooklyn",
    "sg:classifiers":[
        {
            "category":"Shopping",
            "subcategory":"Mobile Phones",
            "type":"Retail Goods"
        }
    ],
    "sg:owner":"simplegeo",
    "sg:phone":"+1 718 621 5920",
    "sg:postcode":"11228",
    "sg:province":"NY",
    "sg:website":"www.wirelesszone.com",
    "src:geom":"simplegeo",
    "wof:belongsto":[],
    "wof:breaches":[],
    "wof:concordances":{
        "sg:id":"SG_3Fum7WrTduCQRoLfr5tfmj_40.620185_-74.311474@1303262347"
    },
    "wof:country":"US",
    "wof:geomhash":"93762713759f09c398c58cfb1e9ef7d2",
    "wof:hierarchy":[],
    "wof:id":572171299,
    "wof:lastmodified":1461051451,
    "wof:name":"Wireless Zone The",
    "wof:parent_id":-1,
    "wof:placetype":"venue",
    "wof:superseded_by":[],
    "wof:supersedes":[],
    "wof:tags":[]
},
  "bbox": [
    -74.311474,
    40.620185,
    -74.311474,
    40.620185
],
  "geometry": {"coordinates":[-74.311474,40.620185],"type":"Point"}
}