{
  "id": 554935403,
  "type": "Feature",
  "properties": {
    "edtf:cessation":"uuuu",
    "edtf:inception":"uuuu",
    "geom:area":0.0,
    "geom:bbox":"-74.069965,41.07278,-74.069965,41.07278",
    "geom:latitude":41.07278,
    "geom:longitude":-74.069965,
    "iso:country":"US",
    "sg:address":"5 Haller Cres",
    "sg:city":"Spring Valley",
    "sg:classifiers":[
        {
            "category":"Professional",
            "subcategory":"",
            "type":"Services"
        }
    ],
    "sg:owner":"simplegeo",
    "sg:phone":"+1 845 425 5906",
    "sg:postcode":"10977",
    "sg:province":"NY",
    "src:geom":"simplegeo",
    "wof:belongsto":[
        85853261,
        102191575,
        404523097,
        85633793,
        85978555,
        102082385,
        85688543
    ],
    "wof:breaches":[],
    "wof:concordances":{
        "sg:id":"SG_69H7SWtYXkN7KogOvCwC0z_41.072780_-74.069965@1294177022"
    },
    "wof:country":"US",
    "wof:geomhash":"54ff72ce22f21d65815608e87f3a58ef",
    "wof:hierarchy":[
        {
            "continent_id":102191575,
            "country_id":85633793,
            "county_id":102082385,
            "localadmin_id":404523097,
            "locality_id":85978555,
            "neighbourhood_id":85853261,
            "region_id":85688543,
            "venue_id":554935403
        }
    ],
    "wof:id":554935403,
    "wof:lastmodified":1461017065,
    "wof:name":"Geriatric Quality Svc",
    "wof:parent_id":85853261,
    "wof:placetype":"venue",
    "wof:superseded_by":[],
    "wof:supersedes":[],
    "wof:tags":[]
},
  "bbox": [
    -74.069965,
    41.07278,
    -74.069965,
    41.07278
],
  "geometry": {"coordinates":[-74.069965,41.07278],"type":"Point"}
}