{
  "id": 554936163,
  "type": "Feature",
  "properties": {
    "edtf:cessation":"uuuu",
    "edtf:inception":"uuuu",
    "geom:area":0.0,
    "geom:bbox":"-73.501384,41.126672,-73.501384,41.126672",
    "geom:latitude":41.126672,
    "geom:longitude":-73.501384,
    "iso:country":"US",
    "sg:address":"125 Weed St",
    "sg:city":"New Canaan",
    "sg:classifiers":[
        {
            "category":"Real Estate",
            "subcategory":"Architect",
            "type":"Services"
        }
    ],
    "sg:owner":"simplegeo",
    "sg:phone":"+1   ",
    "sg:postcode":"06840",
    "sg:province":"NY",
    "sg:tags":[
        "architectural"
    ],
    "src:geom":"simplegeo",
    "wof:belongsto":[
        85688629,
        85633793,
        85851779,
        102084283
    ],
    "wof:breaches":[],
    "wof:concordances":{
        "sg:id":"SG_7NwpfHX7py7FvFJ12pONWC_41.126672_-73.501384@1294177022"
    },
    "wof:country":"US",
    "wof:geomhash":"ad80ecd7130aa980c11bdabcebe1ce49",
    "wof:hierarchy":[
        {
            "country_id":85633793,
            "county_id":102084283,
            "neighbourhood_id":85851779,
            "region_id":85688629,
            "venue_id":554936163
        }
    ],
    "wof:id":554936163,
    "wof:lastmodified":1461017174,
    "wof:name":"William H Garbus",
    "wof:parent_id":85851779,
    "wof:placetype":"venue",
    "wof:superseded_by":[],
    "wof:supersedes":[],
    "wof:tags":[
        "architectural"
    ]
},
  "bbox": [
    -73.501384,
    41.126672,
    -73.501384,
    41.126672
],
  "geometry": {"coordinates":[-73.501384,41.126672],"type":"Point"}
}