{
  "id": 554940687,
  "type": "Feature",
  "properties": {
    "edtf:cessation":"uuuu",
    "edtf:inception":"uuuu",
    "geom:area":0.0,
    "geom:bbox":"-73.488479,41.149649,-73.488479,41.149649",
    "geom:latitude":41.149649,
    "geom:longitude":-73.488479,
    "iso:country":"US",
    "sg:address":"16 Cross St",
    "sg:city":"New Canaan",
    "sg:classifiers":[
        {
            "category":"Retail",
            "subcategory":"Animal Services",
            "type":"Services"
        }
    ],
    "sg:owner":"simplegeo",
    "sg:phone":"+1 203 966 4080",
    "sg:postcode":"06840",
    "sg:province":"NY",
    "sg:tags":[
        "pet",
        "school",
        "washing",
        "grooming",
        "vocational"
    ],
    "src:geom":"simplegeo",
    "wof:belongsto":[
        85688629,
        85633793,
        85851779,
        102084283
    ],
    "wof:breaches":[],
    "wof:concordances":{
        "sg:id":"SG_2zlsaOpyF0VqDdQBSEcVOK_41.149649_-73.488479@1294177022"
    },
    "wof:country":"US",
    "wof:geomhash":"c1bd6ccce7a3e396d7f359146aea6c2b",
    "wof:hierarchy":[
        {
            "country_id":85633793,
            "county_id":102084283,
            "neighbourhood_id":85851779,
            "region_id":85688629,
            "venue_id":554940687
        }
    ],
    "wof:id":554940687,
    "wof:lastmodified":1461017671,
    "wof:name":"Edwardian Dog Grooming Salon",
    "wof:parent_id":85851779,
    "wof:placetype":"venue",
    "wof:superseded_by":[],
    "wof:supersedes":[],
    "wof:tags":[
        "pet",
        "school",
        "washing",
        "grooming",
        "vocational"
    ]
},
  "bbox": [
    -73.488479,
    41.149649,
    -73.488479,
    41.149649
],
  "geometry": {"coordinates":[-73.488479,41.149649],"type":"Point"}
}