{
  "id": 554940021,
  "type": "Feature",
  "properties": {
    "edtf:cessation":"uuuu",
    "edtf:inception":"uuuu",
    "geom:area":0.0,
    "geom:bbox":"-73.452865,41.147852,-73.452865,41.147852",
    "geom:latitude":41.147852,
    "geom:longitude":-73.452865,
    "iso:country":"US",
    "sg:address":"135 Comstock Hill Rd",
    "sg:city":"New Canaan",
    "sg:classifiers":[
        {
            "category":"Professional",
            "subcategory":"Art Services",
            "type":"Services"
        }
    ],
    "sg:owner":"simplegeo",
    "sg:phone":"+1 203 966 9682",
    "sg:postcode":"06840",
    "sg:province":"NY",
    "sg:tags":[
        "graphic",
        "designer"
    ],
    "src:geom":"simplegeo",
    "wof:belongsto":[
        85688629,
        85633793,
        85848785,
        102084283
    ],
    "wof:breaches":[],
    "wof:concordances":{
        "sg:id":"SG_4kPoMj73VZb3YWSe7GwdRZ_41.147852_-73.452865@1294177022"
    },
    "wof:country":"US",
    "wof:geomhash":"01126339e5a89dde07b6b130d612e64a",
    "wof:hierarchy":[
        {
            "country_id":85633793,
            "county_id":102084283,
            "neighbourhood_id":85848785,
            "region_id":85688629,
            "venue_id":554940021
        }
    ],
    "wof:id":554940021,
    "wof:lastmodified":1461017616,
    "wof:name":"Laura Case Designs",
    "wof:parent_id":85848785,
    "wof:placetype":"venue",
    "wof:superseded_by":[],
    "wof:supersedes":[],
    "wof:tags":[
        "graphic",
        "designer"
    ]
},
  "bbox": [
    -73.452865,
    41.147852,
    -73.452865,
    41.147852
],
  "geometry": {"coordinates":[-73.452865,41.147852],"type":"Point"}
}