{
  "id": 572171629,
  "type": "Feature",
  "properties": {
    "edtf:cessation":"uuuu",
    "edtf:inception":"uuuu",
    "geom:area":0.0,
    "geom:bbox":"-74.083452,40.651324,-74.083452,40.651324",
    "geom:latitude":40.651324,
    "geom:longitude":-74.083452,
    "iso:country":"US",
    "sg:address":"3910 5th Ave",
    "sg:city":"Brooklyn",
    "sg:classifiers":[
        {
            "category":"Health Services",
            "subcategory":"Dentist",
            "type":"Services"
        }
    ],
    "sg:owner":"simplegeo",
    "sg:phone":"+1 718 851 3691",
    "sg:postcode":"11232",
    "sg:province":"NY",
    "src:geom":"simplegeo",
    "wof:belongsto":[
        85865889,
        102191575,
        404478127,
        85633793,
        85975307,
        102080719,
        85688607
    ],
    "wof:breaches":[],
    "wof:concordances":{
        "sg:id":"SG_07CMMy84urJIKjp76Z7Cr8_40.651324_-74.083452@1303262348"
    },
    "wof:country":"US",
    "wof:geomhash":"ca46aee651bbb38babefad2de40fdfb2",
    "wof:hierarchy":[
        {
            "continent_id":102191575,
            "country_id":85633793,
            "county_id":102080719,
            "localadmin_id":404478127,
            "locality_id":85975307,
            "neighbourhood_id":85865889,
            "region_id":85688607,
            "venue_id":572171629
        }
    ],
    "wof:id":572171629,
    "wof:lastmodified":1461051459,
    "wof:name":"DENTAL CENTER",
    "wof:parent_id":85865889,
    "wof:placetype":"venue",
    "wof:superseded_by":[],
    "wof:supersedes":[],
    "wof:tags":[]
},
  "bbox": [
    -74.083452,
    40.651324,
    -74.083452,
    40.651324
],
  "geometry": {"coordinates":[-74.08345199999999,40.651324],"type":"Point"}
}