{
  "id": 554934639,
  "type": "Feature",
  "properties": {
    "edtf:cessation":"uuuu",
    "edtf:inception":"uuuu",
    "geom:area":0.0,
    "geom:bbox":"-73.655846,41.01095,-73.655846,41.01095",
    "geom:latitude":41.01095,
    "geom:longitude":-73.655846,
    "iso:country":"US",
    "sg:address":"509 N Main St",
    "sg:city":"Port Chester",
    "sg:classifiers":[
        {
            "category":"Shopping",
            "subcategory":"Crafts & Fabrics",
            "type":"Retail Goods"
        }
    ],
    "sg:owner":"simplegeo",
    "sg:phone":"+1   ",
    "sg:postcode":"10573",
    "sg:province":"NY",
    "sg:tags":[
        "sewing"
    ],
    "src:geom":"simplegeo",
    "wof:belongsto":[
        85885307,
        102191575,
        404495949,
        85633793,
        85930941,
        102084283,
        85688629,
        85808713,
        404523389,
        85978705,
        102082373,
        85688543
    ],
    "wof:breaches":[],
    "wof:concordances":{
        "sg:id":"SG_1noZTlUmlpvM2joaiYZOM8_41.010950_-73.655846@1294177022"
    },
    "wof:country":"US",
    "wof:geomhash":"ef6e7f2e9e5f60d674e80e4b6497c849",
    "wof:hierarchy":[
        {
            "continent_id":102191575,
            "country_id":85633793,
            "county_id":102084283,
            "localadmin_id":404495949,
            "locality_id":85930941,
            "neighbourhood_id":85885307,
            "region_id":85688629,
            "venue_id":554934639
        },
        {
            "continent_id":102191575,
            "country_id":85633793,
            "county_id":102082373,
            "localadmin_id":404523389,
            "locality_id":85978705,
            "neighbourhood_id":85808713,
            "region_id":85688543,
            "venue_id":554934639
        }
    ],
    "wof:id":554934639,
    "wof:lastmodified":1461016966,
    "wof:name":"Home Works",
    "wof:parent_id":-1,
    "wof:placetype":"venue",
    "wof:superseded_by":[],
    "wof:supersedes":[],
    "wof:tags":[
        "sewing"
    ]
},
  "bbox": [
    -73.655846,
    41.01095,
    -73.655846,
    41.01095
],
  "geometry": {"coordinates":[-73.655846,41.01095],"type":"Point"}
}