{
  "id": 554937061,
  "type": "Feature",
  "properties": {
    "edtf:cessation":"uuuu",
    "edtf:inception":"uuuu",
    "geom:area":0.0,
    "geom:bbox":"-73.478739,41.136557,-73.478739,41.136557",
    "geom:latitude":41.136557,
    "geom:longitude":-73.478739,
    "iso:country":"US",
    "sg:address":"77 Old Norwalk Rd",
    "sg:city":"New Canaan",
    "sg:classifiers":[
        {
            "category":"Organizations",
            "subcategory":"Non-profit Organization",
            "type":"Services"
        },
        {
            "category":"Social Services",
            "subcategory":"Child Care",
            "type":"Services"
        }
    ],
    "sg:owner":"simplegeo",
    "sg:phone":"+1 203 966 3010",
    "sg:postcode":"06840",
    "sg:province":"NY",
    "sg:tags":[
        "day"
    ],
    "sg:website":"www.nccns.org",
    "src:geom":"simplegeo",
    "wof:belongsto":[
        85688629,
        85633793,
        85851779,
        102084283
    ],
    "wof:breaches":[],
    "wof:concordances":{
        "sg:id":"SG_3SS3bKkrtbjWdKNJn4SsMP_41.136557_-73.478739@1294177022"
    },
    "wof:country":"US",
    "wof:geomhash":"fe88f9c884266374e46e2bf14b531dd1",
    "wof:hierarchy":[
        {
            "country_id":85633793,
            "county_id":102084283,
            "neighbourhood_id":85851779,
            "region_id":85688629,
            "venue_id":554937061
        }
    ],
    "wof:id":554937061,
    "wof:lastmodified":1461017311,
    "wof:name":"New Canaan Community Nurs Schl",
    "wof:parent_id":85851779,
    "wof:placetype":"venue",
    "wof:superseded_by":[],
    "wof:supersedes":[],
    "wof:tags":[
        "day"
    ]
},
  "bbox": [
    -73.478739,
    41.136557,
    -73.478739,
    41.136557
],
  "geometry": {"coordinates":[-73.478739,41.136557],"type":"Point"}
}