{
  "id": 554942063,
  "type": "Feature",
  "properties": {
    "edtf:cessation":"uuuu",
    "edtf:inception":"uuuu",
    "geom:area":0.0,
    "geom:bbox":"-73.610775,41.110559,-73.610775,41.110559",
    "geom:latitude":41.110559,
    "geom:longitude":-73.610775,
    "iso:country":"US",
    "sg:address":"10 Meeting House Rd",
    "sg:city":"Greenwich",
    "sg:classifiers":[
        {
            "category":"Professional",
            "subcategory":"Lawyer & Legal Services",
            "type":"Services"
        }
    ],
    "sg:owner":"simplegeo",
    "sg:phone":"+1 203 629 8326",
    "sg:postcode":"06831",
    "sg:province":"NY",
    "sg:tags":[
        "attorney"
    ],
    "src:geom":"simplegeo",
    "wof:belongsto":[
        85688629,
        85633793,
        85844811,
        102084283
    ],
    "wof:breaches":[],
    "wof:concordances":{
        "sg:id":"SG_2jYLMBGVOUEvvqUnzwbudk_41.110559_-73.610775@1294177022"
    },
    "wof:country":"US",
    "wof:geomhash":"a73e4ebbf07bf86d1305713a83d6cebc",
    "wof:hierarchy":[
        {
            "country_id":85633793,
            "county_id":102084283,
            "neighbourhood_id":85844811,
            "region_id":85688629,
            "venue_id":554942063
        }
    ],
    "wof:id":554942063,
    "wof:lastmodified":1461017839,
    "wof:name":"N S Molberger Law Firm",
    "wof:parent_id":85844811,
    "wof:placetype":"venue",
    "wof:superseded_by":[],
    "wof:supersedes":[],
    "wof:tags":[
        "attorney"
    ]
},
  "bbox": [
    -73.610775,
    41.110559,
    -73.610775,
    41.110559
],
  "geometry": {"coordinates":[-73.610775,41.110559],"type":"Point"}
}