{
  "id": 554937539,
  "type": "Feature",
  "properties": {
    "edtf:cessation":"uuuu",
    "edtf:inception":"uuuu",
    "geom:area":0.0,
    "geom:bbox":"-73.495857,41.145664,-73.495857,41.145664",
    "geom:latitude":41.145664,
    "geom:longitude":-73.495857,
    "iso:country":"US",
    "sg:address":"77 Pine St",
    "sg:city":"New Canaan",
    "sg:classifiers":[
        {
            "category":"Manufacturing",
            "subcategory":"Food",
            "type":"Manufacturing & Wholesale Goods"
        }
    ],
    "sg:owner":"simplegeo",
    "sg:phone":"+1 203 966 2704",
    "sg:postcode":"06840",
    "sg:province":"NY",
    "sg:tags":[
        "coffee",
        "mills"
    ],
    "src:geom":"simplegeo",
    "wof:belongsto":[
        85688629,
        85633793,
        85851779,
        102084283
    ],
    "wof:breaches":[],
    "wof:concordances":{
        "sg:id":"SG_3CJZSR7FE4dnamQmt1ufLD_41.145664_-73.495857@1294177022"
    },
    "wof:country":"US",
    "wof:geomhash":"f7ca8413f95b0cfc6d7f4bcb89fa8882",
    "wof:hierarchy":[
        {
            "country_id":85633793,
            "county_id":102084283,
            "neighbourhood_id":85851779,
            "region_id":85688629,
            "venue_id":554937539
        }
    ],
    "wof:id":554937539,
    "wof:lastmodified":1461017385,
    "wof:name":"Zumbach's Gourmet Coffee",
    "wof:parent_id":85851779,
    "wof:placetype":"venue",
    "wof:superseded_by":[],
    "wof:supersedes":[],
    "wof:tags":[
        "coffee",
        "mills"
    ]
},
  "bbox": [
    -73.495857,
    41.145664,
    -73.495857,
    41.145664
],
  "geometry": {"coordinates":[-73.495857,41.145664],"type":"Point"}
}