{
  "id": 572176387,
  "type": "Feature",
  "properties": {
    "edtf:cessation":"uuuu",
    "edtf:inception":"uuuu",
    "geom:area":0.0,
    "geom:bbox":"-73.463168,43.883862,-73.463168,43.883862",
    "geom:latitude":43.883862,
    "geom:longitude":-73.463168,
    "iso:country":"US",
    "sg:address":"136 Warner Hill Rd",
    "sg:city":"Ticonderoga",
    "sg:classifiers":[
        {
            "category":"Building & Trades",
            "subcategory":"Construction",
            "type":"Services"
        }
    ],
    "sg:owner":"simplegeo",
    "sg:phone":"+1 518 585 9822",
    "sg:postcode":"12883",
    "sg:province":"NY",
    "sg:tags":[
        "painting",
        "contractor"
    ],
    "src:geom":"simplegeo",
    "wof:belongsto":[
        85688763,
        85633793,
        85868815,
        102080765
    ],
    "wof:breaches":[],
    "wof:concordances":{
        "sg:id":"SG_42iiR2wVQKuzmW84sgR9wZ_43.883862_-73.463168@1303262390"
    },
    "wof:country":"US",
    "wof:geomhash":"f6da8c294233185acc33f7581cee57bf",
    "wof:hierarchy":[
        {
            "country_id":85633793,
            "county_id":102080765,
            "neighbourhood_id":85868815,
            "region_id":85688763,
            "venue_id":572176387
        }
    ],
    "wof:id":572176387,
    "wof:lastmodified":1461051615,
    "wof:name":"Swift Maintenance",
    "wof:parent_id":85868815,
    "wof:placetype":"venue",
    "wof:superseded_by":[],
    "wof:supersedes":[],
    "wof:tags":[
        "painting",
        "contractor"
    ]
},
  "bbox": [
    -73.463168,
    43.883862,
    -73.463168,
    43.883862
],
  "geometry": {"coordinates":[-73.463168,43.883862],"type":"Point"}
}