{
  "id": 554935749,
  "type": "Feature",
  "properties": {
    "edtf:cessation":"uuuu",
    "edtf:inception":"uuuu",
    "geom:area":0.0,
    "geom:bbox":"-73.229844,42.532246,-73.229844,42.532246",
    "geom:latitude":42.532246,
    "geom:longitude":-73.229844,
    "iso:country":"US",
    "sg:address":"495 N Main St",
    "sg:city":"Lanesboro",
    "sg:classifiers":[
        {
            "category":"Shopping",
            "subcategory":"Clothing, Apparel, & Fashions",
            "type":"Retail Goods"
        }
    ],
    "sg:owner":"simplegeo",
    "sg:phone":"+1 413 499 0277",
    "sg:postcode":"01237",
    "sg:province":"NY",
    "sg:tags":[
        "riding",
        "equipment"
    ],
    "src:geom":"simplegeo",
    "wof:belongsto":[
        85688645,
        85633793,
        85829509,
        102084369
    ],
    "wof:breaches":[],
    "wof:concordances":{
        "sg:id":"SG_2IdsATYbQXy3MbAS3d3yfw_42.532246_-73.229844@1294177022"
    },
    "wof:country":"US",
    "wof:geomhash":"4dda7846112d6bd85ff8df78532a4497",
    "wof:hierarchy":[
        {
            "country_id":85633793,
            "county_id":102084369,
            "neighbourhood_id":85829509,
            "region_id":85688645,
            "venue_id":554935749
        }
    ],
    "wof:id":554935749,
    "wof:lastmodified":1461017113,
    "wof:name":"Country Tack & Supply",
    "wof:parent_id":85829509,
    "wof:placetype":"venue",
    "wof:superseded_by":[],
    "wof:supersedes":[],
    "wof:tags":[
        "riding",
        "equipment"
    ]
},
  "bbox": [
    -73.229844,
    42.532246,
    -73.229844,
    42.532246
],
  "geometry": {"coordinates":[-73.229844,42.532246],"type":"Point"}
}