{
  "id": 554935873,
  "type": "Feature",
  "properties": {
    "edtf:cessation":"uuuu",
    "edtf:inception":"uuuu",
    "geom:area":0.0,
    "geom:bbox":"-73.492503,41.146937,-73.492503,41.146937",
    "geom:latitude":41.146937,
    "geom:longitude":-73.492503,
    "iso:country":"US",
    "sg:address":"44 Elm St",
    "sg:city":"New Canaan",
    "sg:classifiers":[
        {
            "category":"Home & Garden",
            "subcategory":"Home Furnishings",
            "type":"Retail Goods"
        },
        {
            "category":"Wholesale",
            "subcategory":"Home Furnishings",
            "type":"Manufacturing & Wholesale Goods"
        }
    ],
    "sg:owner":"simplegeo",
    "sg:phone":"+1 203 966 1314",
    "sg:postcode":"06840",
    "sg:province":"NY",
    "sg:tags":[
        "shades",
        "lamp",
        "lighting",
        "fixture"
    ],
    "sg:website":"www.naomidigavriel.com",
    "src:geom":"simplegeo",
    "wof:belongsto":[
        85688629,
        85633793,
        85851779,
        102084283
    ],
    "wof:breaches":[],
    "wof:concordances":{
        "sg:id":"SG_0peEvHJwTQPVlrDfZbkfy0_41.146937_-73.492503@1294177022"
    },
    "wof:country":"US",
    "wof:geomhash":"b8923dcdbe4d5b297561439b85541d1d",
    "wof:hierarchy":[
        {
            "country_id":85633793,
            "county_id":102084283,
            "neighbourhood_id":85851779,
            "region_id":85688629,
            "venue_id":554935873
        }
    ],
    "wof:id":554935873,
    "wof:lastmodified":1461017131,
    "wof:name":"Lamps & Shades Unlimited Inc",
    "wof:parent_id":85851779,
    "wof:placetype":"venue",
    "wof:superseded_by":[],
    "wof:supersedes":[],
    "wof:tags":[
        "shades",
        "lamp",
        "lighting",
        "fixture"
    ]
},
  "bbox": [
    -73.492503,
    41.146937,
    -73.492503,
    41.146937
],
  "geometry": {"coordinates":[-73.492503,41.146937],"type":"Point"}
}