{
  "id": 554941115,
  "type": "Feature",
  "properties": {
    "edtf:cessation":"uuuu",
    "edtf:inception":"uuuu",
    "geom:area":0.0,
    "geom:bbox":"-73.495918,41.145622,-73.495918,41.145622",
    "geom:latitude":41.145622,
    "geom:longitude":-73.495918,
    "iso:country":"US",
    "sg:address":"75 Pine St",
    "sg:city":"New Canaan",
    "sg:classifiers":[
        {
            "category":"Personal",
            "subcategory":"Beauty Salon",
            "type":"Services"
        }
    ],
    "sg:owner":"simplegeo",
    "sg:phone":"+1 203 966 9555",
    "sg:postcode":"06840",
    "sg:province":"NY",
    "sg:tags":[
        "shop"
    ],
    "src:geom":"simplegeo",
    "wof:belongsto":[
        85688629,
        85633793,
        85851779,
        102084283
    ],
    "wof:breaches":[],
    "wof:concordances":{
        "sg:id":"SG_59ZBuVvq3h515Plp7HIufT_41.145622_-73.495918@1294177022"
    },
    "wof:country":"US",
    "wof:geomhash":"4a302f8ad709c320f1896cce3217c87a",
    "wof:hierarchy":[
        {
            "country_id":85633793,
            "county_id":102084283,
            "neighbourhood_id":85851779,
            "region_id":85688629,
            "venue_id":554941115
        }
    ],
    "wof:id":554941115,
    "wof:lastmodified":1461017712,
    "wof:name":"Caprice Fashion Coiffures",
    "wof:parent_id":85851779,
    "wof:placetype":"venue",
    "wof:superseded_by":[],
    "wof:supersedes":[],
    "wof:tags":[
        "shop"
    ]
},
  "bbox": [
    -73.495918,
    41.145622,
    -73.495918,
    41.145622
],
  "geometry": {"coordinates":[-73.495918,41.145622],"type":"Point"}
}