{
  "id": 554937247,
  "type": "Feature",
  "properties": {
    "edtf:cessation":"uuuu",
    "edtf:inception":"uuuu",
    "geom:area":0.0,
    "geom:bbox":"-73.500828,41.184116,-73.500828,41.184116",
    "geom:latitude":41.184116,
    "geom:longitude":-73.500828,
    "iso:country":"US",
    "sg:address":"49 N Wilton Rd",
    "sg:city":"New Canaan",
    "sg:classifiers":[
        {
            "category":"Home & Garden",
            "subcategory":"Carpets & Floor Coverings",
            "type":"Retail Goods"
        }
    ],
    "sg:owner":"simplegeo",
    "sg:phone":"+1 203 972 7987",
    "sg:postcode":"06840",
    "sg:province":"NY",
    "src:geom":"simplegeo",
    "wof:belongsto":[],
    "wof:breaches":[],
    "wof:concordances":{
        "sg:id":"SG_3grceaA3ezL2X54xcELQWF_41.184116_-73.500828@1294177022"
    },
    "wof:country":"US",
    "wof:geomhash":"99797ba663291a812a292f712db72e88",
    "wof:hierarchy":[],
    "wof:id":554937247,
    "wof:lastmodified":1461017340,
    "wof:name":"Top Floor Creations",
    "wof:parent_id":-1,
    "wof:placetype":"venue",
    "wof:superseded_by":[],
    "wof:supersedes":[],
    "wof:tags":[]
},
  "bbox": [
    -73.500828,
    41.184116,
    -73.500828,
    41.184116
],
  "geometry": {"coordinates":[-73.500828,41.184116],"type":"Point"}
}