{
  "id": 554941195,
  "type": "Feature",
  "properties": {
    "edtf:cessation":"uuuu",
    "edtf:inception":"uuuu",
    "geom:area":0.0,
    "geom:bbox":"-79.742027,42.27289,-79.742027,42.27289",
    "geom:latitude":42.27289,
    "geom:longitude":-79.742027,
    "iso:country":"US",
    "sg:address":"10475 W Lake Rd",
    "sg:city":"Ripley",
    "sg:classifiers":[
        {
            "category":"Restaurant",
            "subcategory":"",
            "type":"Food & Drink"
        }
    ],
    "sg:owner":"simplegeo",
    "sg:phone":"+1   ",
    "sg:postcode":"14775",
    "sg:province":"NY",
    "sg:tags":[
        "eating"
    ],
    "src:geom":"simplegeo",
    "wof:belongsto":[
        85688481,
        85633793,
        85850957,
        102080955
    ],
    "wof:breaches":[],
    "wof:concordances":{
        "sg:id":"SG_7XKZCggEVsuseX0V9tXbNv_42.272890_-79.742027@1294177022"
    },
    "wof:country":"US",
    "wof:geomhash":"d822d2806b4d82e321d97e228568fb7d",
    "wof:hierarchy":[
        {
            "country_id":85633793,
            "county_id":102080955,
            "neighbourhood_id":85850957,
            "region_id":85688481,
            "venue_id":554941195
        }
    ],
    "wof:id":554941195,
    "wof:lastmodified":1461017718,
    "wof:name":"Hotdog Hut and Put",
    "wof:parent_id":85850957,
    "wof:placetype":"venue",
    "wof:superseded_by":[],
    "wof:supersedes":[],
    "wof:tags":[
        "eating"
    ]
},
  "bbox": [
    -79.742027,
    42.27289,
    -79.742027,
    42.27289
],
  "geometry": {"coordinates":[-79.74202699999999,42.27289],"type":"Point"}
}