{
  "id": 555052895,
  "type": "Feature",
  "properties": {
    "edtf:cessation":"uuuu",
    "edtf:inception":"uuuu",
    "geom:area":0.0,
    "geom:bbox":"-75.318036,43.084998,-75.318036,43.084998",
    "geom:latitude":43.084998,
    "geom:longitude":-75.318036,
    "iso:country":"US",
    "sg:address":"4529 Commercial Dr",
    "sg:city":"New Hartford",
    "sg:classifiers":[
        {
            "category":"Autos & Motor Vehicles",
            "subcategory":"Auto Supplies",
            "type":"Retail Goods"
        }
    ],
    "sg:owner":"simplegeo",
    "sg:phone":"+1   ",
    "sg:postcode":"13413",
    "sg:province":"NY",
    "src:geom":"simplegeo",
    "wof:belongsto":[],
    "wof:breaches":[],
    "wof:concordances":{
        "sg:id":"SG_4KCb7G4Kq9IVPSK85BboAM_43.084998_-75.318036@1294177022"
    },
    "wof:country":"US",
    "wof:geomhash":"53afa30fda4b42167d0ef3efa7921a40",
    "wof:hierarchy":[],
    "wof:id":555052895,
    "wof:lastmodified":1461020721,
    "wof:name":"Advance Auto Parts",
    "wof:parent_id":420529261,
    "wof:placetype":"venue",
    "wof:superseded_by":[],
    "wof:supersedes":[],
    "wof:tags":[]
},
  "bbox": [
    -75.318036,
    43.084998,
    -75.318036,
    43.084998
],
  "geometry": {"coordinates":[-75.31803600000001,43.084998],"type":"Point"}
}