{
  "id": 554936119,
  "type": "Feature",
  "properties": {
    "edtf:cessation":"uuuu",
    "edtf:inception":"uuuu",
    "geom:area":0.0,
    "geom:bbox":"-73.470918,41.122534,-73.470918,41.122534",
    "geom:latitude":41.122534,
    "geom:longitude":-73.470918,
    "iso:country":"US",
    "sg:address":"27 White Oak Shade Ln",
    "sg:city":"New Canaan",
    "sg:classifiers":[
        {
            "category":"Professional",
            "subcategory":"Business Services",
            "type":"Services"
        }
    ],
    "sg:owner":"simplegeo",
    "sg:phone":"+1 203 972 0893",
    "sg:postcode":"06840",
    "sg:province":"NY",
    "sg:tags":[
        "packaging"
    ],
    "src:geom":"simplegeo",
    "wof:belongsto":[
        85688629,
        85633793,
        85851779,
        102084283
    ],
    "wof:breaches":[],
    "wof:concordances":{
        "sg:id":"SG_1vPWzpEM8bXhcPVN5NIiiP_41.122534_-73.470918@1294177022"
    },
    "wof:country":"US",
    "wof:geomhash":"0673f1594e6d3ab8303f05b657a7c212",
    "wof:hierarchy":[
        {
            "country_id":85633793,
            "county_id":102084283,
            "neighbourhood_id":85851779,
            "region_id":85688629,
            "venue_id":554936119
        }
    ],
    "wof:id":554936119,
    "wof:lastmodified":1461017168,
    "wof:name":"Packaging Specialists Inc",
    "wof:parent_id":85851779,
    "wof:placetype":"venue",
    "wof:superseded_by":[],
    "wof:supersedes":[],
    "wof:tags":[
        "packaging"
    ]
},
  "bbox": [
    -73.470918,
    41.122534,
    -73.470918,
    41.122534
],
  "geometry": {"coordinates":[-73.470918,41.122534],"type":"Point"}
}