{
  "id": 554937557,
  "type": "Feature",
  "properties": {
    "edtf:cessation":"uuuu",
    "edtf:inception":"uuuu",
    "geom:area":0.0,
    "geom:bbox":"-73.662966,41.037629,-73.662966,41.037629",
    "geom:latitude":41.037629,
    "geom:longitude":-73.662966,
    "iso:country":"US",
    "sg:address":"235 Glenville Rd",
    "sg:city":"Greenwich",
    "sg:classifiers":[
        {
            "category":"Organizations",
            "subcategory":"Non-profit Organization",
            "type":"Services"
        }
    ],
    "sg:owner":"simplegeo",
    "sg:phone":"+1 203 531 6010",
    "sg:postcode":"06831",
    "sg:province":"NY",
    "src:geom":"simplegeo",
    "wof:belongsto":[
        420555529,
        102191575,
        404495949,
        85633793,
        85930941,
        102084283,
        85688629
    ],
    "wof:breaches":[],
    "wof:concordances":{
        "sg:id":"SG_72CEDnBsDfwF5GzZwBOGFB_41.037629_-73.662966@1294177022"
    },
    "wof:country":"US",
    "wof:geomhash":"253625357d147402c520640951f1635e",
    "wof:hierarchy":[
        {
            "continent_id":102191575,
            "country_id":85633793,
            "county_id":102084283,
            "localadmin_id":404495949,
            "locality_id":85930941,
            "neighbourhood_id":420555529,
            "region_id":85688629,
            "venue_id":554937557
        }
    ],
    "wof:id":554937557,
    "wof:lastmodified":1461017388,
    "wof:name":"Boyd Center For Integrative",
    "wof:parent_id":420555529,
    "wof:placetype":"venue",
    "wof:superseded_by":[],
    "wof:supersedes":[],
    "wof:tags":[]
},
  "bbox": [
    -73.662966,
    41.037629,
    -73.662966,
    41.037629
],
  "geometry": {"coordinates":[-73.662966,41.037629],"type":"Point"}
}