{
  "id": 554934103,
  "type": "Feature",
  "properties": {
    "edtf:cessation":"uuuu",
    "edtf:inception":"uuuu",
    "geom:area":0.0,
    "geom:bbox":"-73.491522,41.149149,-73.491522,41.149149",
    "geom:latitude":41.149149,
    "geom:longitude":-73.491522,
    "iso:country":"US",
    "sg:address":"49 Locust Ave",
    "sg:city":"New Canaan",
    "sg:classifiers":[
        {
            "category":"Education",
            "subcategory":"Special Training",
            "type":"Public Place"
        }
    ],
    "sg:owner":"simplegeo",
    "sg:phone":"+1 203 966 0282",
    "sg:postcode":"06840",
    "sg:province":"NY",
    "sg:tags":[
        "instruction",
        "speaking"
    ],
    "sg:website":"www.communicatebetter.com",
    "src:geom":"simplegeo",
    "wof:belongsto":[
        85688629,
        85633793,
        85851779,
        102084283
    ],
    "wof:breaches":[],
    "wof:concordances":{
        "sg:id":"SG_4p9bOQj5iMVT3EdfJbRGg3_41.149149_-73.491522@1294177022"
    },
    "wof:country":"US",
    "wof:geomhash":"38ee8ca9e26534b063cde744972a63ae",
    "wof:hierarchy":[
        {
            "country_id":85633793,
            "county_id":102084283,
            "neighbourhood_id":85851779,
            "region_id":85688629,
            "venue_id":554934103
        }
    ],
    "wof:id":554934103,
    "wof:lastmodified":1461016899,
    "wof:name":"Focus Communications Intl",
    "wof:parent_id":85851779,
    "wof:placetype":"venue",
    "wof:superseded_by":[],
    "wof:supersedes":[],
    "wof:tags":[
        "instruction",
        "speaking"
    ]
},
  "bbox": [
    -73.491522,
    41.149149,
    -73.491522,
    41.149149
],
  "geometry": {"coordinates":[-73.491522,41.149149],"type":"Point"}
}