{
  "id": 554935701,
  "type": "Feature",
  "properties": {
    "edtf:cessation":"uuuu",
    "edtf:inception":"uuuu",
    "geom:area":0.0,
    "geom:bbox":"-73.485699,41.144724,-73.485699,41.144724",
    "geom:latitude":41.144724,
    "geom:longitude":-73.485699,
    "iso:country":"US",
    "sg:address":"54 Lakeview Ave",
    "sg:city":"New Canaan",
    "sg:classifiers":[
        {
            "category":"Professional",
            "subcategory":"Business Services",
            "type":"Services"
        }
    ],
    "sg:owner":"simplegeo",
    "sg:phone":"+1   ",
    "sg:postcode":"06840",
    "sg:province":"NY",
    "sg:tags":[
        "used",
        "merchandise"
    ],
    "src:geom":"simplegeo",
    "wof:belongsto":[
        85688629,
        85633793,
        85851779,
        102084283
    ],
    "wof:breaches":[],
    "wof:concordances":{
        "sg:id":"SG_1zyLYcQsn1UtXFbSCcyYgM_41.144724_-73.485699@1294177022"
    },
    "wof:country":"US",
    "wof:geomhash":"f6292896c80cff193d687d435d8f2cae",
    "wof:hierarchy":[
        {
            "country_id":85633793,
            "county_id":102084283,
            "neighbourhood_id":85851779,
            "region_id":85688629,
            "venue_id":554935701
        }
    ],
    "wof:id":554935701,
    "wof:lastmodified":1461017109,
    "wof:name":"Durfee & Reid Interiors",
    "wof:parent_id":85851779,
    "wof:placetype":"venue",
    "wof:superseded_by":[],
    "wof:supersedes":[],
    "wof:tags":[
        "used",
        "merchandise"
    ]
},
  "bbox": [
    -73.485699,
    41.144724,
    -73.485699,
    41.144724
],
  "geometry": {"coordinates":[-73.485699,41.144724],"type":"Point"}
}