{
  "id": 554936885,
  "type": "Feature",
  "properties": {
    "edtf:cessation":"uuuu",
    "edtf:inception":"uuuu",
    "geom:area":0.0,
    "geom:bbox":"-79.725527,42.123137,-79.725527,42.123137",
    "geom:latitude":42.123137,
    "geom:longitude":-79.725527,
    "iso:country":"US",
    "sg:address":"10241 State Hwy 430",
    "sg:city":"Sherman",
    "sg:classifiers":[
        {
            "category":"Farming",
            "subcategory":"Farm",
            "type":"Manufacturing & Wholesale Goods"
        }
    ],
    "sg:owner":"simplegeo",
    "sg:phone":"+1 716 769 7932",
    "sg:postcode":"14781",
    "sg:province":"NY",
    "src:geom":"simplegeo",
    "wof:belongsto":[
        85688481,
        85633793,
        85850957,
        102080955
    ],
    "wof:breaches":[],
    "wof:concordances":{
        "sg:id":"SG_4MQA6t6o5MYMmmRxftIZuZ_42.123137_-79.725527@1294177022"
    },
    "wof:country":"US",
    "wof:geomhash":"28ea4170623c9c7ab92020858b08d4c4",
    "wof:hierarchy":[
        {
            "country_id":85633793,
            "county_id":102080955,
            "neighbourhood_id":85850957,
            "region_id":85688481,
            "venue_id":554936885
        }
    ],
    "wof:id":554936885,
    "wof:lastmodified":1461017287,
    "wof:name":"Matt Beckerink Farms",
    "wof:parent_id":85850957,
    "wof:placetype":"venue",
    "wof:superseded_by":[],
    "wof:supersedes":[],
    "wof:tags":[]
},
  "bbox": [
    -79.725527,
    42.123137,
    -79.725527,
    42.123137
],
  "geometry": {"coordinates":[-79.725527,42.123137],"type":"Point"}
}