{
  "id": 554939255,
  "type": "Feature",
  "properties": {
    "edtf:cessation":"uuuu",
    "edtf:inception":"uuuu",
    "geom:area":0.0,
    "geom:bbox":"-74.117538,41.098633,-74.117538,41.098633",
    "geom:latitude":41.098633,
    "geom:longitude":-74.117538,
    "iso:country":"US",
    "sg:address":"82 S Airmont Rd",
    "sg:city":"Suffern",
    "sg:classifiers":[
        {
            "category":"Building & Trades",
            "subcategory":"Landscaping Services",
            "type":"Services"
        }
    ],
    "sg:owner":"simplegeo",
    "sg:phone":"+1 845 357 8907",
    "sg:postcode":"10901",
    "sg:province":"NY",
    "src:geom":"simplegeo",
    "wof:belongsto":[
        85832837,
        102191575,
        404523097,
        85633793,
        85978559,
        102082385,
        85688543
    ],
    "wof:breaches":[],
    "wof:concordances":{
        "sg:id":"SG_4rxfwnaIYy6pO8GIMl1PpC_41.098633_-74.117538@1294177022"
    },
    "wof:country":"US",
    "wof:geomhash":"c9b21dc62215816a449709253a524d75",
    "wof:hierarchy":[
        {
            "continent_id":102191575,
            "country_id":85633793,
            "county_id":102082385,
            "localadmin_id":404523097,
            "locality_id":85978559,
            "neighbourhood_id":85832837,
            "region_id":85688543,
            "venue_id":554939255
        }
    ],
    "wof:id":554939255,
    "wof:lastmodified":1461017544,
    "wof:name":"View Green Lawn Mtnc Inc",
    "wof:parent_id":85832837,
    "wof:placetype":"venue",
    "wof:superseded_by":[],
    "wof:supersedes":[],
    "wof:tags":[]
},
  "bbox": [
    -74.117538,
    41.098633,
    -74.117538,
    41.098633
],
  "geometry": {"coordinates":[-74.117538,41.098633],"type":"Point"}
}