{
  "id": 555296019,
  "type": "Feature",
  "properties": {
    "edtf:cessation":"uuuu",
    "edtf:inception":"uuuu",
    "geom:area":0.0,
    "geom:bbox":"-73.710789,42.783751,-73.710789,42.783751",
    "geom:latitude":42.783751,
    "geom:longitude":-73.710789,
    "iso:country":"US",
    "sg:address":"22 Church St",
    "sg:city":"Cohoes",
    "sg:classifiers":[
        {
            "category":"Retail",
            "subcategory":"Laundry & Dry Cleaning",
            "type":"Services"
        }
    ],
    "sg:owner":"simplegeo",
    "sg:phone":"+1   ",
    "sg:postcode":"12047",
    "sg:province":"NY",
    "src:geom":"simplegeo",
    "wof:belongsto":[],
    "wof:breaches":[],
    "wof:concordances":{
        "sg:id":"SG_7H9G6WT7hyNt7qJvyVUIOu_42.783751_-73.710789@1294177022"
    },
    "wof:country":"US",
    "wof:geomhash":"efcd642f96906bb3fe0f32173f7a9c5a",
    "wof:hierarchy":[],
    "wof:id":555296019,
    "wof:lastmodified":1461026423,
    "wof:name":"Daves Rotary Carpet Cleaning",
    "wof:parent_id":-1,
    "wof:placetype":"venue",
    "wof:superseded_by":[],
    "wof:supersedes":[],
    "wof:tags":[]
},
  "bbox": [
    -73.710789,
    42.783751,
    -73.710789,
    42.783751
],
  "geometry": {"coordinates":[-73.71078900000001,42.783751],"type":"Point"}
}