{
  "id": 554937405,
  "type": "Feature",
  "properties": {
    "edtf:cessation":"uuuu",
    "edtf:inception":"uuuu",
    "geom:area":0.0,
    "geom:bbox":"-73.506867,41.123789,-73.506867,41.123789",
    "geom:latitude":41.123789,
    "geom:longitude":-73.506867,
    "iso:country":"US",
    "sg:address":"259 Spring Water Ln",
    "sg:city":"New Canaan",
    "sg:classifiers":[
        {
            "category":"Organizations",
            "subcategory":"Professional Association",
            "type":"Services"
        }
    ],
    "sg:owner":"simplegeo",
    "sg:phone":"+1   ",
    "sg:postcode":"06840",
    "sg:province":"NY",
    "src:geom":"simplegeo",
    "wof:belongsto":[
        85688629,
        85633793,
        85851779,
        102084283
    ],
    "wof:breaches":[],
    "wof:concordances":{
        "sg:id":"SG_1tP6uQQhGCFy3JPoqCIW3H_41.123789_-73.506867@1294177022"
    },
    "wof:country":"US",
    "wof:geomhash":"03e14e230f436ee1dd206432bc2013ca",
    "wof:hierarchy":[
        {
            "country_id":85633793,
            "county_id":102084283,
            "neighbourhood_id":85851779,
            "region_id":85688629,
            "venue_id":554937405
        }
    ],
    "wof:id":554937405,
    "wof:lastmodified":1461017367,
    "wof:name":"American Guild of Organis",
    "wof:parent_id":85851779,
    "wof:placetype":"venue",
    "wof:superseded_by":[],
    "wof:supersedes":[],
    "wof:tags":[]
},
  "bbox": [
    -73.506867,
    41.123789,
    -73.506867,
    41.123789
],
  "geometry": {"coordinates":[-73.506867,41.123789],"type":"Point"}
}