{
  "id": 554939741,
  "type": "Feature",
  "properties": {
    "edtf:cessation":"uuuu",
    "edtf:inception":"uuuu",
    "geom:area":0.0,
    "geom:bbox":"-73.491862,41.146311,-73.491862,41.146311",
    "geom:latitude":41.146311,
    "geom:longitude":-73.491862,
    "iso:country":"US",
    "sg:address":"134 Main St",
    "sg:city":"New Canaan",
    "sg:classifiers":[
        {
            "category":"Professional",
            "subcategory":"Management & Consulting",
            "type":"Services"
        }
    ],
    "sg:owner":"simplegeo",
    "sg:phone":"+1 203 972 4100",
    "sg:postcode":"06840",
    "sg:province":"NY",
    "sg:tags":[
        "fuel",
        "business"
    ],
    "src:geom":"simplegeo",
    "wof:belongsto":[
        85688629,
        85633793,
        85851779,
        102084283
    ],
    "wof:breaches":[],
    "wof:concordances":{
        "sg:id":"SG_3bzcaAn7VNL3j66YFtwELE_41.146311_-73.491862@1294177022"
    },
    "wof:country":"US",
    "wof:geomhash":"cbdc6b651e8f3e30b0850d6b92b7dddd",
    "wof:hierarchy":[
        {
            "country_id":85633793,
            "county_id":102084283,
            "neighbourhood_id":85851779,
            "region_id":85688629,
            "venue_id":554939741
        }
    ],
    "wof:id":554939741,
    "wof:lastmodified":1461017590,
    "wof:name":"Impala Asset Management LLC",
    "wof:parent_id":85851779,
    "wof:placetype":"venue",
    "wof:superseded_by":[],
    "wof:supersedes":[],
    "wof:tags":[
        "fuel",
        "business"
    ]
},
  "bbox": [
    -73.491862,
    41.146311,
    -73.491862,
    41.146311
],
  "geometry": {"coordinates":[-73.491862,41.146311],"type":"Point"}
}