{
  "id": 572178347,
  "type": "Feature",
  "properties": {
    "edtf:cessation":"uuuu",
    "edtf:inception":"uuuu",
    "geom:area":0.0,
    "geom:bbox":"-79.732515,42.044928,-79.732515,42.044928",
    "geom:latitude":42.044928,
    "geom:longitude":-79.732515,
    "iso:country":"US",
    "sg:address":"1405 Old Rd",
    "sg:city":"Clymer",
    "sg:classifiers":[
        {
            "category":"Travel",
            "subcategory":"Hotels & Motels",
            "type":"Entertainment"
        }
    ],
    "sg:owner":"simplegeo",
    "sg:phone":"+1 716 355 4141",
    "sg:postcode":"14724",
    "sg:province":"NY",
    "src:geom":"simplegeo",
    "wof:belongsto":[
        85688481,
        85633793,
        85850957,
        102080955
    ],
    "wof:breaches":[],
    "wof:concordances":{
        "sg:id":"SG_7CF0HVdI5bnv9er8VU8xOS_42.044928_-79.732515@1303262403"
    },
    "wof:country":"US",
    "wof:geomhash":"aa20481c0478cb44bd3500ef34400e9f",
    "wof:hierarchy":[
        {
            "country_id":85633793,
            "county_id":102080955,
            "neighbourhood_id":85850957,
            "region_id":85688481,
            "venue_id":572178347
        }
    ],
    "wof:id":572178347,
    "wof:lastmodified":1461051667,
    "wof:name":"Inn at the Peak at Peek n Pea",
    "wof:parent_id":85850957,
    "wof:placetype":"venue",
    "wof:superseded_by":[],
    "wof:supersedes":[],
    "wof:tags":[]
},
  "bbox": [
    -79.732515,
    42.044928,
    -79.732515,
    42.044928
],
  "geometry": {"coordinates":[-79.73251500000001,42.044928],"type":"Point"}
}