{
  "id": 554937637,
  "type": "Feature",
  "properties": {
    "edtf:cessation":"uuuu",
    "edtf:inception":"uuuu",
    "geom:area":0.0,
    "geom:bbox":"-79.729669,42.119413,-79.729669,42.119413",
    "geom:latitude":42.119413,
    "geom:longitude":-79.729669,
    "iso:country":"US",
    "sg:address":"9994 Bailey Hill Rd",
    "sg:city":"Sherman",
    "sg:classifiers":[
        {
            "category":"Retail",
            "subcategory":"Repair Shop",
            "type":"Services"
        }
    ],
    "sg:owner":"simplegeo",
    "sg:phone":"+1 716 769 7133",
    "sg:postcode":"14781",
    "sg:province":"NY",
    "sg:tags":[
        "auto",
        "general"
    ],
    "src:geom":"simplegeo",
    "wof:belongsto":[
        85688481,
        85633793,
        85850957,
        102080955
    ],
    "wof:breaches":[],
    "wof:concordances":{
        "sg:id":"SG_6cIl2cZFR3LiDGxACrrmWl_42.119413_-79.729669@1294177022"
    },
    "wof:country":"US",
    "wof:geomhash":"18c827cd4be6cedcf3c0d1aa8e5d12ad",
    "wof:hierarchy":[
        {
            "country_id":85633793,
            "county_id":102080955,
            "neighbourhood_id":85850957,
            "region_id":85688481,
            "venue_id":554937637
        }
    ],
    "wof:id":554937637,
    "wof:lastmodified":1461017397,
    "wof:name":"Jacks Repair Shop Inc",
    "wof:parent_id":85850957,
    "wof:placetype":"venue",
    "wof:superseded_by":[],
    "wof:supersedes":[],
    "wof:tags":[
        "auto",
        "general"
    ]
},
  "bbox": [
    -79.729669,
    42.119413,
    -79.729669,
    42.119413
],
  "geometry": {"coordinates":[-79.729669,42.119413],"type":"Point"}
}