{
  "id": 554938405,
  "type": "Feature",
  "properties": {
    "edtf:cessation":"uuuu",
    "edtf:inception":"uuuu",
    "geom:area":0.0,
    "geom:bbox":"-73.228457,42.513783,-73.228457,42.513783",
    "geom:latitude":42.513783,
    "geom:longitude":-73.228457,
    "iso:country":"US",
    "sg:address":"126 S Main St",
    "sg:city":"Lanesboro",
    "sg:classifiers":[
        {
            "category":"Shopping",
            "subcategory":"Used Merchandise",
            "type":"Retail Goods"
        }
    ],
    "sg:owner":"simplegeo",
    "sg:phone":"+1 413 499 2110",
    "sg:postcode":"01237",
    "sg:province":"NY",
    "sg:tags":[
        "antique"
    ],
    "src:geom":"simplegeo",
    "wof:belongsto":[
        85688645,
        85633793,
        85829509,
        102084369
    ],
    "wof:breaches":[],
    "wof:concordances":{
        "sg:id":"SG_2tTmvgxNaTWVBrZpk7XD9G_42.513783_-73.228457@1294177022"
    },
    "wof:country":"US",
    "wof:geomhash":"ea0c749b896f2fc824779e5b34835a5f",
    "wof:hierarchy":[
        {
            "country_id":85633793,
            "county_id":102084369,
            "neighbourhood_id":85829509,
            "region_id":85688645,
            "venue_id":554938405
        }
    ],
    "wof:id":554938405,
    "wof:lastmodified":1461017475,
    "wof:name":"Somebody Else's Treasures",
    "wof:parent_id":85829509,
    "wof:placetype":"venue",
    "wof:superseded_by":[],
    "wof:supersedes":[],
    "wof:tags":[
        "antique"
    ]
},
  "bbox": [
    -73.228457,
    42.513783,
    -73.228457,
    42.513783
],
  "geometry": {"coordinates":[-73.22845700000001,42.513783],"type":"Point"}
}