{
  "id": 554936237,
  "type": "Feature",
  "properties": {
    "edtf:cessation":"uuuu",
    "edtf:inception":"uuuu",
    "geom:area":0.0,
    "geom:bbox":"-73.457685,41.15777,-73.457685,41.15777",
    "geom:latitude":41.15777,
    "geom:longitude":-73.457685,
    "iso:country":"US",
    "sg:address":"722 Silvermine Rd",
    "sg:city":"New Canaan",
    "sg:classifiers":[
        {
            "category":"Professional",
            "subcategory":"Management & Consulting",
            "type":"Services"
        }
    ],
    "sg:owner":"simplegeo",
    "sg:phone":"+1   ",
    "sg:postcode":"06840",
    "sg:province":"NY",
    "src:geom":"simplegeo",
    "wof:belongsto":[
        85688629,
        85633793,
        85848785,
        102084283
    ],
    "wof:breaches":[],
    "wof:concordances":{
        "sg:id":"SG_7XC7sRmgSoal9P4570OtaS_41.157770_-73.457685@1294177022"
    },
    "wof:country":"US",
    "wof:geomhash":"b6c9ca640dbc1bf81db987da28cfd951",
    "wof:hierarchy":[
        {
            "country_id":85633793,
            "county_id":102084283,
            "neighbourhood_id":85848785,
            "region_id":85688629,
            "venue_id":554936237
        }
    ],
    "wof:id":554936237,
    "wof:lastmodified":1461017187,
    "wof:name":"Bear Mountain Marketing LLC",
    "wof:parent_id":85848785,
    "wof:placetype":"venue",
    "wof:superseded_by":[],
    "wof:supersedes":[],
    "wof:tags":[]
},
  "bbox": [
    -73.457685,
    41.15777,
    -73.457685,
    41.15777
],
  "geometry": {"coordinates":[-73.457685,41.15777],"type":"Point"}
}