{
  "id": 554935569,
  "type": "Feature",
  "properties": {
    "edtf:cessation":"uuuu",
    "edtf:inception":"uuuu",
    "geom:area":0.0,
    "geom:bbox":"-73.47603,41.19689,-73.47603,41.19689",
    "geom:latitude":41.19689,
    "geom:longitude":-73.47603,
    "iso:country":"US",
    "sg:address":"437 Cheese Spring Rd",
    "sg:city":"New Canaan",
    "sg:classifiers":[
        {
            "category":"Professional",
            "subcategory":"Detective & Security Services",
            "type":"Services"
        }
    ],
    "sg:owner":"simplegeo",
    "sg:phone":"+1   ",
    "sg:postcode":"06840",
    "sg:province":"NY",
    "sg:tags":[
        "system"
    ],
    "src:geom":"simplegeo",
    "wof:belongsto":[],
    "wof:breaches":[],
    "wof:concordances":{
        "sg:id":"SG_7gVXnTS7gNcvl9JdcNqzJv_41.196890_-73.476030@1294177022"
    },
    "wof:country":"US",
    "wof:geomhash":"e880b7f56c095ec5c5d697a371262d75",
    "wof:hierarchy":[],
    "wof:id":554935569,
    "wof:lastmodified":1461017090,
    "wof:name":"Reality Video Surveillance",
    "wof:parent_id":-1,
    "wof:placetype":"venue",
    "wof:superseded_by":[],
    "wof:supersedes":[],
    "wof:tags":[
        "system"
    ]
},
  "bbox": [
    -73.47603,
    41.19689,
    -73.47603,
    41.19689
],
  "geometry": {"coordinates":[-73.47602999999999,41.19689],"type":"Point"}
}