{
  "id": 554941357,
  "type": "Feature",
  "properties": {
    "edtf:cessation":"uuuu",
    "edtf:inception":"uuuu",
    "geom:area":0.0,
    "geom:bbox":"-73.528302,41.14898,-73.528302,41.14898",
    "geom:latitude":41.14898,
    "geom:longitude":-73.528302,
    "iso:country":"US",
    "sg:address":"1021 Ponus Ridge",
    "sg:city":"New Canaan",
    "sg:classifiers":[
        {
            "category":"Banks & Credit Unions",
            "subcategory":"Financial Services",
            "type":"Services"
        }
    ],
    "sg:owner":"simplegeo",
    "sg:phone":"+1 203 972 3282",
    "sg:postcode":"06840",
    "sg:province":"NY",
    "sg:tags":[
        "company",
        "holding"
    ],
    "src:geom":"simplegeo",
    "wof:belongsto":[
        85688629,
        85633793,
        85842701,
        102084283
    ],
    "wof:breaches":[],
    "wof:concordances":{
        "sg:id":"SG_3I0UbtdLLWvc0G8SCCa2PF_41.148980_-73.528302@1294177022"
    },
    "wof:country":"US",
    "wof:geomhash":"97659309c05b306cbcf8dbb75b2cde1c",
    "wof:hierarchy":[
        {
            "country_id":85633793,
            "county_id":102084283,
            "neighbourhood_id":85842701,
            "region_id":85688629,
            "venue_id":554941357
        }
    ],
    "wof:id":554941357,
    "wof:lastmodified":1461017733,
    "wof:name":"McGinniss Children Partnership",
    "wof:parent_id":85842701,
    "wof:placetype":"venue",
    "wof:superseded_by":[],
    "wof:supersedes":[],
    "wof:tags":[
        "company",
        "holding"
    ]
},
  "bbox": [
    -73.528302,
    41.14898,
    -73.528302,
    41.14898
],
  "geometry": {"coordinates":[-73.528302,41.14898],"type":"Point"}
}