{
  "id": 554941507,
  "type": "Feature",
  "properties": {
    "edtf:cessation":"uuuu",
    "edtf:inception":"uuuu",
    "geom:area":0.0,
    "geom:bbox":"-73.492877,41.157463,-73.492877,41.157463",
    "geom:latitude":41.157463,
    "geom:longitude":-73.492877,
    "iso:country":"US",
    "sg:address":"26 Garibaldi Ln",
    "sg:city":"New Canaan",
    "sg:classifiers":[
        {
            "category":"Professional",
            "subcategory":"Accounting & Tax Preparation",
            "type":"Services"
        }
    ],
    "sg:owner":"simplegeo",
    "sg:phone":"+1 203 966 4289",
    "sg:postcode":"06840",
    "sg:province":"NY",
    "sg:tags":[
        "accountant"
    ],
    "src:geom":"simplegeo",
    "wof:belongsto":[],
    "wof:breaches":[],
    "wof:concordances":{
        "sg:id":"SG_7HWQkpXRGZufjAOfjCWTMs_41.157463_-73.492877@1294177022"
    },
    "wof:country":"US",
    "wof:geomhash":"937e9a903545e82df325cbcdfe89d1e8",
    "wof:hierarchy":[],
    "wof:id":554941507,
    "wof:lastmodified":1461017766,
    "wof:name":"Lawrence Tomaselli",
    "wof:parent_id":-1,
    "wof:placetype":"venue",
    "wof:superseded_by":[],
    "wof:supersedes":[],
    "wof:tags":[
        "accountant"
    ]
},
  "bbox": [
    -73.492877,
    41.157463,
    -73.492877,
    41.157463
],
  "geometry": {"coordinates":[-73.49287699999999,41.157463],"type":"Point"}
}