{
  "id": 554939239,
  "type": "Feature",
  "properties": {
    "edtf:cessation":"uuuu",
    "edtf:inception":"uuuu",
    "geom:area":0.0,
    "geom:bbox":"-73.502457,41.146264,-73.502457,41.146264",
    "geom:latitude":41.146264,
    "geom:longitude":-73.502457,
    "iso:country":"US",
    "sg:address":"114 Kimberly Pl",
    "sg:city":"New Canaan",
    "sg:classifiers":[
        {
            "category":"Professional",
            "subcategory":"Art Services",
            "type":"Services"
        }
    ],
    "sg:owner":"simplegeo",
    "sg:phone":"+1   ",
    "sg:postcode":"06840",
    "sg:province":"NY",
    "sg:tags":[
        "commercial",
        "design"
    ],
    "src:geom":"simplegeo",
    "wof:belongsto":[
        85688629,
        85633793,
        85851779,
        102084283
    ],
    "wof:breaches":[],
    "wof:concordances":{
        "sg:id":"SG_6ZMBwfDKSfrclffXP659d0_41.146264_-73.502457@1294177022"
    },
    "wof:country":"US",
    "wof:geomhash":"2fcd0a5ea225492b177b4ac0393882d5",
    "wof:hierarchy":[
        {
            "country_id":85633793,
            "county_id":102084283,
            "neighbourhood_id":85851779,
            "region_id":85688629,
            "venue_id":554939239
        }
    ],
    "wof:id":554939239,
    "wof:lastmodified":1461017542,
    "wof:name":"Merci Designs",
    "wof:parent_id":85851779,
    "wof:placetype":"venue",
    "wof:superseded_by":[],
    "wof:supersedes":[],
    "wof:tags":[
        "commercial",
        "design"
    ]
},
  "bbox": [
    -73.502457,
    41.146264,
    -73.502457,
    41.146264
],
  "geometry": {"coordinates":[-73.50245700000001,41.146264],"type":"Point"}
}