{
  "id": 555142835,
  "type": "Feature",
  "properties": {
    "edtf:cessation":"uuuu",
    "edtf:inception":"uuuu",
    "geom:area":0.0,
    "geom:bbox":"-78.960321,43.079865,-78.960321,43.079865",
    "geom:latitude":43.079865,
    "geom:longitude":-78.960321,
    "iso:country":"US",
    "sg:address":"501 Cayuga Dr",
    "sg:city":"Niagara Falls",
    "sg:classifiers":[
        {
            "category":"Restaurant",
            "subcategory":"",
            "type":"Food & Drink"
        }
    ],
    "sg:owner":"simplegeo",
    "sg:phone":"+1 716 236 4119",
    "sg:postcode":"14304",
    "sg:province":"NY",
    "src:geom":"simplegeo",
    "wof:belongsto":[],
    "wof:breaches":[],
    "wof:concordances":{
        "sg:id":"SG_4Z8wEtfqAnBzT6mjobiuii_43.079865_-78.960321@1294177022"
    },
    "wof:country":"US",
    "wof:geomhash":"962020c8c882f01fd1c48422c7fc65a0",
    "wof:hierarchy":[],
    "wof:id":555142835,
    "wof:lastmodified":1461022978,
    "wof:name":"Jim Sullivan's Charcoal",
    "wof:parent_id":-1,
    "wof:placetype":"venue",
    "wof:superseded_by":[],
    "wof:supersedes":[],
    "wof:tags":[]
},
  "bbox": [
    -78.960321,
    43.079865,
    -78.960321,
    43.079865
],
  "geometry": {"coordinates":[-78.96032099999999,43.079865],"type":"Point"}
}