{
  "id": 572171613,
  "type": "Feature",
  "properties": {
    "edtf:cessation":"uuuu",
    "edtf:inception":"uuuu",
    "geom:area":0.0,
    "geom:bbox":"-74.838617,40.653663,-74.838617,40.653663",
    "geom:latitude":40.653663,
    "geom:longitude":-74.838617,
    "iso:country":"US",
    "sg:address":"3044 3rd Ave",
    "sg:city":"Brooklyn",
    "sg:classifiers":[
        {
            "category":"Food & Beverages",
            "subcategory":"Bakery",
            "type":"Retail Goods"
        }
    ],
    "sg:owner":"simplegeo",
    "sg:phone":"+1 718 484 4070",
    "sg:postcode":"11232",
    "sg:province":"NY",
    "sg:tags":[
        "sandwich"
    ],
    "src:geom":"simplegeo",
    "wof:belongsto":[
        85688607,
        85633793,
        85842965,
        102085997
    ],
    "wof:breaches":[],
    "wof:concordances":{
        "sg:id":"SG_3JXGF7A0zyylkWkCBWo1FN_40.653663_-74.838617@1303262348"
    },
    "wof:country":"US",
    "wof:geomhash":"ac312b7754b84659f16f05e55c475af2",
    "wof:hierarchy":[
        {
            "country_id":85633793,
            "county_id":102085997,
            "neighbourhood_id":85842965,
            "region_id":85688607,
            "venue_id":572171613
        }
    ],
    "wof:id":572171613,
    "wof:lastmodified":1461051458,
    "wof:name":"Subway Sandwiches",
    "wof:parent_id":85842965,
    "wof:placetype":"venue",
    "wof:superseded_by":[],
    "wof:supersedes":[],
    "wof:tags":[
        "sandwich"
    ]
},
  "bbox": [
    -74.838617,
    40.653663,
    -74.838617,
    40.653663
],
  "geometry": {"coordinates":[-74.838617,40.653663],"type":"Point"}
}