{
  "id": 572175679,
  "type": "Feature",
  "properties": {
    "edtf:cessation":"uuuu",
    "edtf:inception":"uuuu",
    "geom:area":0.0,
    "geom:bbox":"-72.507025,41.426049,-72.507025,41.426049",
    "geom:latitude":41.426049,
    "geom:longitude":-72.507025,
    "iso:country":"US",
    "sg:address":"11825 Oregon Rd",
    "sg:city":"Cutchogue",
    "sg:classifiers":[
        {
            "category":"Home & Garden",
            "subcategory":"Garden Supply",
            "type":"Retail Goods"
        }
    ],
    "sg:owner":"simplegeo",
    "sg:phone":"+1 631 734 5036",
    "sg:postcode":"11935",
    "sg:province":"NY",
    "sg:tags":[
        "nursery",
        "gardening"
    ],
    "src:geom":"simplegeo",
    "wof:belongsto":[],
    "wof:breaches":[],
    "wof:concordances":{
        "sg:id":"SG_5OPshXoyAtdhkQ6qUYIGnS_41.426049_-72.507025@1303262383"
    },
    "wof:country":"US",
    "wof:geomhash":"80bbb2cc10597a780a5c3fd8664c37ab",
    "wof:hierarchy":[],
    "wof:id":572175679,
    "wof:lastmodified":1461051589,
    "wof:name":"Zuhoski Farms",
    "wof:parent_id":-1,
    "wof:placetype":"venue",
    "wof:superseded_by":[],
    "wof:supersedes":[],
    "wof:tags":[
        "nursery",
        "gardening"
    ]
},
  "bbox": [
    -72.507025,
    41.426049,
    -72.507025,
    41.426049
],
  "geometry": {"coordinates":[-72.507025,41.426049],"type":"Point"}
}