{
  "id": 554941565,
  "type": "Feature",
  "properties": {
    "edtf:cessation":"uuuu",
    "edtf:inception":"uuuu",
    "geom:area":0.0,
    "geom:bbox":"-73.495157,41.14605,-73.495157,41.14605",
    "geom:latitude":41.14605,
    "geom:longitude":-73.495157,
    "iso:country":"US",
    "sg:address":"96 Park St",
    "sg:city":"New Canaan",
    "sg:classifiers":[
        {
            "category":"Shopping",
            "subcategory":"Bicycles & Sporting Goods",
            "type":"Retail Goods"
        }
    ],
    "sg:owner":"simplegeo",
    "sg:phone":"+1 203 966 1646",
    "sg:postcode":"06840",
    "sg:province":"NY",
    "src:geom":"simplegeo",
    "wof:belongsto":[
        85688629,
        85633793,
        85851779,
        102084283
    ],
    "wof:breaches":[],
    "wof:concordances":{
        "sg:id":"SG_6cHT6fZE9xUPK364nd9SPF_41.146050_-73.495157@1294177022"
    },
    "wof:country":"US",
    "wof:geomhash":"c1f675333f63666f4701765b05b827c6",
    "wof:hierarchy":[
        {
            "country_id":85633793,
            "county_id":102084283,
            "neighbourhood_id":85851779,
            "region_id":85688629,
            "venue_id":554941565
        }
    ],
    "wof:id":554941565,
    "wof:lastmodified":1461017772,
    "wof:name":"Bob's Sports",
    "wof:parent_id":85851779,
    "wof:placetype":"venue",
    "wof:superseded_by":[],
    "wof:supersedes":[],
    "wof:tags":[]
},
  "bbox": [
    -73.495157,
    41.14605,
    -73.495157,
    41.14605
],
  "geometry": {"coordinates":[-73.49515700000001,41.14605],"type":"Point"}
}