{
  "id": 571660781,
  "type": "Feature",
  "properties": {
    "edtf:cessation":"uuuu",
    "edtf:inception":"uuuu",
    "geom:area":0.0,
    "geom:bbox":"-75.15726,42.752848,-75.15726,42.752848",
    "geom:latitude":42.752848,
    "geom:longitude":-75.15726,
    "iso:country":"US",
    "sg:address":"575 Jacobs Rd",
    "sg:city":"Burlington Flats",
    "sg:classifiers":[],
    "sg:owner":"simplegeo",
    "sg:phone":"+1 607 965 8669",
    "sg:postcode":"13315",
    "sg:province":"NY",
    "sg:tags":[
        "beef",
        "farm",
        "corn",
        "crop",
        "field",
        "cattle",
        "feedlot"
    ],
    "src:geom":"simplegeo",
    "wof:belongsto":[],
    "wof:breaches":[],
    "wof:concordances":{
        "sg:id":"SG_75H0rAxRXvAEw86jZCs9b6_42.752848_-75.157260@1294177022"
    },
    "wof:country":"US",
    "wof:geomhash":"80939c2732a186520b4e60756b156974",
    "wof:hierarchy":[],
    "wof:id":571660781,
    "wof:lastmodified":1461040741,
    "wof:name":"Maple Ridge Slaughter House",
    "wof:parent_id":420529629,
    "wof:placetype":"venue",
    "wof:superseded_by":[],
    "wof:supersedes":[],
    "wof:tags":[
        "beef",
        "farm",
        "corn",
        "crop",
        "field",
        "cattle",
        "feedlot"
    ]
},
  "bbox": [
    -75.15726,
    42.752848,
    -75.15726,
    42.752848
],
  "geometry": {"coordinates":[-75.15725999999999,42.752848],"type":"Point"}
}