{
  "id": 554936919,
  "type": "Feature",
  "properties": {
    "edtf:cessation":"uuuu",
    "edtf:inception":"uuuu",
    "geom:area":0.0,
    "geom:bbox":"-73.315094,42.541589,-73.315094,42.541589",
    "geom:latitude":42.541589,
    "geom:longitude":-73.315094,
    "iso:country":"US",
    "sg:address":"60 Potter Mountain Rd",
    "sg:city":"Lanesboro",
    "sg:classifiers":[
        {
            "category":"Shopping",
            "subcategory":"Used Merchandise",
            "type":"Retail Goods"
        }
    ],
    "sg:owner":"simplegeo",
    "sg:phone":"+1 413 499 2302",
    "sg:postcode":"01237",
    "sg:province":"NY",
    "sg:tags":[
        "junk"
    ],
    "src:geom":"simplegeo",
    "wof:belongsto":[],
    "wof:breaches":[],
    "wof:concordances":{
        "sg:id":"SG_7cNEhX2tEqFHec31UDyHgw_42.541589_-73.315094@1294177022"
    },
    "wof:country":"US",
    "wof:geomhash":"08fe1727cb8e03ed8f53eb60b56415ce",
    "wof:hierarchy":[],
    "wof:id":554936919,
    "wof:lastmodified":1461017292,
    "wof:name":"Sayers Auto Wrecking",
    "wof:parent_id":-1,
    "wof:placetype":"venue",
    "wof:superseded_by":[],
    "wof:supersedes":[],
    "wof:tags":[
        "junk"
    ]
},
  "bbox": [
    -73.315094,
    42.541589,
    -73.315094,
    42.541589
],
  "geometry": {"coordinates":[-73.315094,42.541589],"type":"Point"}
}