{
  "id": 554935991,
  "type": "Feature",
  "properties": {
    "edtf:cessation":"uuuu",
    "edtf:inception":"uuuu",
    "geom:area":0.0,
    "geom:bbox":"-73.487218,41.196829,-73.487218,41.196829",
    "geom:latitude":41.196829,
    "geom:longitude":-73.487218,
    "iso:country":"US",
    "sg:address":"75 Colonial Rd",
    "sg:city":"New Canaan",
    "sg:classifiers":[
        {
            "category":"Building & Trades",
            "subcategory":"Construction",
            "type":"Services"
        }
    ],
    "sg:owner":"simplegeo",
    "sg:phone":"+1 203 966 3341",
    "sg:postcode":"06840",
    "sg:province":"NY",
    "sg:tags":[
        "excavation",
        "excavating",
        "contractor"
    ],
    "src:geom":"simplegeo",
    "wof:belongsto":[],
    "wof:breaches":[],
    "wof:concordances":{
        "sg:id":"SG_5PEILjdgJahzxPpHI0Ogmo_41.196829_-73.487218@1294177022"
    },
    "wof:country":"US",
    "wof:geomhash":"1dc4665d59cc60151ffacfd8f8d711b9",
    "wof:hierarchy":[],
    "wof:id":554935991,
    "wof:lastmodified":1461017148,
    "wof:name":"Bob Miller Construction Inc",
    "wof:parent_id":-1,
    "wof:placetype":"venue",
    "wof:superseded_by":[],
    "wof:supersedes":[],
    "wof:tags":[
        "excavation",
        "excavating",
        "contractor"
    ]
},
  "bbox": [
    -73.487218,
    41.196829,
    -73.487218,
    41.196829
],
  "geometry": {"coordinates":[-73.487218,41.196829],"type":"Point"}
}