{
  "id": 572178337,
  "type": "Feature",
  "properties": {
    "edtf:cessation":"uuuu",
    "edtf:inception":"uuuu",
    "geom:area":0.0,
    "geom:bbox":"-79.689447,42.091127,-79.689447,42.091127",
    "geom:latitude":42.091127,
    "geom:longitude":-79.689447,
    "iso:country":"US",
    "sg:address":"2385 Mina French Creek Rd",
    "sg:city":"Clymer",
    "sg:classifiers":[
        {
            "category":"Manufacturing",
            "subcategory":"Buildings",
            "type":"Manufacturing & Wholesale Goods"
        },
        {
            "category":"Building & Trades",
            "subcategory":"Construction",
            "type":"Services"
        }
    ],
    "sg:owner":"simplegeo",
    "sg:phone":"+1 716 769 7517",
    "sg:postcode":"14724",
    "sg:province":"NY",
    "sg:tags":[
        "home",
        "builder",
        "contractor"
    ],
    "src:geom":"simplegeo",
    "wof:belongsto":[
        85688481,
        85633793,
        85850957,
        102080955
    ],
    "wof:breaches":[],
    "wof:concordances":{
        "sg:id":"SG_6UFH4UYuLFletLuPpBQG5H_42.091127_-79.689447@1303262403"
    },
    "wof:country":"US",
    "wof:geomhash":"5c9c7c34fefabd830acef3afe508f9d4",
    "wof:hierarchy":[
        {
            "country_id":85633793,
            "county_id":102080955,
            "neighbourhood_id":85850957,
            "region_id":85688481,
            "venue_id":572178337
        }
    ],
    "wof:id":572178337,
    "wof:lastmodified":1461051667,
    "wof:name":"Reitz Construction Co",
    "wof:parent_id":85850957,
    "wof:placetype":"venue",
    "wof:superseded_by":[],
    "wof:supersedes":[],
    "wof:tags":[
        "home",
        "builder",
        "contractor"
    ]
},
  "bbox": [
    -79.689447,
    42.091127,
    -79.689447,
    42.091127
],
  "geometry": {"coordinates":[-79.689447,42.091127],"type":"Point"}
}