{
  "id": 554935727,
  "type": "Feature",
  "properties": {
    "edtf:cessation":"uuuu",
    "edtf:inception":"uuuu",
    "geom:area":0.0,
    "geom:bbox":"-73.661322,41.01286,-73.661322,41.01286",
    "geom:latitude":41.01286,
    "geom:longitude":-73.661322,
    "iso:country":"US",
    "sg:address":"26 Putnam Ave",
    "sg:city":"Port Chester",
    "sg:classifiers":[
        {
            "category":"Professional",
            "subcategory":"Art Services",
            "type":"Services"
        }
    ],
    "sg:owner":"simplegeo",
    "sg:phone":"+1 914 937 1461",
    "sg:postcode":"10573",
    "sg:province":"NY",
    "sg:tags":[
        "graphic",
        "designer"
    ],
    "src:geom":"simplegeo",
    "wof:belongsto":[
        85885307,
        102191575,
        404495949,
        85633793,
        85930941,
        102084283,
        85688629
    ],
    "wof:breaches":[],
    "wof:concordances":{
        "sg:id":"SG_08oa2UbNTddQr45rLg3Y50_41.012860_-73.661322@1294177022"
    },
    "wof:country":"US",
    "wof:geomhash":"5e618a85190ef7b98e0f51ca2a737149",
    "wof:hierarchy":[
        {
            "continent_id":102191575,
            "country_id":85633793,
            "county_id":102084283,
            "localadmin_id":404495949,
            "locality_id":85930941,
            "neighbourhood_id":85885307,
            "region_id":85688629,
            "venue_id":554935727
        }
    ],
    "wof:id":554935727,
    "wof:lastmodified":1461017112,
    "wof:name":"Artemios Signs",
    "wof:parent_id":85885307,
    "wof:placetype":"venue",
    "wof:superseded_by":[],
    "wof:supersedes":[],
    "wof:tags":[
        "graphic",
        "designer"
    ]
},
  "bbox": [
    -73.661322,
    41.01286,
    -73.661322,
    41.01286
],
  "geometry": {"coordinates":[-73.661322,41.01286],"type":"Point"}
}