{
  "id": 554936199,
  "type": "Feature",
  "properties": {
    "edtf:cessation":"uuuu",
    "edtf:inception":"uuuu",
    "geom:area":0.0,
    "geom:bbox":"-73.245742,42.593741,-73.245742,42.593741",
    "geom:latitude":42.593741,
    "geom:longitude":-73.245742,
    "iso:country":"US",
    "sg:address":"199 Mallory Rd",
    "sg:city":"New Ashford",
    "sg:classifiers":[
        {
            "category":"Government",
            "subcategory":"Office",
            "type":"Public Place"
        }
    ],
    "sg:owner":"simplegeo",
    "sg:phone":"+1 413 458 5461",
    "sg:postcode":"01237",
    "sg:province":"NY",
    "sg:tags":[
        "city"
    ],
    "src:geom":"simplegeo",
    "wof:belongsto":[
        85688645,
        85633793,
        85818993,
        102084369
    ],
    "wof:breaches":[],
    "wof:concordances":{
        "sg:id":"SG_2n9LomCfqoZf91sBVB0ofH_42.593741_-73.245742@1294177022"
    },
    "wof:country":"US",
    "wof:geomhash":"d7c6aef68b797093efab095f76549089",
    "wof:hierarchy":[
        {
            "country_id":85633793,
            "county_id":102084369,
            "neighbourhood_id":85818993,
            "region_id":85688645,
            "venue_id":554936199
        }
    ],
    "wof:id":554936199,
    "wof:lastmodified":1461017181,
    "wof:name":"New Ashford Town Hall",
    "wof:parent_id":85818993,
    "wof:placetype":"venue",
    "wof:superseded_by":[],
    "wof:supersedes":[],
    "wof:tags":[
        "city"
    ]
},
  "bbox": [
    -73.245742,
    42.593741,
    -73.245742,
    42.593741
],
  "geometry": {"coordinates":[-73.24574200000001,42.593741],"type":"Point"}
}