{
  "id": 554940483,
  "type": "Feature",
  "properties": {
    "edtf:cessation":"uuuu",
    "edtf:inception":"uuuu",
    "geom:area":0.0,
    "geom:bbox":"-73.652934,41.015209,-73.652934,41.015209",
    "geom:latitude":41.015209,
    "geom:longitude":-73.652934,
    "iso:country":"US",
    "sg:address":"63 Byram Terrace Dr",
    "sg:city":"Greenwich",
    "sg:classifiers":[
        {
            "category":"Building & Trades",
            "subcategory":"Construction",
            "type":"Services"
        },
        {
            "category":"Retail",
            "subcategory":"Auto Repair",
            "type":"Services"
        }
    ],
    "sg:owner":"simplegeo",
    "sg:phone":"+1 203 531 9075",
    "sg:postcode":"06831",
    "sg:province":"NY",
    "sg:tags":[
        "automotive",
        "handyman",
        "contractor"
    ],
    "src:geom":"simplegeo",
    "wof:belongsto":[
        85885307,
        102191575,
        404495949,
        85633793,
        85930941,
        102084283,
        85688629,
        420555461,
        85930937
    ],
    "wof:breaches":[],
    "wof:concordances":{
        "sg:id":"SG_0nVCZpCaxKn21g7017r5HP_41.015209_-73.652934@1294177022"
    },
    "wof:country":"US",
    "wof:geomhash":"6b78a4315c22c411d995e74a182dc717",
    "wof:hierarchy":[
        {
            "continent_id":102191575,
            "country_id":85633793,
            "county_id":102084283,
            "localadmin_id":404495949,
            "locality_id":85930941,
            "neighbourhood_id":85885307,
            "region_id":85688629,
            "venue_id":554940483
        },
        {
            "continent_id":102191575,
            "country_id":85633793,
            "county_id":102084283,
            "localadmin_id":404495949,
            "locality_id":85930937,
            "neighbourhood_id":420555461,
            "region_id":85688629,
            "venue_id":554940483
        }
    ],
    "wof:id":554940483,
    "wof:lastmodified":1461017657,
    "wof:name":"Bathroom Tune Up Co",
    "wof:parent_id":-1,
    "wof:placetype":"venue",
    "wof:superseded_by":[],
    "wof:supersedes":[],
    "wof:tags":[
        "automotive",
        "handyman",
        "contractor"
    ]
},
  "bbox": [
    -73.652934,
    41.015209,
    -73.652934,
    41.015209
],
  "geometry": {"coordinates":[-73.652934,41.015209],"type":"Point"}
}