{
  "id": 554941643,
  "type": "Feature",
  "properties": {
    "edtf:cessation":"uuuu",
    "edtf:inception":"uuuu",
    "geom:area":0.0,
    "geom:bbox":"-73.509249,41.116761,-73.509249,41.116761",
    "geom:latitude":41.116761,
    "geom:longitude":-73.509249,
    "iso:country":"US",
    "sg:address":"286 Hawks Hill Rd",
    "sg:city":"New Canaan",
    "sg:classifiers":[
        {
            "category":"Retail",
            "subcategory":"Laundry & Dry Cleaning",
            "type":"Services"
        }
    ],
    "sg:owner":"simplegeo",
    "sg:phone":"+1   ",
    "sg:postcode":"06840",
    "sg:province":"NY",
    "sg:tags":[
        "launderer",
        "industrial"
    ],
    "src:geom":"simplegeo",
    "wof:belongsto":[
        85688629,
        85633793,
        85851779,
        102084283
    ],
    "wof:breaches":[],
    "wof:concordances":{
        "sg:id":"SG_6jDvPXxvMSMAxzcZcgMBRU_41.116761_-73.509249@1294177022"
    },
    "wof:country":"US",
    "wof:geomhash":"195ae5d4e8b8a5d948be7b2e3dd132ae",
    "wof:hierarchy":[
        {
            "country_id":85633793,
            "county_id":102084283,
            "neighbourhood_id":85851779,
            "region_id":85688629,
            "venue_id":554941643
        }
    ],
    "wof:id":554941643,
    "wof:lastmodified":1461017784,
    "wof:name":"Jeffrey Begoon",
    "wof:parent_id":85851779,
    "wof:placetype":"venue",
    "wof:superseded_by":[],
    "wof:supersedes":[],
    "wof:tags":[
        "launderer",
        "industrial"
    ]
},
  "bbox": [
    -73.509249,
    41.116761,
    -73.509249,
    41.116761
],
  "geometry": {"coordinates":[-73.509249,41.116761],"type":"Point"}
}