{
  "id": 554938829,
  "type": "Feature",
  "properties": {
    "edtf:cessation":"uuuu",
    "edtf:inception":"uuuu",
    "geom:area":0.0,
    "geom:bbox":"-73.493322,41.155506,-73.493322,41.155506",
    "geom:latitude":41.155506,
    "geom:longitude":-73.493322,
    "iso:country":"US",
    "sg:address":"96 New Norwalk Rd",
    "sg:city":"New Canaan",
    "sg:classifiers":[
        {
            "category":"Wholesale",
            "subcategory":"Electrical",
            "type":"Manufacturing & Wholesale Goods"
        }
    ],
    "sg:owner":"simplegeo",
    "sg:phone":"+1 203 972 8787",
    "sg:postcode":"06840",
    "sg:province":"NY",
    "sg:tags":[
        "equipment"
    ],
    "src:geom":"simplegeo",
    "wof:belongsto":[
        85688629,
        85633793,
        85851779,
        102084283
    ],
    "wof:breaches":[],
    "wof:concordances":{
        "sg:id":"SG_2ozPQcC3B9DqGqc8CodfHv_41.155506_-73.493322@1294177022"
    },
    "wof:country":"US",
    "wof:geomhash":"e175b46384eea7c87ee160b803d36406",
    "wof:hierarchy":[
        {
            "country_id":85633793,
            "county_id":102084283,
            "neighbourhood_id":85851779,
            "region_id":85688629,
            "venue_id":554938829
        }
    ],
    "wof:id":554938829,
    "wof:lastmodified":1461017506,
    "wof:name":"Keyholder Svcs Inc New Canaan",
    "wof:parent_id":85851779,
    "wof:placetype":"venue",
    "wof:superseded_by":[],
    "wof:supersedes":[],
    "wof:tags":[
        "equipment"
    ]
},
  "bbox": [
    -73.493322,
    41.155506,
    -73.493322,
    41.155506
],
  "geometry": {"coordinates":[-73.49332200000001,41.155506],"type":"Point"}
}