{
  "id": 554937655,
  "type": "Feature",
  "properties": {
    "edtf:cessation":"uuuu",
    "edtf:inception":"uuuu",
    "geom:area":0.0,
    "geom:bbox":"-73.496913,41.144942,-73.496913,41.144942",
    "geom:latitude":41.144942,
    "geom:longitude":-73.496913,
    "iso:country":"US",
    "sg:address":"45 Pine St",
    "sg:city":"New Canaan",
    "sg:classifiers":[
        {
            "category":"Banks & Credit Unions",
            "subcategory":"Financial Services",
            "type":"Services"
        }
    ],
    "sg:owner":"simplegeo",
    "sg:phone":"+1 203 966 6415",
    "sg:postcode":"06840",
    "sg:province":"NY",
    "sg:tags":[
        "company",
        "venture",
        "capital"
    ],
    "src:geom":"simplegeo",
    "wof:belongsto":[
        85688629,
        85633793,
        85851779,
        102084283
    ],
    "wof:breaches":[],
    "wof:concordances":{
        "sg:id":"SG_0PgAZsbhTQAoCXseJ3ireV_41.144942_-73.496913@1294177022"
    },
    "wof:country":"US",
    "wof:geomhash":"1f2530952e8ed735393df49a39356ecb",
    "wof:hierarchy":[
        {
            "country_id":85633793,
            "county_id":102084283,
            "neighbourhood_id":85851779,
            "region_id":85688629,
            "venue_id":554937655
        }
    ],
    "wof:id":554937655,
    "wof:lastmodified":1461017400,
    "wof:name":"Advanced Matrerials Partners",
    "wof:parent_id":85851779,
    "wof:placetype":"venue",
    "wof:superseded_by":[],
    "wof:supersedes":[],
    "wof:tags":[
        "company",
        "venture",
        "capital"
    ]
},
  "bbox": [
    -73.496913,
    41.144942,
    -73.496913,
    41.144942
],
  "geometry": {"coordinates":[-73.49691300000001,41.144942],"type":"Point"}
}