{
  "id": 571656865,
  "type": "Feature",
  "properties": {
    "edtf:cessation":"uuuu",
    "edtf:inception":"uuuu",
    "geom:area":0.0,
    "geom:bbox":"-73.781503,41.124085,-73.781503,41.124085",
    "geom:latitude":41.124085,
    "geom:longitude":-73.781503,
    "iso:country":"US",
    "sg:address":"23 Saint Charles St",
    "sg:city":"Thornwood",
    "sg:classifiers":[
        {
            "category":"Professional",
            "subcategory":"",
            "type":"Services"
        }
    ],
    "sg:owner":"simplegeo",
    "sg:phone":"+1 914 769 1601",
    "sg:postcode":"10594",
    "sg:province":"NY",
    "sg:tags":[
        "interior",
        "designer",
        "decorator"
    ],
    "src:geom":"simplegeo",
    "wof:belongsto":[],
    "wof:breaches":[],
    "wof:concordances":{
        "sg:id":"SG_6tdHfb2KaEFe1oJTyKreaI_41.124556_-73.782017@1293134755"
    },
    "wof:country":"US",
    "wof:geomhash":"09a4a933debbb6963ab282d10d3fcdf4",
    "wof:hierarchy":[],
    "wof:id":571656865,
    "wof:lastmodified":1461040664,
    "wof:name":"Donna Boniello & Assoc",
    "wof:parent_id":-1,
    "wof:placetype":"venue",
    "wof:superseded_by":[],
    "wof:supersedes":[],
    "wof:tags":[
        "interior",
        "designer",
        "decorator"
    ]
},
  "bbox": [
    -73.781503,
    41.124085,
    -73.781503,
    41.124085
],
  "geometry": {"coordinates":[-73.781503,41.124085],"type":"Point"}
}