{
  "id": 554936945,
  "type": "Feature",
  "properties": {
    "edtf:cessation":"uuuu",
    "edtf:inception":"uuuu",
    "geom:area":0.0,
    "geom:bbox":"-73.654818,41.086985,-73.654818,41.086985",
    "geom:latitude":41.086985,
    "geom:longitude":-73.654818,
    "iso:country":"US",
    "sg:address":"37 Birchwood Dr",
    "sg:city":"Greenwich",
    "sg:classifiers":[
        {
            "category":"Banks & Credit Unions",
            "subcategory":"Investment Brokerage",
            "type":"Services"
        }
    ],
    "sg:owner":"simplegeo",
    "sg:phone":"+1 203 661 7482",
    "sg:postcode":"06831",
    "sg:province":"NY",
    "sg:tags":[
        "advisory"
    ],
    "src:geom":"simplegeo",
    "wof:belongsto":[],
    "wof:breaches":[],
    "wof:concordances":{
        "sg:id":"SG_7Qn1mvocKOcAVKAeIborNb_41.086985_-73.654818@1294177022"
    },
    "wof:country":"US",
    "wof:geomhash":"40a0e2556e770846235a31c1757c4a32",
    "wof:hierarchy":[],
    "wof:id":554936945,
    "wof:lastmodified":1461017296,
    "wof:name":"Aquarii Capital Management LLC",
    "wof:parent_id":-1,
    "wof:placetype":"venue",
    "wof:superseded_by":[],
    "wof:supersedes":[],
    "wof:tags":[
        "advisory"
    ]
},
  "bbox": [
    -73.654818,
    41.086985,
    -73.654818,
    41.086985
],
  "geometry": {"coordinates":[-73.65481800000001,41.086985],"type":"Point"}
}