{
  "id": 554935677,
  "type": "Feature",
  "properties": {
    "edtf:cessation":"uuuu",
    "edtf:inception":"uuuu",
    "geom:area":0.0,
    "geom:bbox":"-73.489197,41.149362,-73.489197,41.149362",
    "geom:latitude":41.149362,
    "geom:longitude":-73.489197,
    "iso:country":"US",
    "sg:address":"34 Cross St",
    "sg:city":"New Canaan",
    "sg:classifiers":[
        {
            "category":"Building & Trades",
            "subcategory":"Construction",
            "type":"Services"
        }
    ],
    "sg:owner":"simplegeo",
    "sg:phone":"+1 203 972 0280",
    "sg:postcode":"06840",
    "sg:province":"NY",
    "sg:tags":[
        "contractor"
    ],
    "src:geom":"simplegeo",
    "wof:belongsto":[
        85688629,
        85633793,
        85851779,
        102084283
    ],
    "wof:breaches":[],
    "wof:concordances":{
        "sg:id":"SG_3O3RtMS7rShAEojJI1FmO7_41.149362_-73.489197@1294177022"
    },
    "wof:country":"US",
    "wof:geomhash":"4d860c37c4260e020a79804375544802",
    "wof:hierarchy":[
        {
            "country_id":85633793,
            "county_id":102084283,
            "neighbourhood_id":85851779,
            "region_id":85688629,
            "venue_id":554935677
        }
    ],
    "wof:id":554935677,
    "wof:lastmodified":1461017106,
    "wof:name":"Gannon Rustic Fence",
    "wof:parent_id":85851779,
    "wof:placetype":"venue",
    "wof:superseded_by":[],
    "wof:supersedes":[],
    "wof:tags":[
        "contractor"
    ]
},
  "bbox": [
    -73.489197,
    41.149362,
    -73.489197,
    41.149362
],
  "geometry": {"coordinates":[-73.489197,41.149362],"type":"Point"}
}