{
  "id": 555368235,
  "type": "Feature",
  "properties": {
    "edtf:cessation":"uuuu",
    "edtf:inception":"uuuu",
    "geom:area":0.0,
    "geom:bbox":"-73.381068,40.735841,-73.381068,40.735841",
    "geom:latitude":40.735841,
    "geom:longitude":-73.381068,
    "iso:country":"US",
    "sg:address":"109 Jersey St",
    "sg:city":"West Babylon",
    "sg:classifiers":[
        {
            "category":"Freight",
            "subcategory":"",
            "type":"Transportation"
        }
    ],
    "sg:owner":"simplegeo",
    "sg:phone":"+1   ",
    "sg:postcode":"11704",
    "sg:province":"NY",
    "sg:tags":[
        "garbage",
        "collection",
        "transport"
    ],
    "src:geom":"simplegeo",
    "wof:belongsto":[],
    "wof:breaches":[],
    "wof:concordances":{
        "sg:id":"SG_0RmrqCF4oKSCyLHu11sYdf_40.735841_-73.381068@1294177022"
    },
    "wof:country":"US",
    "wof:geomhash":"7e5e1b6e334b9141cdca17c173ae0057",
    "wof:hierarchy":[],
    "wof:id":555368235,
    "wof:lastmodified":1461028249,
    "wof:name":"S P F Carting Corp",
    "wof:parent_id":-1,
    "wof:placetype":"venue",
    "wof:superseded_by":[],
    "wof:supersedes":[],
    "wof:tags":[
        "garbage",
        "collection",
        "transport"
    ]
},
  "bbox": [
    -73.381068,
    40.735841,
    -73.381068,
    40.735841
],
  "geometry": {"coordinates":[-73.381068,40.735841],"type":"Point"}
}