{
  "id": 554941745,
  "type": "Feature",
  "properties": {
    "edtf:cessation":"uuuu",
    "edtf:inception":"uuuu",
    "geom:area":0.0,
    "geom:bbox":"-73.492436,41.147404,-73.492436,41.147404",
    "geom:latitude":41.147404,
    "geom:longitude":-73.492436,
    "iso:country":"US",
    "sg:address":"93 Main St",
    "sg:city":"New Canaan",
    "sg:classifiers":[
        {
            "category":"Shopping",
            "subcategory":"",
            "type":"Retail Goods"
        }
    ],
    "sg:owner":"simplegeo",
    "sg:phone":"+1 203 966 7660",
    "sg:postcode":"06840",
    "sg:province":"NY",
    "sg:tags":[
        "picture",
        "frame"
    ],
    "sg:website":"www.handwrightgallery.com",
    "src:geom":"simplegeo",
    "wof:belongsto":[
        85688629,
        85633793,
        85851779,
        102084283
    ],
    "wof:breaches":[],
    "wof:concordances":{
        "sg:id":"SG_37QKrEjGojwBYC01SXQv6n_41.147404_-73.492436@1294177022"
    },
    "wof:country":"US",
    "wof:geomhash":"31f87acb05e94dc2a90ec2389c7386bb",
    "wof:hierarchy":[
        {
            "country_id":85633793,
            "county_id":102084283,
            "neighbourhood_id":85851779,
            "region_id":85688629,
            "venue_id":554941745
        }
    ],
    "wof:id":554941745,
    "wof:lastmodified":1461017796,
    "wof:name":"Handwright Gallery & Framing",
    "wof:parent_id":85851779,
    "wof:placetype":"venue",
    "wof:superseded_by":[],
    "wof:supersedes":[],
    "wof:tags":[
        "picture",
        "frame"
    ]
},
  "bbox": [
    -73.492436,
    41.147404,
    -73.492436,
    41.147404
],
  "geometry": {"coordinates":[-73.492436,41.147404],"type":"Point"}
}