{
  "id": 554935823,
  "type": "Feature",
  "properties": {
    "edtf:cessation":"uuuu",
    "edtf:inception":"uuuu",
    "geom:area":0.0,
    "geom:bbox":"-74.061391,41.069,-74.061391,41.069",
    "geom:latitude":41.069,
    "geom:longitude":-74.061391,
    "iso:country":"US",
    "sg:address":"21 Midway Rd",
    "sg:city":"Spring Valley",
    "sg:classifiers":[
        {
            "category":"Building & Trades",
            "subcategory":"Construction",
            "type":"Services"
        }
    ],
    "sg:owner":"simplegeo",
    "sg:phone":"+1 845 352 6023",
    "sg:postcode":"10977",
    "sg:province":"NY",
    "sg:tags":[
        "hanging",
        "contractor"
    ],
    "src:geom":"simplegeo",
    "wof:belongsto":[
        85853261,
        102191575,
        404523097,
        85633793,
        85978555,
        102082385,
        85688543
    ],
    "wof:breaches":[],
    "wof:concordances":{
        "sg:id":"SG_3zZl2q1tg7Jrz2oOPZfzlq_41.069000_-74.061391@1294177022"
    },
    "wof:country":"US",
    "wof:geomhash":"e6326e0be3eab6371426b8a25b5980c7",
    "wof:hierarchy":[
        {
            "continent_id":102191575,
            "country_id":85633793,
            "county_id":102082385,
            "localadmin_id":404523097,
            "locality_id":85978555,
            "neighbourhood_id":85853261,
            "region_id":85688543,
            "venue_id":554935823
        }
    ],
    "wof:id":554935823,
    "wof:lastmodified":1461017125,
    "wof:name":"Budget Painting Co",
    "wof:parent_id":85853261,
    "wof:placetype":"venue",
    "wof:superseded_by":[],
    "wof:supersedes":[],
    "wof:tags":[
        "hanging",
        "contractor"
    ]
},
  "bbox": [
    -74.061391,
    41.069,
    -74.061391,
    41.069
],
  "geometry": {"coordinates":[-74.061391,41.069],"type":"Point"}
}