{
  "id": 554938791,
  "type": "Feature",
  "properties": {
    "edtf:cessation":"uuuu",
    "edtf:inception":"uuuu",
    "geom:area":0.0,
    "geom:bbox":"-73.656371,41.071096,-73.656371,41.071096",
    "geom:latitude":41.071096,
    "geom:longitude":-73.656371,
    "iso:country":"US",
    "sg:address":"15 Greenbriar Ln",
    "sg:city":"Greenwich",
    "sg:classifiers":[
        {
            "category":"Real Estate",
            "subcategory":"Architect",
            "type":"Services"
        }
    ],
    "sg:owner":"simplegeo",
    "sg:phone":"+1 203 869 2759",
    "sg:postcode":"06831",
    "sg:province":"NY",
    "sg:tags":[
        "architectural"
    ],
    "src:geom":"simplegeo",
    "wof:belongsto":[],
    "wof:breaches":[],
    "wof:concordances":{
        "sg:id":"SG_35BlcheclanyEkWYLCP1pt_41.071096_-73.656371@1294177022"
    },
    "wof:country":"US",
    "wof:geomhash":"e687aba99c467569e35a67ceb9b38eb9",
    "wof:hierarchy":[],
    "wof:id":554938791,
    "wof:lastmodified":1461017504,
    "wof:name":"Paul S Marchese & Associates",
    "wof:parent_id":-1,
    "wof:placetype":"venue",
    "wof:superseded_by":[],
    "wof:supersedes":[],
    "wof:tags":[
        "architectural"
    ]
},
  "bbox": [
    -73.656371,
    41.071096,
    -73.656371,
    41.071096
],
  "geometry": {"coordinates":[-73.65637099999999,41.071096],"type":"Point"}
}