{
  "id": 554937121,
  "type": "Feature",
  "properties": {
    "edtf:cessation":"uuuu",
    "edtf:inception":"uuuu",
    "geom:area":0.0,
    "geom:bbox":"-73.463045,41.159639,-73.463045,41.159639",
    "geom:latitude":41.159639,
    "geom:longitude":-73.463045,
    "iso:country":"US",
    "sg:address":"553 Silvermine Rd",
    "sg:city":"New Canaan",
    "sg:classifiers":[
        {
            "category":"Professional",
            "subcategory":"Management & Consulting",
            "type":"Services"
        }
    ],
    "sg:owner":"simplegeo",
    "sg:phone":"+1   ",
    "sg:postcode":"06840",
    "sg:province":"NY",
    "sg:tags":[
        "business"
    ],
    "src:geom":"simplegeo",
    "wof:belongsto":[
        85688629,
        85633793,
        85848785,
        102084283
    ],
    "wof:breaches":[],
    "wof:concordances":{
        "sg:id":"SG_5nGasvKBZe2GNA8nWjZnfk_41.159639_-73.463045@1294177022"
    },
    "wof:country":"US",
    "wof:geomhash":"085f468c6ee349abdca799d9377f8205",
    "wof:hierarchy":[
        {
            "country_id":85633793,
            "county_id":102084283,
            "neighbourhood_id":85848785,
            "region_id":85688629,
            "venue_id":554937121
        }
    ],
    "wof:id":554937121,
    "wof:lastmodified":1461017319,
    "wof:name":"Milan J Turk & Associates LLC",
    "wof:parent_id":85848785,
    "wof:placetype":"venue",
    "wof:superseded_by":[],
    "wof:supersedes":[],
    "wof:tags":[
        "business"
    ]
},
  "bbox": [
    -73.463045,
    41.159639,
    -73.463045,
    41.159639
],
  "geometry": {"coordinates":[-73.46304499999999,41.159639],"type":"Point"}
}