{
  "id": 572171699,
  "type": "Feature",
  "properties": {
    "edtf:cessation":"uuuu",
    "edtf:inception":"uuuu",
    "geom:area":0.0,
    "geom:bbox":"-74.931596,40.654209,-74.931596,40.654209",
    "geom:latitude":40.654209,
    "geom:longitude":-74.931596,
    "iso:country":"US",
    "sg:address":"415 36th St",
    "sg:city":"Brooklyn",
    "sg:classifiers":[
        {
            "category":"Building & Trades",
            "subcategory":"Construction",
            "type":"Services"
        }
    ],
    "sg:owner":"simplegeo",
    "sg:phone":"+1 718 499 2803",
    "sg:postcode":"11232",
    "sg:province":"NY",
    "sg:tags":[
        "contractor"
    ],
    "src:geom":"simplegeo",
    "wof:belongsto":[
        85688607,
        85633793,
        85842587,
        102085997
    ],
    "wof:breaches":[],
    "wof:concordances":{
        "sg:id":"SG_46v0zxNUTJUhcZpuaRNzxC_40.654209_-74.931596@1303262348"
    },
    "wof:country":"US",
    "wof:geomhash":"6288e1aac4adfd164293bfe5ed0111dc",
    "wof:hierarchy":[
        {
            "country_id":85633793,
            "county_id":102085997,
            "neighbourhood_id":85842587,
            "region_id":85688607,
            "venue_id":572171699
        }
    ],
    "wof:id":572171699,
    "wof:lastmodified":1461051460,
    "wof:name":"Cathedral Builders",
    "wof:parent_id":85842587,
    "wof:placetype":"venue",
    "wof:superseded_by":[],
    "wof:supersedes":[],
    "wof:tags":[
        "contractor"
    ]
},
  "bbox": [
    -74.931596,
    40.654209,
    -74.931596,
    40.654209
],
  "geometry": {"coordinates":[-74.931596,40.654209],"type":"Point"}
}