{
  "id": 555362857,
  "type": "Feature",
  "properties": {
    "edtf:cessation":"uuuu",
    "edtf:inception":"uuuu",
    "geom:area":0.0,
    "geom:bbox":"-72.97261,40.871047,-72.97261,40.871047",
    "geom:latitude":40.871047,
    "geom:longitude":-72.97261,
    "iso:country":"US",
    "sg:address":"30 Adams Ln",
    "sg:city":"Middle Island",
    "sg:classifiers":[
        {
            "category":"Building & Trades",
            "subcategory":"Construction",
            "type":"Services"
        }
    ],
    "sg:owner":"simplegeo",
    "sg:phone":"+1 631 698 5909",
    "sg:postcode":"11953",
    "sg:province":"NY",
    "sg:tags":[
        "demolition"
    ],
    "src:geom":"simplegeo",
    "wof:belongsto":[],
    "wof:breaches":[],
    "wof:concordances":{
        "sg:id":"SG_2dSaWCFmxtFFpKHMxTaMWh_40.871047_-72.972610@1294177022"
    },
    "wof:country":"US",
    "wof:geomhash":"471d8905ab87e63af8c9a67d992fb14c",
    "wof:hierarchy":[],
    "wof:id":555362857,
    "wof:lastmodified":1461028121,
    "wof:name":"Ego Spirits 3 Inc",
    "wof:parent_id":-1,
    "wof:placetype":"venue",
    "wof:superseded_by":[],
    "wof:supersedes":[],
    "wof:tags":[
        "demolition"
    ]
},
  "bbox": [
    -72.97261,
    40.871047,
    -72.97261,
    40.871047
],
  "geometry": {"coordinates":[-72.97261,40.871047],"type":"Point"}
}