{
  "id": 572171087,
  "type": "Feature",
  "properties": {
    "edtf:cessation":"uuuu",
    "edtf:inception":"uuuu",
    "geom:area":0.0,
    "geom:bbox":"-74.836404,40.646764,-74.836404,40.646764",
    "geom:latitude":40.646764,
    "geom:longitude":-74.836404,
    "iso:country":"US",
    "sg:address":"4724 5th Ave",
    "sg:city":"Brooklyn",
    "sg:classifiers":[
        {
            "category":"Shopping",
            "subcategory":"Jewelry",
            "type":"Retail Goods"
        }
    ],
    "sg:owner":"simplegeo",
    "sg:phone":"+1 718 492 2217",
    "sg:postcode":"11220",
    "sg:province":"NY",
    "src:geom":"simplegeo",
    "wof:belongsto":[
        85688607,
        85633793,
        85842965,
        102085997
    ],
    "wof:breaches":[],
    "wof:concordances":{
        "sg:id":"SG_7lGYiOPw9RpZ0zEd6TkdJQ_40.646764_-74.836404@1303262344"
    },
    "wof:country":"US",
    "wof:geomhash":"0f8a65c69d8c281dbe72a41d9c78f215",
    "wof:hierarchy":[
        {
            "country_id":85633793,
            "county_id":102085997,
            "neighbourhood_id":85842965,
            "region_id":85688607,
            "venue_id":572171087
        }
    ],
    "wof:id":572171087,
    "wof:lastmodified":1461051439,
    "wof:name":"R & M Jewelry",
    "wof:parent_id":85842965,
    "wof:placetype":"venue",
    "wof:superseded_by":[],
    "wof:supersedes":[],
    "wof:tags":[]
},
  "bbox": [
    -74.836404,
    40.646764,
    -74.836404,
    40.646764
],
  "geometry": {"coordinates":[-74.836404,40.646764],"type":"Point"}
}