{
  "id": 554934625,
  "type": "Feature",
  "properties": {
    "edtf:cessation":"uuuu",
    "edtf:inception":"uuuu",
    "geom:area":0.0,
    "geom:bbox":"-73.686217,41.0972,-73.686217,41.0972",
    "geom:latitude":41.0972,
    "geom:longitude":-73.686217,
    "iso:country":"US",
    "sg:address":"118 John St",
    "sg:city":"Greenwich",
    "sg:classifiers":[
        {
            "category":"Professional",
            "subcategory":"",
            "type":"Services"
        }
    ],
    "sg:owner":"simplegeo",
    "sg:phone":"+1 203 625 0393",
    "sg:postcode":"06831",
    "sg:province":"NY",
    "src:geom":"simplegeo",
    "wof:belongsto":[
        85688629,
        85633793,
        85837667,
        102084283
    ],
    "wof:breaches":[],
    "wof:concordances":{
        "sg:id":"SG_2fSxGitHGwW6MCXAtL1vQv_41.097200_-73.686217@1294177022"
    },
    "wof:country":"US",
    "wof:geomhash":"5cc780636c9068d38d0928f8c2d2aca9",
    "wof:hierarchy":[
        {
            "country_id":85633793,
            "county_id":102084283,
            "neighbourhood_id":85837667,
            "region_id":85688629,
            "venue_id":554934625
        }
    ],
    "wof:id":554934625,
    "wof:lastmodified":1461016965,
    "wof:name":"Richard C McKenzie Jr",
    "wof:parent_id":85837667,
    "wof:placetype":"venue",
    "wof:superseded_by":[],
    "wof:supersedes":[],
    "wof:tags":[]
},
  "bbox": [
    -73.686217,
    41.0972,
    -73.686217,
    41.0972
],
  "geometry": {"coordinates":[-73.686217,41.0972],"type":"Point"}
}