{
  "id": 554934723,
  "type": "Feature",
  "properties": {
    "edtf:cessation":"uuuu",
    "edtf:inception":"uuuu",
    "geom:area":0.0,
    "geom:bbox":"-73.485896,41.150149,-73.485896,41.150149",
    "geom:latitude":41.150149,
    "geom:longitude":-73.485896,
    "iso:country":"US",
    "sg:address":"31 Ledge Ave",
    "sg:city":"New Canaan",
    "sg:classifiers":[
        {
            "category":"Insurance",
            "subcategory":"Insurance Agent",
            "type":"Services"
        }
    ],
    "sg:owner":"simplegeo",
    "sg:phone":"+1 203 966 6405",
    "sg:postcode":"06840",
    "sg:province":"NY",
    "src:geom":"simplegeo",
    "wof:belongsto":[
        85688629,
        85633793,
        85851779,
        102084283
    ],
    "wof:breaches":[],
    "wof:concordances":{
        "sg:id":"SG_2IGLJYG4app8JuRLlgjC6O_41.150149_-73.485896@1294177022"
    },
    "wof:country":"US",
    "wof:geomhash":"d9f603adbded4ab590594d5e48e8923b",
    "wof:hierarchy":[
        {
            "country_id":85633793,
            "county_id":102084283,
            "neighbourhood_id":85851779,
            "region_id":85688629,
            "venue_id":554934723
        }
    ],
    "wof:id":554934723,
    "wof:lastmodified":1461016976,
    "wof:name":"Nielsen & Co",
    "wof:parent_id":85851779,
    "wof:placetype":"venue",
    "wof:superseded_by":[],
    "wof:supersedes":[],
    "wof:tags":[]
},
  "bbox": [
    -73.485896,
    41.150149,
    -73.485896,
    41.150149
],
  "geometry": {"coordinates":[-73.485896,41.150149],"type":"Point"}
}