{
  "id": 554941147,
  "type": "Feature",
  "properties": {
    "edtf:cessation":"uuuu",
    "edtf:inception":"uuuu",
    "geom:area":0.0,
    "geom:bbox":"-73.662746,41.015387,-73.662746,41.015387",
    "geom:latitude":41.015387,
    "geom:longitude":-73.662746,
    "iso:country":"US",
    "sg:address":"28 Halstead Ave",
    "sg:city":"Port Chester",
    "sg:classifiers":[
        {
            "category":"Building & Trades",
            "subcategory":"Construction",
            "type":"Services"
        }
    ],
    "sg:owner":"simplegeo",
    "sg:phone":"+1 914 939 0737",
    "sg:postcode":"10573",
    "sg:province":"NY",
    "sg:tags":[
        "contractor"
    ],
    "src:geom":"simplegeo",
    "wof:belongsto":[
        85885307,
        102191575,
        404495949,
        85633793,
        85930941,
        102084283,
        85688629
    ],
    "wof:breaches":[],
    "wof:concordances":{
        "sg:id":"SG_39lQ9JPH87fEUTMZrcRRu4_41.015387_-73.662746@1294177022"
    },
    "wof:country":"US",
    "wof:geomhash":"c807021270f0ab18de1a96e2c10c0568",
    "wof:hierarchy":[
        {
            "continent_id":102191575,
            "country_id":85633793,
            "county_id":102084283,
            "localadmin_id":404495949,
            "locality_id":85930941,
            "neighbourhood_id":85885307,
            "region_id":85688629,
            "venue_id":554941147
        }
    ],
    "wof:id":554941147,
    "wof:lastmodified":1461017714,
    "wof:name":"Ralph Signorelli",
    "wof:parent_id":85885307,
    "wof:placetype":"venue",
    "wof:superseded_by":[],
    "wof:supersedes":[],
    "wof:tags":[
        "contractor"
    ]
},
  "bbox": [
    -73.662746,
    41.015387,
    -73.662746,
    41.015387
],
  "geometry": {"coordinates":[-73.662746,41.015387],"type":"Point"}
}