{
  "id": 554938309,
  "type": "Feature",
  "properties": {
    "edtf:cessation":"uuuu",
    "edtf:inception":"uuuu",
    "geom:area":0.0,
    "geom:bbox":"-73.657291,41.107316,-73.657291,41.107316",
    "geom:latitude":41.107316,
    "geom:longitude":-73.657291,
    "iso:country":"US",
    "sg:address":"47 Burying Hill Rd",
    "sg:city":"Greenwich",
    "sg:classifiers":[
        {
            "category":"Professional",
            "subcategory":"Computer Services",
            "type":"Services"
        }
    ],
    "sg:owner":"simplegeo",
    "sg:phone":"+1 203 863 0000",
    "sg:postcode":"06831",
    "sg:province":"NY",
    "sg:tags":[
        "internet"
    ],
    "src:geom":"simplegeo",
    "wof:belongsto":[],
    "wof:breaches":[],
    "wof:concordances":{
        "sg:id":"SG_7NUxBjKyKZ9gFssSo8FTJw_41.107316_-73.657291@1294177022"
    },
    "wof:country":"US",
    "wof:geomhash":"0ad93e4baa5384beb083365b46c9d402",
    "wof:hierarchy":[],
    "wof:id":554938309,
    "wof:lastmodified":1461017465,
    "wof:name":"Third Millenium Solution",
    "wof:parent_id":-1,
    "wof:placetype":"venue",
    "wof:superseded_by":[],
    "wof:supersedes":[],
    "wof:tags":[
        "internet"
    ]
},
  "bbox": [
    -73.657291,
    41.107316,
    -73.657291,
    41.107316
],
  "geometry": {"coordinates":[-73.657291,41.107316],"type":"Point"}
}