{
  "id": 554938487,
  "type": "Feature",
  "properties": {
    "edtf:cessation":"uuuu",
    "edtf:inception":"uuuu",
    "geom:area":0.0,
    "geom:bbox":"-73.694162,41.054803,-73.694162,41.054803",
    "geom:latitude":41.054803,
    "geom:longitude":-73.694162,
    "iso:country":"US",
    "sg:address":"27 Legendary Cir",
    "sg:city":"Port Chester",
    "sg:classifiers":[
        {
            "category":"Manufacturing",
            "subcategory":"Paper Products",
            "type":"Manufacturing & Wholesale Goods"
        }
    ],
    "sg:owner":"simplegeo",
    "sg:phone":"+1   ",
    "sg:postcode":"10573",
    "sg:province":"NY",
    "sg:tags":[
        "mill"
    ],
    "src:geom":"simplegeo",
    "wof:belongsto":[
        85845073,
        102191575,
        404523361,
        85633793,
        85978735,
        102082373,
        85688543
    ],
    "wof:breaches":[],
    "wof:concordances":{
        "sg:id":"SG_3acy7IEMjwrpfxzas5019D_41.054803_-73.694162@1294177022"
    },
    "wof:country":"US",
    "wof:geomhash":"4f844150489f33db20c49c8926627864",
    "wof:hierarchy":[
        {
            "continent_id":102191575,
            "country_id":85633793,
            "county_id":102082373,
            "localadmin_id":404523361,
            "locality_id":85978735,
            "neighbourhood_id":85845073,
            "region_id":85688543,
            "venue_id":554938487
        }
    ],
    "wof:id":554938487,
    "wof:lastmodified":1461017482,
    "wof:name":"Out of Box",
    "wof:parent_id":85845073,
    "wof:placetype":"venue",
    "wof:superseded_by":[],
    "wof:supersedes":[],
    "wof:tags":[
        "mill"
    ]
},
  "bbox": [
    -73.694162,
    41.054803,
    -73.694162,
    41.054803
],
  "geometry": {"coordinates":[-73.69416200000001,41.054803],"type":"Point"}
}