{
  "id": 554936161,
  "type": "Feature",
  "properties": {
    "edtf:cessation":"uuuu",
    "edtf:inception":"uuuu",
    "geom:area":0.0,
    "geom:bbox":"-73.49117,41.190998,-73.49117,41.190998",
    "geom:latitude":41.190998,
    "geom:longitude":-73.49117,
    "iso:country":"US",
    "sg:address":"40 Deep Valley Rd",
    "sg:city":"New Canaan",
    "sg:classifiers":[
        {
            "category":"Professional",
            "subcategory":"Employment Agencies",
            "type":"Services"
        }
    ],
    "sg:owner":"simplegeo",
    "sg:phone":"+1 203 972 7786",
    "sg:postcode":"06840",
    "sg:province":"NY",
    "sg:tags":[
        "consultant",
        "search",
        "executive"
    ],
    "sg:website":"www.bellmetro.com",
    "src:geom":"simplegeo",
    "wof:belongsto":[],
    "wof:breaches":[],
    "wof:concordances":{
        "sg:id":"SG_07RQGrPqBRgzgQmHI7vylZ_41.190998_-73.491170@1294177022"
    },
    "wof:country":"US",
    "wof:geomhash":"040573943c2969b7367cd05719ccb067",
    "wof:hierarchy":[],
    "wof:id":554936161,
    "wof:lastmodified":1461017173,
    "wof:name":"Bell & Assoc",
    "wof:parent_id":-1,
    "wof:placetype":"venue",
    "wof:superseded_by":[],
    "wof:supersedes":[],
    "wof:tags":[
        "consultant",
        "search",
        "executive"
    ]
},
  "bbox": [
    -73.49117,
    41.190998,
    -73.49117,
    41.190998
],
  "geometry": {"coordinates":[-73.49117,41.190998],"type":"Point"}
}