{
  "id": 555364585,
  "type": "Feature",
  "properties": {
    "edtf:cessation":"uuuu",
    "edtf:inception":"uuuu",
    "geom:area":0.0,
    "geom:bbox":"-78.476653,43.195077,-78.476653,43.195077",
    "geom:latitude":43.195077,
    "geom:longitude":-78.476653,
    "iso:country":"US",
    "sg:address":"4274 Freeman Rd",
    "sg:city":"Middleport",
    "sg:classifiers":[
        {
            "category":"Professional",
            "subcategory":"Business Services",
            "type":"Services"
        }
    ],
    "sg:owner":"simplegeo",
    "sg:phone":"+1   ",
    "sg:postcode":"14105",
    "sg:province":"NY",
    "src:geom":"simplegeo",
    "wof:belongsto":[],
    "wof:breaches":[],
    "wof:concordances":{
        "sg:id":"SG_6SZcVubWBSrYwCcTPyPrZW_43.195077_-78.476653@1294177022"
    },
    "wof:country":"US",
    "wof:geomhash":"322da652f919fe6ff9cc63755a80aec6",
    "wof:hierarchy":[],
    "wof:id":555364585,
    "wof:lastmodified":1461028162,
    "wof:name":"Mackays Appraisals",
    "wof:parent_id":-1,
    "wof:placetype":"venue",
    "wof:superseded_by":[],
    "wof:supersedes":[],
    "wof:tags":[]
},
  "bbox": [
    -78.476653,
    43.195077,
    -78.476653,
    43.195077
],
  "geometry": {"coordinates":[-78.476653,43.195077],"type":"Point"}
}