{
  "id": 572171273,
  "type": "Feature",
  "properties": {
    "edtf:cessation":"uuuu",
    "edtf:inception":"uuuu",
    "geom:area":0.0,
    "geom:bbox":"-74.276654,40.613948,-74.276654,40.613948",
    "geom:latitude":40.613948,
    "geom:longitude":-74.276654,
    "iso:country":"US",
    "sg:address":"1573 80th St",
    "sg:city":"Brooklyn",
    "sg:classifiers":[
        {
            "category":"Retail",
            "subcategory":"Car Wash",
            "type":"Services"
        },
        {
            "category":"Retail",
            "subcategory":"Auto Repair",
            "type":"Services"
        }
    ],
    "sg:owner":"simplegeo",
    "sg:phone":"+1 718 234 5390",
    "sg:postcode":"11228",
    "sg:province":"NY",
    "sg:tags":[
        "detailing"
    ],
    "src:geom":"simplegeo",
    "wof:belongsto":[],
    "wof:breaches":[],
    "wof:concordances":{
        "sg:id":"SG_4NwZNooIRA3cgGOAAUzYDU_40.613948_-74.276654@1303262346"
    },
    "wof:country":"US",
    "wof:geomhash":"6b8cfdccb16167ec2328ad5f54a8f0cb",
    "wof:hierarchy":[],
    "wof:id":572171273,
    "wof:lastmodified":1461051451,
    "wof:name":"Starlight",
    "wof:parent_id":-1,
    "wof:placetype":"venue",
    "wof:superseded_by":[],
    "wof:supersedes":[],
    "wof:tags":[
        "detailing"
    ]
},
  "bbox": [
    -74.276654,
    40.613948,
    -74.276654,
    40.613948
],
  "geometry": {"coordinates":[-74.27665399999999,40.613948],"type":"Point"}
}