{
  "id": 554938409,
  "type": "Feature",
  "properties": {
    "edtf:cessation":"uuuu",
    "edtf:inception":"uuuu",
    "geom:area":0.0,
    "geom:bbox":"-74.062517,41.078664,-74.062517,41.078664",
    "geom:latitude":41.078664,
    "geom:longitude":-74.062517,
    "iso:country":"US",
    "sg:address":"892 Chestnut Ridge Rd",
    "sg:city":"Spring Valley",
    "sg:classifiers":[
        {
            "category":"Education",
            "subcategory":"School",
            "type":"Public Place"
        }
    ],
    "sg:owner":"simplegeo",
    "sg:phone":"+1 845 577 6300",
    "sg:postcode":"10977",
    "sg:province":"NY",
    "src:geom":"simplegeo",
    "wof:belongsto":[
        85853261,
        102191575,
        404523097,
        85633793,
        85978555,
        102082385,
        85688543
    ],
    "wof:breaches":[],
    "wof:concordances":{
        "sg:id":"SG_0DsBq8FIEQZ21gA8Don6ku_41.078664_-74.062517@1294177022"
    },
    "wof:country":"US",
    "wof:geomhash":"0f12fda3bbbb995cd4323c73ece47821",
    "wof:hierarchy":[
        {
            "continent_id":102191575,
            "country_id":85633793,
            "county_id":102082385,
            "localadmin_id":404523097,
            "locality_id":85978555,
            "neighbourhood_id":85853261,
            "region_id":85688543,
            "venue_id":554938409
        }
    ],
    "wof:id":554938409,
    "wof:lastmodified":1461017475,
    "wof:name":"Chestnut Ridge Middle School",
    "wof:parent_id":85853261,
    "wof:placetype":"venue",
    "wof:superseded_by":[],
    "wof:supersedes":[],
    "wof:tags":[]
},
  "bbox": [
    -74.062517,
    41.078664,
    -74.062517,
    41.078664
],
  "geometry": {"coordinates":[-74.062517,41.078664],"type":"Point"}
}