{
  "id": 554935623,
  "type": "Feature",
  "properties": {
    "edtf:cessation":"uuuu",
    "edtf:inception":"uuuu",
    "geom:area":0.0,
    "geom:bbox":"-73.487385,41.131368,-73.487385,41.131368",
    "geom:latitude":41.131368,
    "geom:longitude":-73.487385,
    "iso:country":"US",
    "sg:address":"679 South Ave",
    "sg:city":"New Canaan",
    "sg:classifiers":[
        {
            "category":"Arts & Performance",
            "subcategory":"Theater",
            "type":"Entertainment"
        }
    ],
    "sg:owner":"simplegeo",
    "sg:phone":"+1 203 966 7084",
    "sg:postcode":"06840",
    "sg:province":"NY",
    "src:geom":"simplegeo",
    "wof:belongsto":[
        85688629,
        85633793,
        85851779,
        102084283
    ],
    "wof:breaches":[],
    "wof:concordances":{
        "sg:id":"SG_5wtCvqPhunvBMpEuXa6a6v_41.131368_-73.487385@1294177022"
    },
    "wof:country":"US",
    "wof:geomhash":"f69dc731d3c48d3f3b7a23ae4a492be6",
    "wof:hierarchy":[
        {
            "country_id":85633793,
            "county_id":102084283,
            "neighbourhood_id":85851779,
            "region_id":85688629,
            "venue_id":554935623
        }
    ],
    "wof:id":554935623,
    "wof:lastmodified":1461017097,
    "wof:name":"Town Players Of New Canaan",
    "wof:parent_id":85851779,
    "wof:placetype":"venue",
    "wof:superseded_by":[],
    "wof:supersedes":[],
    "wof:tags":[]
},
  "bbox": [
    -73.487385,
    41.131368,
    -73.487385,
    41.131368
],
  "geometry": {"coordinates":[-73.487385,41.131368],"type":"Point"}
}