{
  "id": 572174747,
  "type": "Feature",
  "properties": {
    "edtf:cessation":"uuuu",
    "edtf:inception":"uuuu",
    "geom:area":0.0,
    "geom:bbox":"-73.987995,40.903982,-73.987995,40.903982",
    "geom:latitude":40.903982,
    "geom:longitude":-73.987995,
    "iso:country":"US",
    "sg:address":"100 N Belle Mead Ave",
    "sg:city":"East Setauket",
    "sg:classifiers":[
        {
            "category":"Health Services",
            "subcategory":"Doctor",
            "type":"Services"
        }
    ],
    "sg:owner":"simplegeo",
    "sg:phone":"+1 631 751 8905",
    "sg:postcode":"11733",
    "sg:province":"NY",
    "src:geom":"simplegeo",
    "wof:belongsto":[
        85892381,
        102191575,
        404477531,
        85633793,
        85975879,
        102086773,
        85688607
    ],
    "wof:breaches":[],
    "wof:concordances":{
        "sg:id":"SG_3xziE7MpuLOyYeE8zD4gR3_40.903982_-73.987995@1303262374"
    },
    "wof:country":"US",
    "wof:geomhash":"97fa995e8d6997cba7aa0b7f6c0aef9a",
    "wof:hierarchy":[
        {
            "continent_id":102191575,
            "country_id":85633793,
            "county_id":102086773,
            "localadmin_id":404477531,
            "locality_id":85975879,
            "neighbourhood_id":85892381,
            "region_id":85688607,
            "venue_id":572174747
        }
    ],
    "wof:id":572174747,
    "wof:lastmodified":1461051555,
    "wof:name":"Kota Anjani Dgn Md",
    "wof:parent_id":85892381,
    "wof:placetype":"venue",
    "wof:superseded_by":[],
    "wof:supersedes":[],
    "wof:tags":[]
},
  "bbox": [
    -73.987995,
    40.903982,
    -73.987995,
    40.903982
],
  "geometry": {"coordinates":[-73.987995,40.903982],"type":"Point"}
}