{
  "id": 572176383,
  "type": "Feature",
  "properties": {
    "edtf:cessation":"uuuu",
    "edtf:inception":"uuuu",
    "geom:area":0.0,
    "geom:bbox":"-73.465074,43.883763,-73.465074,43.883763",
    "geom:latitude":43.883763,
    "geom:longitude":-73.465074,
    "iso:country":"US",
    "sg:address":"170 Warner Hill Rd",
    "sg:city":"Ticonderoga",
    "sg:classifiers":[
        {
            "category":"Manufacturing",
            "subcategory":"Buildings",
            "type":"Manufacturing & Wholesale Goods"
        },
        {
            "category":"Building & Trades",
            "subcategory":"Construction",
            "type":"Services"
        }
    ],
    "sg:owner":"simplegeo",
    "sg:phone":"+1 518 585 6832",
    "sg:postcode":"12883",
    "sg:province":"NY",
    "sg:tags":[
        "home",
        "builder",
        "contractor"
    ],
    "src:geom":"simplegeo",
    "wof:belongsto":[
        85688763,
        85633793,
        85868815,
        102080765
    ],
    "wof:breaches":[],
    "wof:concordances":{
        "sg:id":"SG_0Q3cRwZwdRuvrV3yAarQv7_43.883763_-73.465074@1303262390"
    },
    "wof:country":"US",
    "wof:geomhash":"5decf5312b09c322260288390b48a8d1",
    "wof:hierarchy":[
        {
            "country_id":85633793,
            "county_id":102080765,
            "neighbourhood_id":85868815,
            "region_id":85688763,
            "venue_id":572176383
        }
    ],
    "wof:id":572176383,
    "wof:lastmodified":1461051615,
    "wof:name":"F A Nadeau Contractor",
    "wof:parent_id":85868815,
    "wof:placetype":"venue",
    "wof:superseded_by":[],
    "wof:supersedes":[],
    "wof:tags":[
        "home",
        "builder",
        "contractor"
    ]
},
  "bbox": [
    -73.465074,
    43.883763,
    -73.465074,
    43.883763
],
  "geometry": {"coordinates":[-73.465074,43.883763],"type":"Point"}
}