{
  "id": 572170921,
  "type": "Feature",
  "properties": {
    "edtf:cessation":"uuuu",
    "edtf:inception":"uuuu",
    "geom:area":0.0,
    "geom:bbox":"-74.209579,40.642716,-74.209579,40.642716",
    "geom:latitude":40.642716,
    "geom:longitude":-74.209579,
    "iso:country":"US",
    "sg:address":"521 54th St",
    "sg:city":"Brooklyn",
    "sg:classifiers":[
        {
            "category":"Organizations",
            "subcategory":"Religious Organization",
            "type":"Services"
        }
    ],
    "sg:owner":"simplegeo",
    "sg:phone":"+1 718 439 4692",
    "sg:postcode":"11220",
    "sg:province":"NY",
    "src:geom":"simplegeo",
    "wof:belongsto":[
        85868017,
        102191575,
        404478497,
        85633793,
        85975847,
        102085995,
        85688607
    ],
    "wof:breaches":[],
    "wof:concordances":{
        "sg:id":"SG_3h1dYFCHjL0GOMfjqvddRv_40.642716_-74.209579@1303262344"
    },
    "wof:country":"US",
    "wof:geomhash":"8e2057f1dea6dce227a4bb2c171f22fe",
    "wof:hierarchy":[
        {
            "continent_id":102191575,
            "country_id":85633793,
            "county_id":102085995,
            "localadmin_id":404478497,
            "locality_id":85975847,
            "neighbourhood_id":85868017,
            "region_id":85688607,
            "venue_id":572170921
        }
    ],
    "wof:id":572170921,
    "wof:lastmodified":1461051436,
    "wof:name":"La Luz Del Mundo",
    "wof:parent_id":85868017,
    "wof:placetype":"venue",
    "wof:superseded_by":[],
    "wof:supersedes":[],
    "wof:tags":[]
},
  "bbox": [
    -74.209579,
    40.642716,
    -74.209579,
    40.642716
],
  "geometry": {"coordinates":[-74.20957900000001,40.642716],"type":"Point"}
}