{
  "id": 572170903,
  "type": "Feature",
  "properties": {
    "edtf:cessation":"uuuu",
    "edtf:inception":"uuuu",
    "geom:area":0.0,
    "geom:bbox":"-74.208579,40.639693,-74.208579,40.639693",
    "geom:latitude":40.639693,
    "geom:longitude":-74.208579,
    "iso:country":"US",
    "sg:address":"5711 6th Ave",
    "sg:city":"Brooklyn",
    "sg:classifiers":[
        {
            "category":"Shopping",
            "subcategory":"Pharmacy",
            "type":"Retail Goods"
        }
    ],
    "sg:owner":"simplegeo",
    "sg:phone":"+1 718 680 1982",
    "sg:postcode":"11220",
    "sg:province":"NY",
    "sg:tags":[
        "drugstore"
    ],
    "src:geom":"simplegeo",
    "wof:belongsto":[
        85804971,
        102191575,
        404478503,
        85633793,
        85975837,
        102085995,
        85688607
    ],
    "wof:breaches":[],
    "wof:concordances":{
        "sg:id":"SG_0gwAF35mdCUrekThlJPON5_40.639693_-74.208579@1303262344"
    },
    "wof:country":"US",
    "wof:geomhash":"ca36d900356189b4eb61db3625878071",
    "wof:hierarchy":[
        {
            "continent_id":102191575,
            "country_id":85633793,
            "county_id":102085995,
            "localadmin_id":404478503,
            "locality_id":85975837,
            "neighbourhood_id":85804971,
            "region_id":85688607,
            "venue_id":572170903
        }
    ],
    "wof:id":572170903,
    "wof:lastmodified":1461051435,
    "wof:name":"Loving Pharmacy Inc",
    "wof:parent_id":85804971,
    "wof:placetype":"venue",
    "wof:superseded_by":[],
    "wof:supersedes":[],
    "wof:tags":[
        "drugstore"
    ]
},
  "bbox": [
    -74.208579,
    40.639693,
    -74.208579,
    40.639693
],
  "geometry": {"coordinates":[-74.208579,40.639693],"type":"Point"}
}