{
  "id": 572174593,
  "type": "Feature",
  "properties": {
    "edtf:cessation":"uuuu",
    "edtf:inception":"uuuu",
    "geom:area":0.0,
    "geom:bbox":"-73.987179,40.862177,-73.987179,40.862177",
    "geom:latitude":40.862177,
    "geom:longitude":-73.987179,
    "iso:country":"US",
    "sg:address":"1351 Middle Country Rd",
    "sg:city":"Centereach",
    "sg:classifiers":[
        {
            "category":"Professional",
            "subcategory":"Computer Services",
            "type":"Services"
        }
    ],
    "sg:owner":"simplegeo",
    "sg:phone":"+1 631 846 1273",
    "sg:postcode":"11720",
    "sg:province":"NY",
    "sg:tags":[
        "repair"
    ],
    "src:geom":"simplegeo",
    "wof:belongsto":[
        85830809,
        102191575,
        404477537,
        85633793,
        85975869,
        102086773,
        85688607
    ],
    "wof:breaches":[],
    "wof:concordances":{
        "sg:id":"SG_5Ashjyy0yvREbijfiK08my_40.862177_-73.987179@1303262373"
    },
    "wof:country":"US",
    "wof:geomhash":"9df6233bbee0ba2ef11f983d5a72f41a",
    "wof:hierarchy":[
        {
            "continent_id":102191575,
            "country_id":85633793,
            "county_id":102086773,
            "localadmin_id":404477537,
            "locality_id":85975869,
            "neighbourhood_id":85830809,
            "region_id":85688607,
            "venue_id":572174593
        }
    ],
    "wof:id":572174593,
    "wof:lastmodified":1461051550,
    "wof:name":"FTL COMPUTER SERVICE INC",
    "wof:parent_id":85830809,
    "wof:placetype":"venue",
    "wof:superseded_by":[],
    "wof:supersedes":[],
    "wof:tags":[
        "repair"
    ]
},
  "bbox": [
    -73.987179,
    40.862177,
    -73.987179,
    40.862177
],
  "geometry": {"coordinates":[-73.987179,40.862177],"type":"Point"}
}