{
  "id": 554934783,
  "type": "Feature",
  "properties": {
    "edtf:cessation":"uuuu",
    "edtf:inception":"uuuu",
    "geom:area":0.0,
    "geom:bbox":"-73.52113,41.166614,-73.52113,41.166614",
    "geom:latitude":41.166614,
    "geom:longitude":-73.52113,
    "iso:country":"US",
    "sg:address":"461 West Rd",
    "sg:city":"New Canaan",
    "sg:classifiers":[
        {
            "category":"Organizations",
            "subcategory":"Community Association",
            "type":"Services"
        }
    ],
    "sg:owner":"simplegeo",
    "sg:phone":"+1 203 966 8812",
    "sg:postcode":"06840",
    "sg:province":"NY",
    "sg:tags":[
        "support",
        "business"
    ],
    "src:geom":"simplegeo",
    "wof:belongsto":[],
    "wof:breaches":[],
    "wof:concordances":{
        "sg:id":"SG_57Cx4dl6N8Rj82KxuqaSqf_41.166614_-73.521130@1294177022"
    },
    "wof:country":"US",
    "wof:geomhash":"9ef42363fc9dbb70f6cf8624fd7ff1be",
    "wof:hierarchy":[],
    "wof:id":554934783,
    "wof:lastmodified":1461016983,
    "wof:name":"Meeting Support Svc",
    "wof:parent_id":-1,
    "wof:placetype":"venue",
    "wof:superseded_by":[],
    "wof:supersedes":[],
    "wof:tags":[
        "support",
        "business"
    ]
},
  "bbox": [
    -73.52113,
    41.166614,
    -73.52113,
    41.166614
],
  "geometry": {"coordinates":[-73.52113,41.166614],"type":"Point"}
}