{
  "id": 554940535,
  "type": "Feature",
  "properties": {
    "edtf:cessation":"uuuu",
    "edtf:inception":"uuuu",
    "geom:area":0.0,
    "geom:bbox":"-73.503065,41.132229,-73.503065,41.132229",
    "geom:latitude":41.132229,
    "geom:longitude":-73.503065,
    "iso:country":"US",
    "sg:address":"405 Weed St",
    "sg:city":"New Canaan",
    "sg:classifiers":[
        {
            "category":"Professional",
            "subcategory":"",
            "type":"Services"
        }
    ],
    "sg:owner":"simplegeo",
    "sg:phone":"+1 203 966 7252",
    "sg:postcode":"06840",
    "sg:province":"NY",
    "sg:tags":[
        "establishment"
    ],
    "src:geom":"simplegeo",
    "wof:belongsto":[
        85688629,
        85633793,
        85851779,
        102084283
    ],
    "wof:breaches":[],
    "wof:concordances":{
        "sg:id":"SG_19jBgGiM9cUDOQfzor6fd9_41.132229_-73.503065@1294177022"
    },
    "wof:country":"US",
    "wof:geomhash":"1e5f2bdfdec0664357935f2cfc0bdcbb",
    "wof:hierarchy":[
        {
            "country_id":85633793,
            "county_id":102084283,
            "neighbourhood_id":85851779,
            "region_id":85688629,
            "venue_id":554940535
        }
    ],
    "wof:id":554940535,
    "wof:lastmodified":1461017661,
    "wof:name":"Benenson Serena Assoc",
    "wof:parent_id":85851779,
    "wof:placetype":"venue",
    "wof:superseded_by":[],
    "wof:supersedes":[],
    "wof:tags":[
        "establishment"
    ]
},
  "bbox": [
    -73.503065,
    41.132229,
    -73.503065,
    41.132229
],
  "geometry": {"coordinates":[-73.50306500000001,41.132229],"type":"Point"}
}