{
  "id": 555661549,
  "type": "Feature",
  "properties": {
    "edtf:cessation":"uuuu",
    "edtf:inception":"uuuu",
    "geom:area":0.0,
    "geom:bbox":"-74.989195,43.028916,-74.989195,43.028916",
    "geom:latitude":43.028916,
    "geom:longitude":-74.989195,
    "iso:country":"US",
    "sg:address":"300 N Main St",
    "sg:city":"Herkimer",
    "sg:classifiers":[
        {
            "category":"Organizations",
            "subcategory":"Religious Organization",
            "type":"Services"
        }
    ],
    "sg:owner":"simplegeo",
    "sg:phone":"+1   ",
    "sg:postcode":"13350",
    "sg:province":"NY",
    "sg:website":"www.christchurch.netfrim.com",
    "src:geom":"simplegeo",
    "wof:belongsto":[],
    "wof:breaches":[],
    "wof:concordances":{
        "sg:id":"SG_5OOmYGiwOc9dCsH3xBNfYb_43.028916_-74.989195@1294177022"
    },
    "wof:country":"US",
    "wof:geomhash":"54e43a5c363c63ae1ac638cd2c3b9fbe",
    "wof:hierarchy":[],
    "wof:id":555661549,
    "wof:lastmodified":1461034853,
    "wof:name":"Christ Episcopal Church",
    "wof:parent_id":420528829,
    "wof:placetype":"venue",
    "wof:superseded_by":[],
    "wof:supersedes":[],
    "wof:tags":[]
},
  "bbox": [
    -74.989195,
    43.028916,
    -74.989195,
    43.028916
],
  "geometry": {"coordinates":[-74.989195,43.028916],"type":"Point"}
}