{
  "id": 554937285,
  "type": "Feature",
  "properties": {
    "edtf:cessation":"uuuu",
    "edtf:inception":"uuuu",
    "geom:area":0.0,
    "geom:bbox":"-73.518799,41.130638,-73.518799,41.130638",
    "geom:latitude":41.130638,
    "geom:longitude":-73.518799,
    "iso:country":"US",
    "sg:address":"568 Frogtown Rd",
    "sg:city":"New Canaan",
    "sg:classifiers":[
        {
            "category":"Professional",
            "subcategory":"Computer Services",
            "type":"Services"
        }
    ],
    "sg:owner":"simplegeo",
    "sg:phone":"+1   ",
    "sg:postcode":"06840",
    "sg:province":"NY",
    "sg:tags":[
        "datum"
    ],
    "src:geom":"simplegeo",
    "wof:belongsto":[
        85688629,
        85633793,
        85851779,
        102084283
    ],
    "wof:breaches":[],
    "wof:concordances":{
        "sg:id":"SG_4oUJK7KhsGvs1NIGepDord_41.130638_-73.518799@1294177022"
    },
    "wof:country":"US",
    "wof:geomhash":"5f172382bf4c35f675f324d72ae21968",
    "wof:hierarchy":[
        {
            "country_id":85633793,
            "county_id":102084283,
            "neighbourhood_id":85851779,
            "region_id":85688629,
            "venue_id":554937285
        }
    ],
    "wof:id":554937285,
    "wof:lastmodified":1461017346,
    "wof:name":"Brierdesig Net LLC",
    "wof:parent_id":85851779,
    "wof:placetype":"venue",
    "wof:superseded_by":[],
    "wof:supersedes":[],
    "wof:tags":[
        "datum"
    ]
},
  "bbox": [
    -73.518799,
    41.130638,
    -73.518799,
    41.130638
],
  "geometry": {"coordinates":[-73.518799,41.130638],"type":"Point"}
}