{
  "id": 555633097,
  "type": "Feature",
  "properties": {
    "edtf:cessation":"uuuu",
    "edtf:inception":"uuuu",
    "geom:area":0.0,
    "geom:bbox":"-73.533041,40.867214,-73.533041,40.867214",
    "geom:latitude":40.867214,
    "geom:longitude":-73.533041,
    "iso:country":"US",
    "sg:address":"19 Sampson St",
    "sg:city":"Oyster Bay",
    "sg:classifiers":[
        {
            "category":"Social Services",
            "subcategory":"Child Care",
            "type":"Services"
        }
    ],
    "sg:owner":"simplegeo",
    "sg:phone":"+1   ",
    "sg:postcode":"11771",
    "sg:province":"NY",
    "sg:tags":[
        "day"
    ],
    "src:geom":"simplegeo",
    "wof:belongsto":[],
    "wof:breaches":[],
    "wof:concordances":{
        "sg:id":"SG_3PNcEwb2mlWLXCl9CKn6PT_40.867214_-73.533041@1294177022"
    },
    "wof:country":"US",
    "wof:geomhash":"a36874a6f8c601c9bb8dc79bafda7430",
    "wof:hierarchy":[],
    "wof:id":555633097,
    "wof:lastmodified":1461034269,
    "wof:name":"Project Child Growth Inc",
    "wof:parent_id":-1,
    "wof:placetype":"venue",
    "wof:superseded_by":[],
    "wof:supersedes":[],
    "wof:tags":[
        "day"
    ]
},
  "bbox": [
    -73.533041,
    40.867214,
    -73.533041,
    40.867214
],
  "geometry": {"coordinates":[-73.533041,40.867214],"type":"Point"}
}