{
  "id": 554935143,
  "type": "Feature",
  "properties": {
    "edtf:cessation":"uuuu",
    "edtf:inception":"uuuu",
    "geom:area":0.0,
    "geom:bbox":"-79.718999,42.102228,-79.718999,42.102228",
    "geom:latitude":42.102228,
    "geom:longitude":-79.718999,
    "iso:country":"US",
    "sg:address":"2334 State Hwy 426",
    "sg:city":"Clymer",
    "sg:classifiers":[
        {
            "category":"Travel",
            "subcategory":"Campground",
            "type":"Entertainment"
        }
    ],
    "sg:owner":"simplegeo",
    "sg:phone":"+1 716 769 7146",
    "sg:postcode":"14724",
    "sg:province":"NY",
    "sg:tags":[
        "camp"
    ],
    "sg:website":"www.gbgm-umc.org",
    "src:geom":"simplegeo",
    "wof:belongsto":[
        85688481,
        85633793,
        85850957,
        102080955
    ],
    "wof:breaches":[],
    "wof:concordances":{
        "sg:id":"SG_6XEj1qmSFlC6Q6h7BIWKQT_42.102228_-79.718999@1294177022"
    },
    "wof:country":"US",
    "wof:geomhash":"10c33595a98f06062785dbf8324aedc2",
    "wof:hierarchy":[
        {
            "country_id":85633793,
            "county_id":102080955,
            "neighbourhood_id":85850957,
            "region_id":85688481,
            "venue_id":554935143
        }
    ],
    "wof:id":554935143,
    "wof:lastmodified":1461017029,
    "wof:name":"Camp Findley Methodist Church",
    "wof:parent_id":85850957,
    "wof:placetype":"venue",
    "wof:superseded_by":[],
    "wof:supersedes":[],
    "wof:tags":[
        "camp"
    ]
},
  "bbox": [
    -79.718999,
    42.102228,
    -79.718999,
    42.102228
],
  "geometry": {"coordinates":[-79.718999,42.102228],"type":"Point"}
}