{
  "id": 554936959,
  "type": "Feature",
  "properties": {
    "edtf:cessation":"uuuu",
    "edtf:inception":"uuuu",
    "geom:area":0.0,
    "geom:bbox":"-73.506903,41.181106,-73.506903,41.181106",
    "geom:latitude":41.181106,
    "geom:longitude":-73.506903,
    "iso:country":"US",
    "sg:address":"25 Father Peters Ln",
    "sg:city":"New Canaan",
    "sg:classifiers":[
        {
            "category":"Autos & Motor Vehicles",
            "subcategory":"Auto Supplies",
            "type":"Retail Goods"
        }
    ],
    "sg:owner":"simplegeo",
    "sg:phone":"+1 203 966 5756",
    "sg:postcode":"06840",
    "sg:province":"NY",
    "src:geom":"simplegeo",
    "wof:belongsto":[],
    "wof:breaches":[],
    "wof:concordances":{
        "sg:id":"SG_0bO0If3cfpl9uz9TnisbJk_41.181106_-73.506903@1294177022"
    },
    "wof:country":"US",
    "wof:geomhash":"b5d0d34906f699ea698a77f3cc62213c",
    "wof:hierarchy":[],
    "wof:id":554936959,
    "wof:lastmodified":1461017297,
    "wof:name":"Gogoracing LLC",
    "wof:parent_id":-1,
    "wof:placetype":"venue",
    "wof:superseded_by":[],
    "wof:supersedes":[],
    "wof:tags":[]
},
  "bbox": [
    -73.506903,
    41.181106,
    -73.506903,
    41.181106
],
  "geometry": {"coordinates":[-73.50690299999999,41.181106],"type":"Point"}
}