{
  "id": 571609437,
  "type": "Feature",
  "properties": {
    "edtf:cessation":"uuuu",
    "edtf:inception":"uuuu",
    "geom:area":0.0,
    "geom:bbox":"-73.974297,40.68,-73.974297,40.68",
    "geom:latitude":40.68,
    "geom:longitude":-73.974297,
    "iso:country":"US",
    "sg:address":"267 Flatbush Ave",
    "sg:city":"Brooklyn",
    "sg:classifiers":[
        {
            "category":"Professional",
            "subcategory":"Lawyer & Legal Services",
            "type":"Services"
        }
    ],
    "sg:owner":"simplegeo",
    "sg:phone":"+1 718 789 0516",
    "sg:postcode":"11217",
    "sg:province":"NY",
    "src:geom":"simplegeo",
    "wof:belongsto":[
        85869601,
        102191575,
        85633793,
        85977539,
        421205765,
        102082361,
        85688543
    ],
    "wof:breaches":[],
    "wof:concordances":{
        "sg:id":"SG_2wLp8IwJYbYV8VDELvyUtA_40.680242_-73.974501@1293134755"
    },
    "wof:country":"US",
    "wof:geomhash":"3d6b46989f6068a3d83233425fe0675c",
    "wof:hierarchy":[
        {
            "borough_id":421205765,
            "continent_id":102191575,
            "country_id":85633793,
            "county_id":102082361,
            "locality_id":85977539,
            "neighbourhood_id":85869601,
            "region_id":85688543,
            "venue_id":571609437
        }
    ],
    "wof:id":571609437,
    "wof:lastmodified":1461039640,
    "wof:name":"Krimko Melvin R",
    "wof:parent_id":85869601,
    "wof:placetype":"venue",
    "wof:superseded_by":[],
    "wof:supersedes":[],
    "wof:tags":[]
},
  "bbox": [
    -73.974297,
    40.68,
    -73.974297,
    40.68
],
  "geometry": {"coordinates":[-73.97429700000001,40.68],"type":"Point"}
}