{
  "id": 572171315,
  "type": "Feature",
  "properties": {
    "edtf:cessation":"uuuu",
    "edtf:inception":"uuuu",
    "geom:area":0.0,
    "geom:bbox":"-74.285296,40.60777,-74.285296,40.60777",
    "geom:latitude":40.60777,
    "geom:longitude":-74.285296,
    "iso:country":"US",
    "sg:address":"1508 Bath Ave",
    "sg:city":"Brooklyn",
    "sg:classifiers":[
        {
            "category":"Retail",
            "subcategory":"Auto Repair",
            "type":"Services"
        }
    ],
    "sg:owner":"simplegeo",
    "sg:phone":"+1 718 851 5090",
    "sg:postcode":"11228",
    "sg:province":"NY",
    "src:geom":"simplegeo",
    "wof:belongsto":[],
    "wof:breaches":[],
    "wof:concordances":{
        "sg:id":"SG_36TKWXfS62xehUpSS68Rf0_40.607770_-74.285296@1303262347"
    },
    "wof:country":"US",
    "wof:geomhash":"1655752c6b1dd8a31f339c818743c8f9",
    "wof:hierarchy":[],
    "wof:id":572171315,
    "wof:lastmodified":1461051451,
    "wof:name":"A0 A0 A0 towing 24-7",
    "wof:parent_id":-1,
    "wof:placetype":"venue",
    "wof:superseded_by":[],
    "wof:supersedes":[],
    "wof:tags":[]
},
  "bbox": [
    -74.285296,
    40.60777,
    -74.285296,
    40.60777
],
  "geometry": {"coordinates":[-74.285296,40.60777],"type":"Point"}
}