{
  "id": 554940119,
  "type": "Feature",
  "properties": {
    "edtf:cessation":"uuuu",
    "edtf:inception":"uuuu",
    "geom:area":0.0,
    "geom:bbox":"-74.056113,41.084144,-74.056113,41.084144",
    "geom:latitude":41.084144,
    "geom:longitude":-74.056113,
    "iso:country":"US",
    "sg:address":"6 Red Schoolhouse Rd",
    "sg:city":"Spring Valley",
    "sg:classifiers":[
        {
            "category":"Shopping",
            "subcategory":"Stationery & Office Supplies",
            "type":"Retail Goods"
        }
    ],
    "sg:owner":"simplegeo",
    "sg:phone":"+1 845 352 7707",
    "sg:postcode":"10977",
    "sg:province":"NY",
    "sg:tags":[
        "stationer"
    ],
    "src:geom":"simplegeo",
    "wof:belongsto":[
        85853261,
        102191575,
        404523097,
        85633793,
        85978555,
        102082385,
        85688543
    ],
    "wof:breaches":[],
    "wof:concordances":{
        "sg:id":"SG_7COhMerSbkXeO261Q64IUQ_41.084144_-74.056113@1294177022"
    },
    "wof:country":"US",
    "wof:geomhash":"cfff76ede0ef82dcac49a3e7a703cddd",
    "wof:hierarchy":[
        {
            "continent_id":102191575,
            "country_id":85633793,
            "county_id":102082385,
            "localadmin_id":404523097,
            "locality_id":85978555,
            "neighbourhood_id":85853261,
            "region_id":85688543,
            "venue_id":554940119
        }
    ],
    "wof:id":554940119,
    "wof:lastmodified":1461017626,
    "wof:name":"Lucky Stationery",
    "wof:parent_id":85853261,
    "wof:placetype":"venue",
    "wof:superseded_by":[],
    "wof:supersedes":[],
    "wof:tags":[
        "stationer"
    ]
},
  "bbox": [
    -74.056113,
    41.084144,
    -74.056113,
    41.084144
],
  "geometry": {"coordinates":[-74.056113,41.084144],"type":"Point"}
}