{
  "id": 555492499,
  "type": "Feature",
  "properties": {
    "edtf:cessation":"uuuu",
    "edtf:inception":"uuuu",
    "geom:area":0.0,
    "geom:bbox":"-78.556423,42.886008,-78.556423,42.886008",
    "geom:latitude":42.886008,
    "geom:longitude":-78.556423,
    "iso:country":"US",
    "sg:address":"11506 Gebhard Ln",
    "sg:city":"Alden",
    "sg:classifiers":[
        {
            "category":"Utilities",
            "subcategory":"Telephone",
            "type":"Services"
        }
    ],
    "sg:owner":"simplegeo",
    "sg:phone":"+1   ",
    "sg:postcode":"14004",
    "sg:province":"NY",
    "sg:tags":[
        "communications"
    ],
    "src:geom":"simplegeo",
    "wof:belongsto":[],
    "wof:breaches":[],
    "wof:concordances":{
        "sg:id":"SG_0SwMtLs7oYUFc3nKSdflhA_42.886008_-78.556423@1294177022"
    },
    "wof:country":"US",
    "wof:geomhash":"e1333a569735ee78185864be95a499f6",
    "wof:hierarchy":[],
    "wof:id":555492499,
    "wof:lastmodified":1461031155,
    "wof:name":"Hosteuphoria Webhosting",
    "wof:parent_id":-1,
    "wof:placetype":"venue",
    "wof:superseded_by":[],
    "wof:supersedes":[],
    "wof:tags":[
        "communications"
    ]
},
  "bbox": [
    -78.556423,
    42.886008,
    -78.556423,
    42.886008
],
  "geometry": {"coordinates":[-78.556423,42.886008],"type":"Point"}
}