{
  "id": 554940037,
  "type": "Feature",
  "properties": {
    "edtf:cessation":"uuuu",
    "edtf:inception":"uuuu",
    "geom:area":0.0,
    "geom:bbox":"-73.527299,41.138794,-73.527299,41.138794",
    "geom:latitude":41.138794,
    "geom:longitude":-73.527299,
    "iso:country":"US",
    "sg:address":"802 Ponus Ridge",
    "sg:city":"New Canaan",
    "sg:classifiers":[
        {
            "category":"Travel",
            "subcategory":"Campground",
            "type":"Entertainment"
        }
    ],
    "sg:owner":"simplegeo",
    "sg:phone":"+1 203 966 4315",
    "sg:postcode":"06840",
    "sg:province":"NY",
    "sg:tags":[
        "camp"
    ],
    "src:geom":"simplegeo",
    "wof:belongsto":[
        85688629,
        85633793,
        85842701,
        102084283
    ],
    "wof:breaches":[],
    "wof:concordances":{
        "sg:id":"SG_7mAZmhvXC3loKn5LkBxzHw_41.138794_-73.527299@1294177022"
    },
    "wof:country":"US",
    "wof:geomhash":"4c55ec0ec63eb529cf0afcbd72af4809",
    "wof:hierarchy":[
        {
            "country_id":85633793,
            "county_id":102084283,
            "neighbourhood_id":85842701,
            "region_id":85688629,
            "venue_id":554940037
        }
    ],
    "wof:id":554940037,
    "wof:lastmodified":1461017618,
    "wof:name":"Camp Playland Of New Canaan",
    "wof:parent_id":85842701,
    "wof:placetype":"venue",
    "wof:superseded_by":[],
    "wof:supersedes":[],
    "wof:tags":[
        "camp"
    ]
},
  "bbox": [
    -73.527299,
    41.138794,
    -73.527299,
    41.138794
],
  "geometry": {"coordinates":[-73.527299,41.138794],"type":"Point"}
}