{
  "id": 554937227,
  "type": "Feature",
  "properties": {
    "edtf:cessation":"uuuu",
    "edtf:inception":"uuuu",
    "geom:area":0.0,
    "geom:bbox":"-73.23207,42.540293,-73.23207,42.540293",
    "geom:latitude":42.540293,
    "geom:longitude":-73.23207,
    "iso:country":"US",
    "sg:address":"16 Bailey Rd",
    "sg:city":"Lanesboro",
    "sg:classifiers":[
        {
            "category":"Freight",
            "subcategory":"",
            "type":"Transportation"
        }
    ],
    "sg:owner":"simplegeo",
    "sg:phone":"+1 413 499 8886",
    "sg:postcode":"01237",
    "sg:province":"NY",
    "sg:tags":[
        "commercial",
        "storage"
    ],
    "src:geom":"simplegeo",
    "wof:belongsto":[
        85688645,
        85633793,
        85829509,
        102084369
    ],
    "wof:breaches":[],
    "wof:concordances":{
        "sg:id":"SG_3zTM8kfBtwiGSRZkuasDil_42.540293_-73.232070@1294177022"
    },
    "wof:country":"US",
    "wof:geomhash":"df9957593826280f0d7ad8e0cfa1df00",
    "wof:hierarchy":[
        {
            "country_id":85633793,
            "county_id":102084369,
            "neighbourhood_id":85829509,
            "region_id":85688645,
            "venue_id":554937227
        }
    ],
    "wof:id":554937227,
    "wof:lastmodified":1461017338,
    "wof:name":"Lion's Moving & Storage",
    "wof:parent_id":85829509,
    "wof:placetype":"venue",
    "wof:superseded_by":[],
    "wof:supersedes":[],
    "wof:tags":[
        "commercial",
        "storage"
    ]
},
  "bbox": [
    -73.23207,
    42.540293,
    -73.23207,
    42.540293
],
  "geometry": {"coordinates":[-73.23206999999999,42.540293],"type":"Point"}
}