{
  "id": 554938141,
  "type": "Feature",
  "properties": {
    "edtf:cessation":"uuuu",
    "edtf:inception":"uuuu",
    "geom:area":0.0,
    "geom:bbox":"-79.730363,42.10642,-79.730363,42.10642",
    "geom:latitude":42.10642,
    "geom:longitude":-79.730363,
    "iso:country":"US",
    "sg:address":"2566 Parsonage Rd",
    "sg:city":"Findley Lake",
    "sg:classifiers":[
        {
            "category":"Organizations",
            "subcategory":"Religious Organization",
            "type":"Services"
        }
    ],
    "sg:owner":"simplegeo",
    "sg:phone":"+1 716 769 7425",
    "sg:postcode":"14724",
    "sg:province":"NY",
    "sg:tags":[
        "clergy"
    ],
    "src:geom":"simplegeo",
    "wof:belongsto":[
        85688481,
        85633793,
        85850957,
        102080955
    ],
    "wof:breaches":[],
    "wof:concordances":{
        "sg:id":"SG_7L2WzygKTBlMZIsM1qplE9_42.106420_-79.730363@1294177022"
    },
    "wof:country":"US",
    "wof:geomhash":"031cdfc7ea68234c504b2ea8a983ca81",
    "wof:hierarchy":[
        {
            "country_id":85633793,
            "county_id":102080955,
            "neighbourhood_id":85850957,
            "region_id":85688481,
            "venue_id":554938141
        }
    ],
    "wof:id":554938141,
    "wof:lastmodified":1461017446,
    "wof:name":"James Pegan",
    "wof:parent_id":85850957,
    "wof:placetype":"venue",
    "wof:superseded_by":[],
    "wof:supersedes":[],
    "wof:tags":[
        "clergy"
    ]
},
  "bbox": [
    -79.730363,
    42.10642,
    -79.730363,
    42.10642
],
  "geometry": {"coordinates":[-79.730363,42.10642],"type":"Point"}
}