{
  "id": 554935169,
  "type": "Feature",
  "properties": {
    "edtf:cessation":"uuuu",
    "edtf:inception":"uuuu",
    "geom:area":0.0,
    "geom:bbox":"-73.225408,42.519385,-73.225408,42.519385",
    "geom:latitude":42.519385,
    "geom:longitude":-73.225408,
    "iso:country":"US",
    "sg:address":"69 Prospect St",
    "sg:city":"Lanesboro",
    "sg:classifiers":[
        {
            "category":"Building & Trades",
            "subcategory":"Construction",
            "type":"Services"
        }
    ],
    "sg:owner":"simplegeo",
    "sg:phone":"+1 413 499 6169",
    "sg:postcode":"01237",
    "sg:province":"NY",
    "sg:tags":[
        "general",
        "contractor"
    ],
    "src:geom":"simplegeo",
    "wof:belongsto":[
        85688645,
        85633793,
        85829509,
        102084369
    ],
    "wof:breaches":[],
    "wof:concordances":{
        "sg:id":"SG_37gsbaEKLGXqyKwIhCqEti_42.519385_-73.225408@1294177022"
    },
    "wof:country":"US",
    "wof:geomhash":"4f7c605cbb7daf250748eb942ba66723",
    "wof:hierarchy":[
        {
            "country_id":85633793,
            "county_id":102084369,
            "neighbourhood_id":85829509,
            "region_id":85688645,
            "venue_id":554935169
        }
    ],
    "wof:id":554935169,
    "wof:lastmodified":1461017033,
    "wof:name":"H J Pirzl General Contracting",
    "wof:parent_id":85829509,
    "wof:placetype":"venue",
    "wof:superseded_by":[],
    "wof:supersedes":[],
    "wof:tags":[
        "general",
        "contractor"
    ]
},
  "bbox": [
    -73.225408,
    42.519385,
    -73.225408,
    42.519385
],
  "geometry": {"coordinates":[-73.225408,42.519385],"type":"Point"}
}