{
  "id": 572170673,
  "type": "Feature",
  "properties": {
    "edtf:cessation":"uuuu",
    "edtf:inception":"uuuu",
    "geom:area":0.0,
    "geom:bbox":"-74.268831,40.634436,-74.268831,40.634436",
    "geom:latitude":40.634436,
    "geom:longitude":-74.268831,
    "iso:country":"US",
    "sg:address":"5701 Fort Hamilton Pkwy",
    "sg:city":"Brooklyn",
    "sg:classifiers":[
        {
            "category":"Food & Beverages",
            "subcategory":"Groceries & Convenience Stores",
            "type":"Retail Goods"
        }
    ],
    "sg:owner":"simplegeo",
    "sg:phone":"+1 718 686 1788",
    "sg:postcode":"11219",
    "sg:province":"NY",
    "src:geom":"simplegeo",
    "wof:belongsto":[
        85802619,
        102191575,
        404477587,
        85633793,
        85975833,
        102085995,
        85688607
    ],
    "wof:breaches":[],
    "wof:concordances":{
        "sg:id":"SG_46tqL56z9NGiueYrzhoL7a_40.634436_-74.268831@1303262343"
    },
    "wof:country":"US",
    "wof:geomhash":"205b170fbc5d1b410bec79ab95d0b955",
    "wof:hierarchy":[
        {
            "continent_id":102191575,
            "country_id":85633793,
            "county_id":102085995,
            "localadmin_id":404477587,
            "locality_id":85975833,
            "neighbourhood_id":85802619,
            "region_id":85688607,
            "venue_id":572170673
        }
    ],
    "wof:id":572170673,
    "wof:lastmodified":1461051429,
    "wof:name":"Da Hong Grocery Inc",
    "wof:parent_id":85802619,
    "wof:placetype":"venue",
    "wof:superseded_by":[],
    "wof:supersedes":[],
    "wof:tags":[]
},
  "bbox": [
    -74.268831,
    40.634436,
    -74.268831,
    40.634436
],
  "geometry": {"coordinates":[-74.26883100000001,40.634436],"type":"Point"}
}