{
  "id": 555537623,
  "type": "Feature",
  "properties": {
    "edtf:cessation":"uuuu",
    "edtf:inception":"uuuu",
    "geom:area":0.0,
    "geom:bbox":"-73.416215,40.674024,-73.416215,40.674024",
    "geom:latitude":40.674024,
    "geom:longitude":-73.416215,
    "iso:country":"US",
    "sg:address":"95 Broadway",
    "sg:city":"Amityville",
    "sg:classifiers":[
        {
            "category":"Insurance",
            "subcategory":"Insurance Agent",
            "type":"Services"
        }
    ],
    "sg:owner":"simplegeo",
    "sg:phone":"+1 631 691 6400",
    "sg:postcode":"11701",
    "sg:province":"NY",
    "sg:tags":[
        "agency"
    ],
    "sg:website":"www.americanprofessional.com",
    "src:geom":"simplegeo",
    "wof:belongsto":[],
    "wof:breaches":[],
    "wof:concordances":{
        "sg:id":"SG_6nckM6aAKpVgbgIBf318XM_40.674024_-73.416215@1294177022"
    },
    "wof:country":"US",
    "wof:geomhash":"226bf2d8e987ed5b2982e3d306f27458",
    "wof:hierarchy":[],
    "wof:id":555537623,
    "wof:lastmodified":1461032273,
    "wof:name":"American Professional Agency",
    "wof:parent_id":-1,
    "wof:placetype":"venue",
    "wof:superseded_by":[],
    "wof:supersedes":[],
    "wof:tags":[
        "agency"
    ]
},
  "bbox": [
    -73.416215,
    40.674024,
    -73.416215,
    40.674024
],
  "geometry": {"coordinates":[-73.41621499999999,40.674024],"type":"Point"}
}