{
  "id": 554935845,
  "type": "Feature",
  "properties": {
    "edtf:cessation":"uuuu",
    "edtf:inception":"uuuu",
    "geom:area":0.0,
    "geom:bbox":"-73.656768,41.018843,-73.656768,41.018843",
    "geom:latitude":41.018843,
    "geom:longitude":-73.656768,
    "iso:country":"US",
    "sg:address":"105 Monica Rd",
    "sg:city":"Greenwich",
    "sg:classifiers":[
        {
            "category":"Real Estate",
            "subcategory":"Real Estate Agent",
            "type":"Services"
        }
    ],
    "sg:owner":"simplegeo",
    "sg:phone":"+1 203 531 8296",
    "sg:postcode":"06831",
    "sg:province":"NY",
    "src:geom":"simplegeo",
    "wof:belongsto":[
        85885307,
        102191575,
        404495949,
        85633793,
        85930941,
        102084283,
        85688629,
        420555461,
        85930937
    ],
    "wof:breaches":[],
    "wof:concordances":{
        "sg:id":"SG_2R3UT1uQtGiUAyp4ifqMyJ_41.018843_-73.656768@1294177022"
    },
    "wof:country":"US",
    "wof:geomhash":"a169e4685e154e0d94685df65ed31335",
    "wof:hierarchy":[
        {
            "continent_id":102191575,
            "country_id":85633793,
            "county_id":102084283,
            "localadmin_id":404495949,
            "locality_id":85930941,
            "neighbourhood_id":85885307,
            "region_id":85688629,
            "venue_id":554935845
        },
        {
            "continent_id":102191575,
            "country_id":85633793,
            "county_id":102084283,
            "localadmin_id":404495949,
            "locality_id":85930937,
            "neighbourhood_id":420555461,
            "region_id":85688629,
            "venue_id":554935845
        }
    ],
    "wof:id":554935845,
    "wof:lastmodified":1461017128,
    "wof:name":"Lamasa Realty LLC",
    "wof:parent_id":-1,
    "wof:placetype":"venue",
    "wof:superseded_by":[],
    "wof:supersedes":[],
    "wof:tags":[]
},
  "bbox": [
    -73.656768,
    41.018843,
    -73.656768,
    41.018843
],
  "geometry": {"coordinates":[-73.656768,41.018843],"type":"Point"}
}