{
  "id": 572065161,
  "type": "Feature",
  "properties": {
    "edtf:cessation":"uuuu",
    "edtf:inception":"uuuu",
    "geom:area":0.0,
    "geom:bbox":"-73.715219,41.122861,-73.715219,41.122861",
    "geom:latitude":41.122861,
    "geom:longitude":-73.715219,
    "iso:country":"US",
    "sg:address":"355 Main St",
    "sg:city":"Armonk",
    "sg:classifiers":[
        {
            "category":"Education",
            "subcategory":"School",
            "type":"Public Place"
        }
    ],
    "sg:owner":"simplegeo",
    "sg:phone":"+1 914 273 2722",
    "sg:postcode":"10504",
    "sg:province":"NY",
    "src:geom":"simplegeo",
    "wof:belongsto":[],
    "wof:breaches":[],
    "wof:concordances":{
        "sg:id":"SG_56FHtETUPOb1vXHzABLW51_41.122861_-73.715219@1303262324"
    },
    "wof:country":"US",
    "wof:geomhash":"9f13dd3af00076e33d3b096229fde674",
    "wof:hierarchy":[],
    "wof:id":572065161,
    "wof:lastmodified":1461049164,
    "wof:name":"Armonk Imaging & Educational Center",
    "wof:parent_id":420530403,
    "wof:placetype":"venue",
    "wof:superseded_by":[],
    "wof:supersedes":[],
    "wof:tags":[]
},
  "bbox": [
    -73.715219,
    41.122861,
    -73.715219,
    41.122861
],
  "geometry": {"coordinates":[-73.715219,41.122861],"type":"Point"}
}