{
  "id": 554938931,
  "type": "Feature",
  "properties": {
    "edtf:cessation":"uuuu",
    "edtf:inception":"uuuu",
    "geom:area":0.0,
    "geom:bbox":"-74.143544,41.104841,-74.143544,41.104841",
    "geom:latitude":41.104841,
    "geom:longitude":-74.143544,
    "iso:country":"US",
    "sg:address":"11 Meadowbrook Ln",
    "sg:city":"Suffern",
    "sg:classifiers":[
        {
            "category":"Building & Trades",
            "subcategory":"Construction",
            "type":"Services"
        }
    ],
    "sg:owner":"simplegeo",
    "sg:phone":"+1 845 357 8038",
    "sg:postcode":"10901",
    "sg:province":"NY",
    "sg:tags":[
        "contractor"
    ],
    "src:geom":"simplegeo",
    "wof:belongsto":[
        85855885,
        102191575,
        404523097,
        85633793,
        85978523,
        102082385,
        85688543
    ],
    "wof:breaches":[],
    "wof:concordances":{
        "sg:id":"SG_2nBj0Sh3DJYYswp2vtuGz8_41.104841_-74.143544@1294177022"
    },
    "wof:country":"US",
    "wof:geomhash":"60711577a3603eebec3fbfa477d3a2da",
    "wof:hierarchy":[
        {
            "continent_id":102191575,
            "country_id":85633793,
            "county_id":102082385,
            "localadmin_id":404523097,
            "locality_id":85978523,
            "neighbourhood_id":85855885,
            "region_id":85688543,
            "venue_id":554938931
        }
    ],
    "wof:id":554938931,
    "wof:lastmodified":1461017513,
    "wof:name":"Paul Ugaro",
    "wof:parent_id":85855885,
    "wof:placetype":"venue",
    "wof:superseded_by":[],
    "wof:supersedes":[],
    "wof:tags":[
        "contractor"
    ]
},
  "bbox": [
    -74.143544,
    41.104841,
    -74.143544,
    41.104841
],
  "geometry": {"coordinates":[-74.14354400000001,41.104841],"type":"Point"}
}