{
  "id": 572170889,
  "type": "Feature",
  "properties": {
    "edtf:cessation":"uuuu",
    "edtf:inception":"uuuu",
    "geom:area":0.0,
    "geom:bbox":"-74.243364,40.642473,-74.243364,40.642473",
    "geom:latitude":40.642473,
    "geom:longitude":-74.243364,
    "iso:country":"US",
    "sg:address":"5215 6th Ave",
    "sg:city":"Brooklyn",
    "sg:classifiers":[
        {
            "category":"Food & Beverages",
            "subcategory":"Groceries & Convenience Stores",
            "type":"Retail Goods"
        }
    ],
    "sg:owner":"simplegeo",
    "sg:phone":"+1 718 435 0935",
    "sg:postcode":"11220",
    "sg:province":"NY",
    "src:geom":"simplegeo",
    "wof:belongsto":[
        85817887,
        102191575,
        404477587,
        85633793,
        85975833,
        102085995,
        85688607
    ],
    "wof:breaches":[],
    "wof:concordances":{
        "sg:id":"SG_2jaNrChxmucz30vF5XU1GW_40.642473_-74.243364@1303262344"
    },
    "wof:country":"US",
    "wof:geomhash":"90023cacad436038013542b1107381f9",
    "wof:hierarchy":[
        {
            "continent_id":102191575,
            "country_id":85633793,
            "county_id":102085995,
            "localadmin_id":404477587,
            "locality_id":85975833,
            "neighbourhood_id":85817887,
            "region_id":85688607,
            "venue_id":572170889
        }
    ],
    "wof:id":572170889,
    "wof:lastmodified":1461051435,
    "wof:name":"Vanessa Grocery Inc",
    "wof:parent_id":85817887,
    "wof:placetype":"venue",
    "wof:superseded_by":[],
    "wof:supersedes":[],
    "wof:tags":[]
},
  "bbox": [
    -74.243364,
    40.642473,
    -74.243364,
    40.642473
],
  "geometry": {"coordinates":[-74.243364,40.642473],"type":"Point"}
}