{
  "id": 554942045,
  "type": "Feature",
  "properties": {
    "edtf:cessation":"uuuu",
    "edtf:inception":"uuuu",
    "geom:area":0.0,
    "geom:bbox":"-73.525389,41.135076,-73.525389,41.135076",
    "geom:latitude":41.135076,
    "geom:longitude":-73.525389,
    "iso:country":"US",
    "sg:address":"652 Ponus Ridge",
    "sg:city":"New Canaan",
    "sg:classifiers":[
        {
            "category":"Banks & Credit Unions",
            "subcategory":"Financial Services",
            "type":"Services"
        }
    ],
    "sg:owner":"simplegeo",
    "sg:phone":"+1 203 972 3258",
    "sg:postcode":"06840",
    "sg:province":"NY",
    "sg:tags":[
        "investor"
    ],
    "src:geom":"simplegeo",
    "wof:belongsto":[
        85688629,
        85633793,
        85842701,
        102084283
    ],
    "wof:breaches":[],
    "wof:concordances":{
        "sg:id":"SG_6pf7EQnYIcsXgWAC5x256p_41.135076_-73.525389@1294177022"
    },
    "wof:country":"US",
    "wof:geomhash":"9cf7950be2bf3d07a498dc0e464aba35",
    "wof:hierarchy":[
        {
            "country_id":85633793,
            "county_id":102084283,
            "neighbourhood_id":85842701,
            "region_id":85688629,
            "venue_id":554942045
        }
    ],
    "wof:id":554942045,
    "wof:lastmodified":1461017837,
    "wof:name":"Ponus Capital LLC",
    "wof:parent_id":85842701,
    "wof:placetype":"venue",
    "wof:superseded_by":[],
    "wof:supersedes":[],
    "wof:tags":[
        "investor"
    ]
},
  "bbox": [
    -73.525389,
    41.135076,
    -73.525389,
    41.135076
],
  "geometry": {"coordinates":[-73.525389,41.135076],"type":"Point"}
}