{
  "id": 554934009,
  "type": "Feature",
  "properties": {
    "edtf:cessation":"uuuu",
    "edtf:inception":"uuuu",
    "geom:area":0.0,
    "geom:bbox":"-73.618742,41.109831,-73.618742,41.109831",
    "geom:latitude":41.109831,
    "geom:longitude":-73.618742,
    "iso:country":"US",
    "sg:address":"237 Taconic Rd",
    "sg:city":"Greenwich",
    "sg:classifiers":[
        {
            "category":"Organizations",
            "subcategory":"Religious Organization",
            "type":"Services"
        }
    ],
    "sg:owner":"simplegeo",
    "sg:phone":"+1 203 661 4420",
    "sg:postcode":"06831",
    "sg:province":"NY",
    "sg:tags":[
        "church"
    ],
    "sg:website":"www.stanwichchurch.org",
    "src:geom":"simplegeo",
    "wof:belongsto":[
        85688629,
        85633793,
        85850923,
        102084283
    ],
    "wof:breaches":[],
    "wof:concordances":{
        "sg:id":"SG_0PdRPoJZ9KNaSotAtjvTFW_41.109831_-73.618742@1294177022"
    },
    "wof:country":"US",
    "wof:geomhash":"f57c9dc1a3019728c2e7b31393b3a395",
    "wof:hierarchy":[
        {
            "country_id":85633793,
            "county_id":102084283,
            "neighbourhood_id":85850923,
            "region_id":85688629,
            "venue_id":554934009
        }
    ],
    "wof:id":554934009,
    "wof:lastmodified":1461016883,
    "wof:name":"Stanwich Congregational Church",
    "wof:parent_id":85850923,
    "wof:placetype":"venue",
    "wof:superseded_by":[],
    "wof:supersedes":[],
    "wof:tags":[
        "church"
    ]
},
  "bbox": [
    -73.618742,
    41.109831,
    -73.618742,
    41.109831
],
  "geometry": {"coordinates":[-73.618742,41.109831],"type":"Point"}
}