{
  "id": 554940445,
  "type": "Feature",
  "properties": {
    "edtf:cessation":"uuuu",
    "edtf:inception":"uuuu",
    "geom:area":0.0,
    "geom:bbox":"-73.637762,41.033166,-73.637762,41.033166",
    "geom:latitude":41.033166,
    "geom:longitude":-73.637762,
    "iso:country":"US",
    "sg:address":"6 Meadow Dr",
    "sg:city":"Greenwich",
    "sg:classifiers":[
        {
            "category":"Professional",
            "subcategory":"Management & Consulting",
            "type":"Services"
        },
        {
            "category":"Professional",
            "subcategory":"Art Services",
            "type":"Services"
        }
    ],
    "sg:owner":"simplegeo",
    "sg:phone":"+1 203 869 7892",
    "sg:postcode":"06831",
    "sg:province":"NY",
    "sg:tags":[
        "commercial",
        "counselor",
        "design",
        "public",
        "relations"
    ],
    "src:geom":"simplegeo",
    "wof:belongsto":[
        420555529,
        102191575,
        404495949,
        85633793,
        85930941,
        102084283,
        85688629
    ],
    "wof:breaches":[],
    "wof:concordances":{
        "sg:id":"SG_78P9ToznOVKivI9iIJP4Z6_41.033166_-73.637762@1294177022"
    },
    "wof:country":"US",
    "wof:geomhash":"cce3fddfd456fb44773ae877d871c098",
    "wof:hierarchy":[
        {
            "continent_id":102191575,
            "country_id":85633793,
            "county_id":102084283,
            "localadmin_id":404495949,
            "locality_id":85930941,
            "neighbourhood_id":420555529,
            "region_id":85688629,
            "venue_id":554940445
        }
    ],
    "wof:id":554940445,
    "wof:lastmodified":1461017653,
    "wof:name":"Corner Group",
    "wof:parent_id":420555529,
    "wof:placetype":"venue",
    "wof:superseded_by":[],
    "wof:supersedes":[],
    "wof:tags":[
        "commercial",
        "counselor",
        "design",
        "public",
        "relations"
    ]
},
  "bbox": [
    -73.637762,
    41.033166,
    -73.637762,
    41.033166
],
  "geometry": {"coordinates":[-73.637762,41.033166],"type":"Point"}
}