{
  "id": 554934387,
  "type": "Feature",
  "properties": {
    "edtf:cessation":"uuuu",
    "edtf:inception":"uuuu",
    "geom:area":0.0,
    "geom:bbox":"-73.653257,41.016693,-73.653257,41.016693",
    "geom:latitude":41.016693,
    "geom:longitude":-73.653257,
    "iso:country":"US",
    "sg:address":"41 Byram Terrace Dr",
    "sg:city":"Greenwich",
    "sg:classifiers":[
        {
            "category":"Professional",
            "subcategory":"",
            "type":"Services"
        }
    ],
    "sg:owner":"simplegeo",
    "sg:phone":"+1 203 531 0053",
    "sg:postcode":"06831",
    "sg:province":"NY",
    "src:geom":"simplegeo",
    "wof:belongsto":[
        85885307,
        102191575,
        404495949,
        85633793,
        85930941,
        102084283,
        85688629,
        420555461,
        85930937
    ],
    "wof:breaches":[],
    "wof:concordances":{
        "sg:id":"SG_3c4VyaLqsjyehrIDv8doxK_41.016693_-73.653257@1294177022"
    },
    "wof:country":"US",
    "wof:geomhash":"7877ab7e02378ff72c248437f1ed6a1f",
    "wof:hierarchy":[
        {
            "continent_id":102191575,
            "country_id":85633793,
            "county_id":102084283,
            "localadmin_id":404495949,
            "locality_id":85930941,
            "neighbourhood_id":85885307,
            "region_id":85688629,
            "venue_id":554934387
        },
        {
            "continent_id":102191575,
            "country_id":85633793,
            "county_id":102084283,
            "localadmin_id":404495949,
            "locality_id":85930937,
            "neighbourhood_id":420555461,
            "region_id":85688629,
            "venue_id":554934387
        }
    ],
    "wof:id":554934387,
    "wof:lastmodified":1461016932,
    "wof:name":"Greenwich Structural Inc",
    "wof:parent_id":-1,
    "wof:placetype":"venue",
    "wof:superseded_by":[],
    "wof:supersedes":[],
    "wof:tags":[]
},
  "bbox": [
    -73.653257,
    41.016693,
    -73.653257,
    41.016693
],
  "geometry": {"coordinates":[-73.653257,41.016693],"type":"Point"}
}