{
  "id": 572064285,
  "type": "Feature",
  "properties": {
    "edtf:cessation":"uuuu",
    "edtf:inception":"uuuu",
    "geom:area":0.0,
    "geom:bbox":"-73.831067,40.867793,-73.831067,40.867793",
    "geom:latitude":40.867793,
    "geom:longitude":-73.831067,
    "iso:country":"US",
    "sg:address":"320 Baychester Avenue",
    "sg:city":"Bronx",
    "sg:classifiers":[
        {
            "category":"Shopping",
            "subcategory":"Clothing, Apparel, & Fashions",
            "type":"Retail Goods"
        }
    ],
    "sg:owner":"simplegeo",
    "sg:phone":"+1 718 862 9644",
    "sg:postcode":"10475",
    "sg:province":"NY",
    "sg:tags":[
        "costume"
    ],
    "src:geom":"simplegeo",
    "wof:belongsto":[],
    "wof:breaches":[],
    "wof:concordances":{
        "sg:id":"SG_0paYrrtUqoIKEZQSESacm7_40.867793_-73.831067@1303262324"
    },
    "wof:country":"US",
    "wof:geomhash":"081ac48e14e3463276fcb745b9b48054",
    "wof:hierarchy":[],
    "wof:id":572064285,
    "wof:lastmodified":1461049148,
    "wof:name":"Party City of the Bronx",
    "wof:parent_id":-1,
    "wof:placetype":"venue",
    "wof:superseded_by":[],
    "wof:supersedes":[],
    "wof:tags":[
        "costume"
    ]
},
  "bbox": [
    -73.831067,
    40.867793,
    -73.831067,
    40.867793
],
  "geometry": {"coordinates":[-73.831067,40.867793],"type":"Point"}
}