{
  "id": 554940793,
  "type": "Feature",
  "properties": {
    "edtf:cessation":"uuuu",
    "edtf:inception":"uuuu",
    "geom:area":0.0,
    "geom:bbox":"-73.452357,41.146587,-73.452357,41.146587",
    "geom:latitude":41.146587,
    "geom:longitude":-73.452357,
    "iso:country":"US",
    "sg:address":"1 Comstock Hill Rd",
    "sg:city":"New Canaan",
    "sg:classifiers":[
        {
            "category":"Shopping",
            "subcategory":"Gifts & Souvenirs",
            "type":"Retail Goods"
        }
    ],
    "sg:owner":"simplegeo",
    "sg:phone":"+1 203 966 3652",
    "sg:postcode":"06840",
    "sg:province":"NY",
    "src:geom":"simplegeo",
    "wof:belongsto":[
        85688629,
        85633793,
        85848785,
        102084283
    ],
    "wof:breaches":[],
    "wof:concordances":{
        "sg:id":"SG_6izcdWlpMmvjjpwYdx4vjs_41.146587_-73.452357@1294177022"
    },
    "wof:country":"US",
    "wof:geomhash":"7863b11000289b79e4ff9de5ef1a6800",
    "wof:hierarchy":[
        {
            "country_id":85633793,
            "county_id":102084283,
            "neighbourhood_id":85848785,
            "region_id":85688629,
            "venue_id":554940793
        }
    ],
    "wof:id":554940793,
    "wof:lastmodified":1461017679,
    "wof:name":"E J Skinner & Company Inc",
    "wof:parent_id":85848785,
    "wof:placetype":"venue",
    "wof:superseded_by":[],
    "wof:supersedes":[],
    "wof:tags":[]
},
  "bbox": [
    -73.452357,
    41.146587,
    -73.452357,
    41.146587
],
  "geometry": {"coordinates":[-73.45235700000001,41.146587],"type":"Point"}
}