{
  "id": 554941735,
  "type": "Feature",
  "properties": {
    "edtf:cessation":"uuuu",
    "edtf:inception":"uuuu",
    "geom:area":0.0,
    "geom:bbox":"-73.619662,41.191723,-73.619662,41.191723",
    "geom:latitude":41.191723,
    "geom:longitude":-73.619662,
    "iso:country":"US",
    "sg:address":"217 Long Ridge Rd",
    "sg:city":"Bedford",
    "sg:classifiers":[
        {
            "category":"Real Estate",
            "subcategory":"Real Estate Agent",
            "type":"Services"
        },
        {
            "category":"Professional",
            "subcategory":"Business Services",
            "type":"Services"
        }
    ],
    "sg:owner":"simplegeo",
    "sg:phone":"+1 914 234 7200",
    "sg:postcode":"10506",
    "sg:province":"NY",
    "sg:tags":[
        "relocation"
    ],
    "src:geom":"simplegeo",
    "wof:belongsto":[
        85688629,
        85633793,
        85930787,
        102084283,
        85838073
    ],
    "wof:breaches":[],
    "wof:concordances":{
        "sg:id":"SG_7eQL7XBWln3dHTj3RTR19K_41.191723_-73.619662@1294177022"
    },
    "wof:country":"US",
    "wof:geomhash":"d40f4122711bd0aa1c592398fee64622",
    "wof:hierarchy":[
        {
            "country_id":85633793,
            "county_id":102084283,
            "locality_id":85930787,
            "neighbourhood_id":85838073,
            "region_id":85688629,
            "venue_id":554941735
        }
    ],
    "wof:id":554941735,
    "wof:lastmodified":1461017795,
    "wof:name":"Relocation Consulting Service",
    "wof:parent_id":85838073,
    "wof:placetype":"venue",
    "wof:superseded_by":[],
    "wof:supersedes":[],
    "wof:tags":[
        "relocation"
    ]
},
  "bbox": [
    -73.619662,
    41.191723,
    -73.619662,
    41.191723
],
  "geometry": {"coordinates":[-73.61966200000001,41.191723],"type":"Point"}
}