{
  "id": 554935141,
  "type": "Feature",
  "properties": {
    "edtf:cessation":"uuuu",
    "edtf:inception":"uuuu",
    "geom:area":0.0,
    "geom:bbox":"-73.493651,41.146933,-73.493651,41.146933",
    "geom:latitude":41.146933,
    "geom:longitude":-73.493651,
    "iso:country":"US",
    "sg:address":"149 Elm St",
    "sg:city":"New Canaan",
    "sg:classifiers":[
        {
            "category":"Shopping",
            "subcategory":"Clothing, Apparel, & Fashions",
            "type":"Retail Goods"
        }
    ],
    "sg:owner":"simplegeo",
    "sg:phone":"+1 203 966 0622",
    "sg:postcode":"06840",
    "sg:province":"NY",
    "src:geom":"simplegeo",
    "wof:belongsto":[
        85688629,
        85633793,
        85851779,
        102084283
    ],
    "wof:breaches":[],
    "wof:concordances":{
        "sg:id":"SG_2hjAbSFW0fZRLqzhVLirK1_41.146933_-73.493651@1294177022"
    },
    "wof:country":"US",
    "wof:geomhash":"c3b4c8097ad0c702056a6bb3e8891545",
    "wof:hierarchy":[
        {
            "country_id":85633793,
            "county_id":102084283,
            "neighbourhood_id":85851779,
            "region_id":85688629,
            "venue_id":554935141
        }
    ],
    "wof:id":554935141,
    "wof:lastmodified":1461017029,
    "wof:name":"Rags",
    "wof:parent_id":85851779,
    "wof:placetype":"venue",
    "wof:superseded_by":[],
    "wof:supersedes":[],
    "wof:tags":[]
},
  "bbox": [
    -73.493651,
    41.146933,
    -73.493651,
    41.146933
],
  "geometry": {"coordinates":[-73.493651,41.146933],"type":"Point"}
}