{
  "id": 554936203,
  "type": "Feature",
  "properties": {
    "edtf:cessation":"uuuu",
    "edtf:inception":"uuuu",
    "geom:area":0.0,
    "geom:bbox":"-73.498158,41.158989,-73.498158,41.158989",
    "geom:latitude":41.158989,
    "geom:longitude":-73.498158,
    "iso:country":"US",
    "sg:address":"12 Siwanoy Ln",
    "sg:city":"New Canaan",
    "sg:classifiers":[
        {
            "category":"Banks & Credit Unions",
            "subcategory":"Financial Services",
            "type":"Services"
        }
    ],
    "sg:owner":"simplegeo",
    "sg:phone":"+1 203 972 7191",
    "sg:postcode":"06840",
    "sg:province":"NY",
    "sg:tags":[
        "investor"
    ],
    "src:geom":"simplegeo",
    "wof:belongsto":[],
    "wof:breaches":[],
    "wof:concordances":{
        "sg:id":"SG_6JhumV53qaTti0kXFRrE3F_41.158989_-73.498158@1294177022"
    },
    "wof:country":"US",
    "wof:geomhash":"f0b7123c935bfad2190441e2db065fb3",
    "wof:hierarchy":[],
    "wof:id":554936203,
    "wof:lastmodified":1461017182,
    "wof:name":"Kwiatkowski Investments LLC",
    "wof:parent_id":-1,
    "wof:placetype":"venue",
    "wof:superseded_by":[],
    "wof:supersedes":[],
    "wof:tags":[
        "investor"
    ]
},
  "bbox": [
    -73.498158,
    41.158989,
    -73.498158,
    41.158989
],
  "geometry": {"coordinates":[-73.498158,41.158989],"type":"Point"}
}