{
  "id": 554936457,
  "type": "Feature",
  "properties": {
    "edtf:cessation":"uuuu",
    "edtf:inception":"uuuu",
    "geom:area":0.0,
    "geom:bbox":"-77.312354,41.989038,-77.312354,41.989038",
    "geom:latitude":41.989038,
    "geom:longitude":-77.312354,
    "iso:country":"US",
    "sg:address":"105 N Buffalo St",
    "sg:city":"Elkland",
    "sg:classifiers":[
        {
            "category":"Personal",
            "subcategory":"Beauty Salon",
            "type":"Services"
        }
    ],
    "sg:owner":"simplegeo",
    "sg:phone":"+1 814 258 5710",
    "sg:postcode":"16920",
    "sg:province":"NY",
    "sg:tags":[
        "shop"
    ],
    "src:geom":"simplegeo",
    "wof:belongsto":[
        85688481,
        85633793,
        101717081,
        102080937,
        85807903
    ],
    "wof:breaches":[],
    "wof:concordances":{
        "sg:id":"SG_35anKQtLh8MFVlXY9obt9L_41.989038_-77.312354@1294177022"
    },
    "wof:country":"US",
    "wof:geomhash":"62cd622956effefa311bfefb3f666b9d",
    "wof:hierarchy":[
        {
            "country_id":85633793,
            "county_id":102080937,
            "locality_id":101717081,
            "neighbourhood_id":85807903,
            "region_id":85688481,
            "venue_id":554936457
        }
    ],
    "wof:id":554936457,
    "wof:lastmodified":1461017227,
    "wof:name":"Mane Tamer Hairstyling",
    "wof:parent_id":85807903,
    "wof:placetype":"venue",
    "wof:superseded_by":[],
    "wof:supersedes":[],
    "wof:tags":[
        "shop"
    ]
},
  "bbox": [
    -77.312354,
    41.989038,
    -77.312354,
    41.989038
],
  "geometry": {"coordinates":[-77.312354,41.989038],"type":"Point"}
}