{
  "id": 555291363,
  "type": "Feature",
  "properties": {
    "edtf:cessation":"uuuu",
    "edtf:inception":"uuuu",
    "geom:area":0.0,
    "geom:bbox":"-73.770026,41.04804,-73.770026,41.04804",
    "geom:latitude":41.04804,
    "geom:longitude":-73.770026,
    "iso:country":"US",
    "sg:address":"410 N Broadway",
    "sg:city":"White Plains",
    "sg:classifiers":[
        {
            "category":"Health Services",
            "subcategory":"Doctor",
            "type":"Services"
        }
    ],
    "sg:owner":"simplegeo",
    "sg:phone":"+1 914 948 0353",
    "sg:postcode":"10603",
    "sg:province":"NY",
    "sg:tags":[
        "medical"
    ],
    "src:geom":"simplegeo",
    "wof:belongsto":[],
    "wof:breaches":[],
    "wof:concordances":{
        "sg:id":"SG_5T2mjE7z2xpGI9t6EiRFsB_41.048040_-73.770026@1294177022"
    },
    "wof:country":"US",
    "wof:geomhash":"2fc107ced94bcaaa7bb04afe08b8b4c0",
    "wof:hierarchy":[],
    "wof:id":555291363,
    "wof:lastmodified":1461026313,
    "wof:name":"Jay M Weissbrot MD",
    "wof:parent_id":420530477,
    "wof:placetype":"venue",
    "wof:superseded_by":[],
    "wof:supersedes":[],
    "wof:tags":[
        "medical"
    ]
},
  "bbox": [
    -73.770026,
    41.04804,
    -73.770026,
    41.04804
],
  "geometry": {"coordinates":[-73.770026,41.04804],"type":"Point"}
}