{
  "id": 555656159,
  "type": "Feature",
  "properties": {
    "edtf:cessation":"uuuu",
    "edtf:inception":"uuuu",
    "geom:area":0.0,
    "geom:bbox":"-76.430786,43.321179,-76.430786,43.321179",
    "geom:latitude":43.321179,
    "geom:longitude":-76.430786,
    "iso:country":"US",
    "sg:address":"6 Morrill Pl",
    "sg:city":"Fulton",
    "sg:classifiers":[
        {
            "category":"Manufacturing",
            "subcategory":"Paper Products",
            "type":"Manufacturing & Wholesale Goods"
        }
    ],
    "sg:owner":"simplegeo",
    "sg:phone":"+1 315 592 2204",
    "sg:postcode":"13069",
    "sg:province":"NY",
    "sg:tags":[
        "packaging",
        "material",
        "mfg"
    ],
    "sg:website":"www.sonoco.com",
    "src:geom":"simplegeo",
    "wof:belongsto":[],
    "wof:breaches":[],
    "wof:concordances":{
        "sg:id":"SG_3aZXYsbZ2G8kWKE9YzosZf_43.321179_-76.430786@1294177022"
    },
    "wof:country":"US",
    "wof:geomhash":"76059e9d0596199918f9480c36afb807",
    "wof:hierarchy":[],
    "wof:id":555656159,
    "wof:lastmodified":1461034737,
    "wof:name":"Sonoco Flexible Packaging Co",
    "wof:parent_id":420529589,
    "wof:placetype":"venue",
    "wof:superseded_by":[],
    "wof:supersedes":[],
    "wof:tags":[
        "packaging",
        "material",
        "mfg"
    ]
},
  "bbox": [
    -76.430786,
    43.321179,
    -76.430786,
    43.321179
],
  "geometry": {"coordinates":[-76.430786,43.321179],"type":"Point"}
}