{
  "id": 572170893,
  "type": "Feature",
  "properties": {
    "edtf:cessation":"uuuu",
    "edtf:inception":"uuuu",
    "geom:area":0.0,
    "geom:bbox":"-74.304787,40.635077,-74.304787,40.635077",
    "geom:latitude":40.635077,
    "geom:longitude":-74.304787,
    "iso:country":"US",
    "sg:address":"410 68th St",
    "sg:city":"Brooklyn",
    "sg:classifiers":[
        {
            "category":"Communications",
            "subcategory":"Radio Station",
            "type":"Services"
        }
    ],
    "sg:owner":"simplegeo",
    "sg:phone":"+1 718 491 1430",
    "sg:postcode":"11220",
    "sg:province":"NY",
    "src:geom":"simplegeo",
    "wof:belongsto":[
        85688607,
        85633793,
        85850963,
        102085995
    ],
    "wof:breaches":[],
    "wof:concordances":{
        "sg:id":"SG_6ozJ32kBfHtylZnhTrUIgT_40.635077_-74.304787@1303262344"
    },
    "wof:country":"US",
    "wof:geomhash":"f00340c130e4a6b630b2caafbbf2f369",
    "wof:hierarchy":[
        {
            "country_id":85633793,
            "county_id":102085995,
            "neighbourhood_id":85850963,
            "region_id":85688607,
            "venue_id":572170893
        }
    ],
    "wof:id":572170893,
    "wof:lastmodified":1461051435,
    "wof:name":"Radio Cantico Nuevo Corp",
    "wof:parent_id":85850963,
    "wof:placetype":"venue",
    "wof:superseded_by":[],
    "wof:supersedes":[],
    "wof:tags":[]
},
  "bbox": [
    -74.304787,
    40.635077,
    -74.304787,
    40.635077
],
  "geometry": {"coordinates":[-74.304787,40.635077],"type":"Point"}
}