{
  "id": 555706709,
  "type": "Feature",
  "properties": {
    "edtf:cessation":"uuuu",
    "edtf:inception":"uuuu",
    "geom:area":0.0,
    "geom:bbox":"-74.158771,41.551617,-74.158771,41.551617",
    "geom:latitude":41.551617,
    "geom:longitude":-74.158771,
    "iso:country":"US",
    "sg:address":"12 Browns Rd",
    "sg:city":"Walden",
    "sg:classifiers":[
        {
            "category":"Professional",
            "subcategory":"Management & Consulting",
            "type":"Services"
        }
    ],
    "sg:owner":"simplegeo",
    "sg:phone":"+1 845 778 5788",
    "sg:postcode":"12586",
    "sg:province":"NY",
    "src:geom":"simplegeo",
    "wof:belongsto":[],
    "wof:breaches":[],
    "wof:concordances":{
        "sg:id":"SG_0TNNuYKtAEQtiUdBHdkbuG_41.551617_-74.158771@1294177022"
    },
    "wof:country":"US",
    "wof:geomhash":"1e5a040d60410b2adc0d978e523dfcea",
    "wof:hierarchy":[],
    "wof:id":555706709,
    "wof:lastmodified":1461035792,
    "wof:name":"Masterworks Housewrights",
    "wof:parent_id":420529461,
    "wof:placetype":"venue",
    "wof:superseded_by":[],
    "wof:supersedes":[],
    "wof:tags":[]
},
  "bbox": [
    -74.158771,
    41.551617,
    -74.158771,
    41.551617
],
  "geometry": {"coordinates":[-74.158771,41.551617],"type":"Point"}
}