{
  "id": 554934679,
  "type": "Feature",
  "properties": {
    "edtf:cessation":"uuuu",
    "edtf:inception":"uuuu",
    "geom:area":0.0,
    "geom:bbox":"-73.490531,41.148919,-73.490531,41.148919",
    "geom:latitude":41.148919,
    "geom:longitude":-73.490531,
    "iso:country":"US",
    "sg:address":"161 Cherry St",
    "sg:city":"New Canaan",
    "sg:classifiers":[
        {
            "category":"Health Services",
            "subcategory":"Nursing And Care Facility",
            "type":"Services"
        }
    ],
    "sg:owner":"simplegeo",
    "sg:phone":"+1 203 966 3222",
    "sg:postcode":"06840",
    "sg:province":"NY",
    "sg:tags":[
        "hospice"
    ],
    "src:geom":"simplegeo",
    "wof:belongsto":[
        85688629,
        85633793,
        85851779,
        102084283
    ],
    "wof:breaches":[],
    "wof:concordances":{
        "sg:id":"SG_1BiIvn22BrDHIzH1ggSoQy_41.148919_-73.490531@1294177022"
    },
    "wof:country":"US",
    "wof:geomhash":"cdc719fc1f3c0b724e61492d337e3658",
    "wof:hierarchy":[
        {
            "country_id":85633793,
            "county_id":102084283,
            "neighbourhood_id":85851779,
            "region_id":85688629,
            "venue_id":554934679
        }
    ],
    "wof:id":554934679,
    "wof:lastmodified":1461016971,
    "wof:name":"Voyager Hospice Care",
    "wof:parent_id":85851779,
    "wof:placetype":"venue",
    "wof:superseded_by":[],
    "wof:supersedes":[],
    "wof:tags":[
        "hospice"
    ]
},
  "bbox": [
    -73.490531,
    41.148919,
    -73.490531,
    41.148919
],
  "geometry": {"coordinates":[-73.490531,41.148919],"type":"Point"}
}