{
  "id": 555311473,
  "type": "Feature",
  "properties": {
    "edtf:cessation":"uuuu",
    "edtf:inception":"uuuu",
    "geom:area":0.0,
    "geom:bbox":"-72.954067,40.812812,-72.954067,40.812812",
    "geom:latitude":40.812812,
    "geom:longitude":-72.954067,
    "iso:country":"US",
    "sg:address":"70 Horseblock Rd N",
    "sg:city":"Yaphank",
    "sg:classifiers":[
        {
            "category":"Insurance",
            "subcategory":"Insurance Agent",
            "type":"Services"
        }
    ],
    "sg:owner":"simplegeo",
    "sg:phone":"+1 631 294 1600",
    "sg:postcode":"11980",
    "sg:province":"NY",
    "src:geom":"simplegeo",
    "wof:belongsto":[],
    "wof:breaches":[],
    "wof:concordances":{
        "sg:id":"SG_1qtp3f1s5y6iZyubuNtnsr_40.812812_-72.954067@1294177022"
    },
    "wof:country":"US",
    "wof:geomhash":"b230828219c01d076621f6f4534ac472",
    "wof:hierarchy":[],
    "wof:id":555311473,
    "wof:lastmodified":1461026824,
    "wof:name":"Tln Brokerage Inc",
    "wof:parent_id":-1,
    "wof:placetype":"venue",
    "wof:superseded_by":[],
    "wof:supersedes":[],
    "wof:tags":[]
},
  "bbox": [
    -72.954067,
    40.812812,
    -72.954067,
    40.812812
],
  "geometry": {"coordinates":[-72.95406699999999,40.812812],"type":"Point"}
}