{
  "id": 555051309,
  "type": "Feature",
  "properties": {
    "edtf:cessation":"uuuu",
    "edtf:inception":"uuuu",
    "geom:area":0.0,
    "geom:bbox":"-73.987644,40.751419,-73.987644,40.751419",
    "geom:latitude":40.751419,
    "geom:longitude":-73.987644,
    "iso:country":"US",
    "sg:address":"1370 Broadway",
    "sg:city":"New York",
    "sg:classifiers":[
        {
            "category":"Shopping",
            "subcategory":"Clothing, Apparel, & Fashions",
            "type":"Retail Goods"
        }
    ],
    "sg:owner":"simplegeo",
    "sg:phone":"+1 212 634 0871",
    "sg:postcode":"10018",
    "sg:province":"NY",
    "src:geom":"simplegeo",
    "wof:belongsto":[],
    "wof:breaches":[],
    "wof:concordances":{
        "sg:id":"SG_09O8bIthdjKK56BCi7GDaI_40.751419_-73.987644@1294177022"
    },
    "wof:country":"US",
    "wof:geomhash":"d3e6976c377519828f5f2f48b0d7539a",
    "wof:hierarchy":[],
    "wof:id":555051309,
    "wof:lastmodified":1461020676,
    "wof:name":"Michael Lee Inc",
    "wof:parent_id":-1,
    "wof:placetype":"venue",
    "wof:superseded_by":[],
    "wof:supersedes":[],
    "wof:tags":[]
},
  "bbox": [
    -73.987644,
    40.751419,
    -73.987644,
    40.751419
],
  "geometry": {"coordinates":[-73.987644,40.751419],"type":"Point"}
}