{
  "id": 571671601,
  "type": "Feature",
  "properties": {
    "edtf:cessation":"uuuu",
    "edtf:inception":"uuuu",
    "geom:area":0.0,
    "geom:bbox":"-73.987549,40.741581,-73.987549,40.741581",
    "geom:latitude":40.741581,
    "geom:longitude":-73.987549,
    "iso:country":"US",
    "sg:address":"11 Madison Ave Frnt 1 ",
    "sg:city":"New York",
    "sg:classifiers":[
        {
            "category":"Ice Cream",
            "subcategory":"",
            "type":"Food & Drink"
        }
    ],
    "sg:menulink":"http://www.allmenus.com/ny/new-york/260994-shake-shack/menu/",
    "sg:owner":"simplegeo",
    "sg:phone":"+1 212 889 6600",
    "sg:postcode":"10010",
    "sg:province":"NY",
    "sg:tags":[
        "burger",
        "american",
        "dog",
        "hot"
    ],
    "src:geom":"simplegeo",
    "wof:belongsto":[
        85869245,
        102191575,
        85633793,
        85977539,
        421205771,
        102081863,
        85688543,
        85892937
    ],
    "wof:breaches":[],
    "wof:concordances":{
        "sg:id":"SG_0zPKJXdzsBwHdMsVUCrV4R_40.741581_-73.987549@1299784598"
    },
    "wof:country":"US",
    "wof:geomhash":"04875a608a4d1bd78318726facd64354",
    "wof:hierarchy":[
        {
            "borough_id":421205771,
            "continent_id":102191575,
            "country_id":85633793,
            "county_id":102081863,
            "locality_id":85977539,
            "neighbourhood_id":85869245,
            "region_id":85688543,
            "venue_id":571671601
        },
        {
            "borough_id":421205771,
            "continent_id":102191575,
            "country_id":85633793,
            "county_id":102081863,
            "locality_id":85977539,
            "neighbourhood_id":85892937,
            "region_id":85688543,
            "venue_id":571671601
        }
    ],
    "wof:id":571671601,
    "wof:lastmodified":1461040962,
    "wof:name":"Shake Shack",
    "wof:parent_id":-1,
    "wof:placetype":"venue",
    "wof:superseded_by":[],
    "wof:supersedes":[],
    "wof:tags":[
        "burger",
        "american",
        "dog",
        "hot"
    ]
},
  "bbox": [
    -73.987549,
    40.741581,
    -73.987549,
    40.741581
],
  "geometry": {"coordinates":[-73.987549,40.741581],"type":"Point"}
}