{
  "id": 554941113,
  "type": "Feature",
  "properties": {
    "edtf:cessation":"uuuu",
    "edtf:inception":"uuuu",
    "geom:area":0.0,
    "geom:bbox":"-74.045369,41.086004,-74.045369,41.086004",
    "geom:latitude":41.086004,
    "geom:longitude":-74.045369,
    "iso:country":"US",
    "sg:address":"23 Eastbourne Dr",
    "sg:city":"Spring Valley",
    "sg:classifiers":[
        {
            "category":"Wholesale",
            "subcategory":"Apparel",
            "type":"Manufacturing & Wholesale Goods"
        }
    ],
    "sg:owner":"simplegeo",
    "sg:phone":"+1 845 425 0008",
    "sg:postcode":"10977",
    "sg:province":"NY",
    "sg:tags":[
        "clothing"
    ],
    "src:geom":"simplegeo",
    "wof:belongsto":[
        85853261,
        102191575,
        404523097,
        85633793,
        85978555,
        102082385,
        85688543
    ],
    "wof:breaches":[],
    "wof:concordances":{
        "sg:id":"SG_7SLJR491XMgbW8fBjg1ucW_41.086004_-74.045369@1294177022"
    },
    "wof:country":"US",
    "wof:geomhash":"716b1b713fb685f4aaa202bed00fa06b",
    "wof:hierarchy":[
        {
            "continent_id":102191575,
            "country_id":85633793,
            "county_id":102082385,
            "localadmin_id":404523097,
            "locality_id":85978555,
            "neighbourhood_id":85853261,
            "region_id":85688543,
            "venue_id":554941113
        }
    ],
    "wof:id":554941113,
    "wof:lastmodified":1461017712,
    "wof:name":"Universal Sourcing",
    "wof:parent_id":85853261,
    "wof:placetype":"venue",
    "wof:superseded_by":[],
    "wof:supersedes":[],
    "wof:tags":[
        "clothing"
    ]
},
  "bbox": [
    -74.045369,
    41.086004,
    -74.045369,
    41.086004
],
  "geometry": {"coordinates":[-74.04536899999999,41.086004],"type":"Point"}
}