{
  "id": 554937393,
  "type": "Feature",
  "properties": {
    "edtf:cessation":"uuuu",
    "edtf:inception":"uuuu",
    "geom:area":0.0,
    "geom:bbox":"-74.143776,41.106048,-74.143776,41.106048",
    "geom:latitude":41.106048,
    "geom:longitude":-74.143776,
    "iso:country":"US",
    "sg:address":"32 Maplewood Blvd",
    "sg:city":"Suffern",
    "sg:classifiers":[
        {
            "category":"Personal",
            "subcategory":"Beauty Salon",
            "type":"Services"
        }
    ],
    "sg:owner":"simplegeo",
    "sg:phone":"+1   ",
    "sg:postcode":"10901",
    "sg:province":"NY",
    "src:geom":"simplegeo",
    "wof:belongsto":[
        85855885,
        102191575,
        404523097,
        85633793,
        85978523,
        102082385,
        85688543
    ],
    "wof:breaches":[],
    "wof:concordances":{
        "sg:id":"SG_4BvcUKs39g8iyQTkG5oWnm_41.106048_-74.143776@1294177022"
    },
    "wof:country":"US",
    "wof:geomhash":"608388061b643bd45a9eca40bf937960",
    "wof:hierarchy":[
        {
            "continent_id":102191575,
            "country_id":85633793,
            "county_id":102082385,
            "localadmin_id":404523097,
            "locality_id":85978523,
            "neighbourhood_id":85855885,
            "region_id":85688543,
            "venue_id":554937393
        }
    ],
    "wof:id":554937393,
    "wof:lastmodified":1461017365,
    "wof:name":"Hairs To It",
    "wof:parent_id":85855885,
    "wof:placetype":"venue",
    "wof:superseded_by":[],
    "wof:supersedes":[],
    "wof:tags":[]
},
  "bbox": [
    -74.143776,
    41.106048,
    -74.143776,
    41.106048
],
  "geometry": {"coordinates":[-74.143776,41.106048],"type":"Point"}
}