{
  "id": 554936723,
  "type": "Feature",
  "properties": {
    "edtf:cessation":"uuuu",
    "edtf:inception":"uuuu",
    "geom:area":0.0,
    "geom:bbox":"-74.114079,41.098894,-74.114079,41.098894",
    "geom:latitude":41.098894,
    "geom:longitude":-74.114079,
    "iso:country":"US",
    "sg:address":"6 Utopian Pl",
    "sg:city":"Airmont",
    "sg:classifiers":[
        {
            "category":"Building & Trades",
            "subcategory":"Construction",
            "type":"Services"
        }
    ],
    "sg:owner":"simplegeo",
    "sg:phone":"+1 845 368 0125",
    "sg:postcode":"10901",
    "sg:province":"NY",
    "sg:tags":[
        "roofing",
        "contractor"
    ],
    "src:geom":"simplegeo",
    "wof:belongsto":[
        85832837,
        102191575,
        404523097,
        85633793,
        85978559,
        102082385,
        85688543
    ],
    "wof:breaches":[],
    "wof:concordances":{
        "sg:id":"SG_76irYa6Rn0dqGJf6cidFfh_41.098894_-74.114079@1294177022"
    },
    "wof:country":"US",
    "wof:geomhash":"17ce8f12ddc4bad9704cb6dd0a211e12",
    "wof:hierarchy":[
        {
            "continent_id":102191575,
            "country_id":85633793,
            "county_id":102082385,
            "localadmin_id":404523097,
            "locality_id":85978559,
            "neighbourhood_id":85832837,
            "region_id":85688543,
            "venue_id":554936723
        }
    ],
    "wof:id":554936723,
    "wof:lastmodified":1461017267,
    "wof:name":"Reasonable Roofing",
    "wof:parent_id":85832837,
    "wof:placetype":"venue",
    "wof:superseded_by":[],
    "wof:supersedes":[],
    "wof:tags":[
        "roofing",
        "contractor"
    ]
},
  "bbox": [
    -74.114079,
    41.098894,
    -74.114079,
    41.098894
],
  "geometry": {"coordinates":[-74.114079,41.098894],"type":"Point"}
}