{
  "id": 571530373,
  "type": "Feature",
  "properties": {
    "edtf:cessation":"uuuu",
    "edtf:inception":"uuuu",
    "geom:area":0.0,
    "geom:bbox":"-73.850339,40.892337,-73.850339,40.892337",
    "geom:latitude":40.892337,
    "geom:longitude":-73.850339,
    "iso:country":"US",
    "sg:address":"4161 Boyd Ave",
    "sg:city":"Bronx",
    "sg:classifiers":[
        {
            "category":"Organizations",
            "subcategory":"Religious Organization",
            "type":"Services"
        }
    ],
    "sg:owner":"simplegeo",
    "sg:phone":"+1 845 678 9246",
    "sg:postcode":"10466",
    "sg:province":"NY",
    "sg:tags":[
        "church"
    ],
    "src:geom":"simplegeo",
    "wof:belongsto":[],
    "wof:breaches":[],
    "wof:concordances":{
        "sg:id":"SG_3T7N3Wfhp6baLrp4szcmAQ_40.892337_-73.850339@1294177022"
    },
    "wof:country":"US",
    "wof:geomhash":"c011716cf1b713ad1128287d00248a43",
    "wof:hierarchy":[],
    "wof:id":571530373,
    "wof:lastmodified":1461037790,
    "wof:name":"Walker Missionary Baptist Ch",
    "wof:parent_id":-1,
    "wof:placetype":"venue",
    "wof:superseded_by":[],
    "wof:supersedes":[],
    "wof:tags":[
        "church"
    ]
},
  "bbox": [
    -73.850339,
    40.892337,
    -73.850339,
    40.892337
],
  "geometry": {"coordinates":[-73.85033900000001,40.892337],"type":"Point"}
}