{
  "id": 572170999,
  "type": "Feature",
  "properties": {
    "edtf:cessation":"uuuu",
    "edtf:inception":"uuuu",
    "geom:area":0.0,
    "geom:bbox":"-74.300957,40.64525,-74.300957,40.64525",
    "geom:latitude":40.64525,
    "geom:longitude":-74.300957,
    "iso:country":"US",
    "sg:address":"140 58th St",
    "sg:city":"Brooklyn",
    "sg:classifiers":[
        {
            "category":"Shopping",
            "subcategory":"Clothing, Apparel, & Fashions",
            "type":"Retail Goods"
        }
    ],
    "sg:owner":"simplegeo",
    "sg:phone":"+1 718 439 8180",
    "sg:postcode":"11220",
    "sg:province":"NY",
    "sg:tags":[
        "accessory",
        "clothing",
        "women's"
    ],
    "src:geom":"simplegeo",
    "wof:belongsto":[
        85688607,
        85633793,
        85850963,
        102085995
    ],
    "wof:breaches":[],
    "wof:concordances":{
        "sg:id":"SG_2mnbYBAIAY9oLit3gbQA59_40.645250_-74.300957@1303262344"
    },
    "wof:country":"US",
    "wof:geomhash":"add890014d4d35bf709aed64031e6c96",
    "wof:hierarchy":[
        {
            "country_id":85633793,
            "county_id":102085995,
            "neighbourhood_id":85850963,
            "region_id":85688607,
            "venue_id":572170999
        }
    ],
    "wof:id":572170999,
    "wof:lastmodified":1461051437,
    "wof:name":"David's Bridal",
    "wof:parent_id":85850963,
    "wof:placetype":"venue",
    "wof:superseded_by":[],
    "wof:supersedes":[],
    "wof:tags":[
        "accessory",
        "clothing",
        "women's"
    ]
},
  "bbox": [
    -74.300957,
    40.64525,
    -74.300957,
    40.64525
],
  "geometry": {"coordinates":[-74.300957,40.64525],"type":"Point"}
}