{
  "id": 572171189,
  "type": "Feature",
  "properties": {
    "edtf:cessation":"uuuu",
    "edtf:inception":"uuuu",
    "geom:area":0.0,
    "geom:bbox":"-74.259677,40.577339,-74.259677,40.577339",
    "geom:latitude":40.577339,
    "geom:longitude":-74.259677,
    "iso:country":"US",
    "sg:address":"3375 Neptune Ave",
    "sg:city":"Brooklyn",
    "sg:classifiers":[
        {
            "category":"Health Services",
            "subcategory":"Dentist",
            "type":"Services"
        }
    ],
    "sg:owner":"simplegeo",
    "sg:phone":"+1 718 714 4900",
    "sg:postcode":"11224",
    "sg:province":"NY",
    "src:geom":"simplegeo",
    "wof:belongsto":[
        85817329,
        102191575,
        404478217,
        85633793,
        85976299,
        102087417,
        85688607
    ],
    "wof:breaches":[],
    "wof:concordances":{
        "sg:id":"SG_3f5FN184R0R757TCNIp9Zs_40.577339_-74.259677@1303262346"
    },
    "wof:country":"US",
    "wof:geomhash":"30ad4dbdbab6e133bf6f69d62cf38ffd",
    "wof:hierarchy":[
        {
            "continent_id":102191575,
            "country_id":85633793,
            "county_id":102087417,
            "localadmin_id":404478217,
            "locality_id":85976299,
            "neighbourhood_id":85817329,
            "region_id":85688607,
            "venue_id":572171189
        }
    ],
    "wof:id":572171189,
    "wof:lastmodified":1461051443,
    "wof:name":"Neptune Dental Office Inc",
    "wof:parent_id":85817329,
    "wof:placetype":"venue",
    "wof:superseded_by":[],
    "wof:supersedes":[],
    "wof:tags":[]
},
  "bbox": [
    -74.259677,
    40.577339,
    -74.259677,
    40.577339
],
  "geometry": {"coordinates":[-74.259677,40.577339],"type":"Point"}
}