{
  "id": 554941489,
  "type": "Feature",
  "properties": {
    "edtf:cessation":"uuuu",
    "edtf:inception":"uuuu",
    "geom:area":0.0,
    "geom:bbox":"-77.312419,41.990476,-77.312419,41.990476",
    "geom:latitude":41.990476,
    "geom:longitude":-77.312419,
    "iso:country":"US",
    "sg:address":"303 N Buffalo St",
    "sg:city":"Elkland",
    "sg:classifiers":[
        {
            "category":"Autos & Motor Vehicles",
            "subcategory":"Automobile Sales",
            "type":"Retail Goods"
        }
    ],
    "sg:owner":"simplegeo",
    "sg:phone":"+1 814 258 7517",
    "sg:postcode":"16920",
    "sg:province":"NY",
    "sg:tags":[
        "car",
        "used",
        "dealer"
    ],
    "src:geom":"simplegeo",
    "wof:belongsto":[
        85688481,
        85633793,
        101717081,
        102080937,
        85807903
    ],
    "wof:breaches":[],
    "wof:concordances":{
        "sg:id":"SG_3lHEJkFgDFk0MNM3WC5zdX_41.990476_-77.312419@1294177022"
    },
    "wof:country":"US",
    "wof:geomhash":"e383974b7add5506fc13cc32df8e35bf",
    "wof:hierarchy":[
        {
            "country_id":85633793,
            "county_id":102080937,
            "locality_id":101717081,
            "neighbourhood_id":85807903,
            "region_id":85688481,
            "venue_id":554941489
        }
    ],
    "wof:id":554941489,
    "wof:lastmodified":1461017764,
    "wof:name":"Scott's Used Auto Sales",
    "wof:parent_id":85807903,
    "wof:placetype":"venue",
    "wof:superseded_by":[],
    "wof:supersedes":[],
    "wof:tags":[
        "car",
        "used",
        "dealer"
    ]
},
  "bbox": [
    -77.312419,
    41.990476,
    -77.312419,
    41.990476
],
  "geometry": {"coordinates":[-77.31241900000001,41.990476],"type":"Point"}
}