{
  "id": 572175687,
  "type": "Feature",
  "properties": {
    "edtf:cessation":"uuuu",
    "edtf:inception":"uuuu",
    "geom:area":0.0,
    "geom:bbox":"-72.476222,41.310857,-72.476222,41.310857",
    "geom:latitude":41.310857,
    "geom:longitude":-72.476222,
    "iso:country":"US",
    "sg:address":"33150 Main Rd",
    "sg:city":"Cutchogue",
    "sg:classifiers":[
        {
            "category":"Real Estate",
            "subcategory":"Real Estate Services",
            "type":"Services"
        }
    ],
    "sg:owner":"simplegeo",
    "sg:phone":"+1 631 734 6000",
    "sg:postcode":"11935",
    "sg:province":"NY",
    "sg:website":"www.remax-northfork-ny.com",
    "src:geom":"simplegeo",
    "wof:belongsto":[
        85688629,
        85633793,
        85823261,
        102086211
    ],
    "wof:breaches":[],
    "wof:concordances":{
        "sg:id":"SG_2wrEisEEUc9NSbHaWsSZlf_41.310857_-72.476222@1303262383"
    },
    "wof:country":"US",
    "wof:geomhash":"4acfc4cbbd7aa08f1c70aa5a3857e4a1",
    "wof:hierarchy":[
        {
            "country_id":85633793,
            "county_id":102086211,
            "neighbourhood_id":85823261,
            "region_id":85688629,
            "venue_id":572175687
        }
    ],
    "wof:id":572175687,
    "wof:lastmodified":1461051589,
    "wof:name":"RE MAX",
    "wof:parent_id":85823261,
    "wof:placetype":"venue",
    "wof:superseded_by":[],
    "wof:supersedes":[],
    "wof:tags":[]
},
  "bbox": [
    -72.476222,
    41.310857,
    -72.476222,
    41.310857
],
  "geometry": {"coordinates":[-72.47622200000001,41.310857],"type":"Point"}
}