{
  "id": 554935047,
  "type": "Feature",
  "properties": {
    "edtf:cessation":"uuuu",
    "edtf:inception":"uuuu",
    "geom:area":0.0,
    "geom:bbox":"-73.481209,41.193424,-73.481209,41.193424",
    "geom:latitude":41.193424,
    "geom:longitude":-73.481209,
    "iso:country":"US",
    "sg:address":"60 Evergreen Rd",
    "sg:city":"New Canaan",
    "sg:classifiers":[
        {
            "category":"Professional",
            "subcategory":"Management & Consulting",
            "type":"Services"
        }
    ],
    "sg:owner":"simplegeo",
    "sg:phone":"+1 203 972 3408",
    "sg:postcode":"06840",
    "sg:province":"NY",
    "sg:tags":[
        "consultant",
        "industrial"
    ],
    "src:geom":"simplegeo",
    "wof:belongsto":[],
    "wof:breaches":[],
    "wof:concordances":{
        "sg:id":"SG_0reY0bJ2wuLUXNVWNw51z5_41.193424_-73.481209@1294177022"
    },
    "wof:country":"US",
    "wof:geomhash":"d5c1c17e42a8bb62a528b65d7ab3452d",
    "wof:hierarchy":[],
    "wof:id":554935047,
    "wof:lastmodified":1461017017,
    "wof:name":"S C Management Svc Corp",
    "wof:parent_id":-1,
    "wof:placetype":"venue",
    "wof:superseded_by":[],
    "wof:supersedes":[],
    "wof:tags":[
        "consultant",
        "industrial"
    ]
},
  "bbox": [
    -73.481209,
    41.193424,
    -73.481209,
    41.193424
],
  "geometry": {"coordinates":[-73.48120900000001,41.193424],"type":"Point"}
}