{
  "id": 554941167,
  "type": "Feature",
  "properties": {
    "edtf:cessation":"uuuu",
    "edtf:inception":"uuuu",
    "geom:area":0.0,
    "geom:bbox":"-73.495266,41.14631,-73.495266,41.14631",
    "geom:latitude":41.14631,
    "geom:longitude":-73.495266,
    "iso:country":"US",
    "sg:address":"102 Park St",
    "sg:city":"New Canaan",
    "sg:classifiers":[
        {
            "category":"Shopping",
            "subcategory":"Clothing, Apparel, & Fashions",
            "type":"Retail Goods"
        }
    ],
    "sg:owner":"simplegeo",
    "sg:phone":"+1 203 966 1764",
    "sg:postcode":"06840",
    "sg:province":"NY",
    "src:geom":"simplegeo",
    "wof:belongsto":[
        85688629,
        85633793,
        85851779,
        102084283
    ],
    "wof:breaches":[],
    "wof:concordances":{
        "sg:id":"SG_10MVmdk1G4t1ededAri3fs_41.146310_-73.495266@1294177022"
    },
    "wof:country":"US",
    "wof:geomhash":"226adbe06b6fcdfb0f0fa5a9fe26e9ac",
    "wof:hierarchy":[
        {
            "country_id":85633793,
            "county_id":102084283,
            "neighbourhood_id":85851779,
            "region_id":85688629,
            "venue_id":554941167
        }
    ],
    "wof:id":554941167,
    "wof:lastmodified":1461017716,
    "wof:name":"L'Armoire",
    "wof:parent_id":85851779,
    "wof:placetype":"venue",
    "wof:superseded_by":[],
    "wof:supersedes":[],
    "wof:tags":[]
},
  "bbox": [
    -73.495266,
    41.14631,
    -73.495266,
    41.14631
],
  "geometry": {"coordinates":[-73.495266,41.14631],"type":"Point"}
}