{
  "id": 571665769,
  "type": "Feature",
  "properties": {
    "edtf:cessation":"uuuu",
    "edtf:inception":"uuuu",
    "geom:area":0.0,
    "geom:bbox":"-73.684459,40.640928,-73.684459,40.640928",
    "geom:latitude":40.640928,
    "geom:longitude":-73.684459,
    "iso:country":"US",
    "sg:address":"195 Lakeview Dr",
    "sg:city":"Hewlett",
    "sg:classifiers":[
        {
            "category":"Health Services",
            "subcategory":"Chiropractor",
            "type":"Services"
        }
    ],
    "sg:owner":"simplegeo",
    "sg:phone":"+1 516 569 7614",
    "sg:postcode":"11557",
    "sg:province":"NY",
    "sg:tags":[
        "chiropractic"
    ],
    "src:geom":"simplegeo",
    "wof:belongsto":[],
    "wof:breaches":[],
    "wof:concordances":{
        "sg:id":"SG_7kOYLhPdZvNcX95Oyd0xPy_40.640856_-73.684327@1293134755"
    },
    "wof:country":"US",
    "wof:geomhash":"acc3ae3f0d46b84774a459f82ca30101",
    "wof:hierarchy":[],
    "wof:id":571665769,
    "wof:lastmodified":1461040852,
    "wof:name":"Marjory Entin Dc",
    "wof:parent_id":-1,
    "wof:placetype":"venue",
    "wof:superseded_by":[],
    "wof:supersedes":[],
    "wof:tags":[
        "chiropractic"
    ]
},
  "bbox": [
    -73.684459,
    40.640928,
    -73.684459,
    40.640928
],
  "geometry": {"coordinates":[-73.684459,40.640928],"type":"Point"}
}