{
  "id": 554940971,
  "type": "Feature",
  "properties": {
    "edtf:cessation":"uuuu",
    "edtf:inception":"uuuu",
    "geom:area":0.0,
    "geom:bbox":"-74.045457,41.065702,-74.045457,41.065702",
    "geom:latitude":41.065702,
    "geom:longitude":-74.045457,
    "iso:country":"US",
    "sg:address":"724 S Pascack Rd",
    "sg:city":"Spring Valley",
    "sg:classifiers":[
        {
            "category":"Social Services",
            "subcategory":"Adult Care",
            "type":"Services"
        }
    ],
    "sg:owner":"simplegeo",
    "sg:phone":"+1 845 623 4780",
    "sg:postcode":"10977",
    "sg:province":"NY",
    "sg:tags":[
        "mentally",
        "residence",
        "community",
        "for",
        "retarded"
    ],
    "src:geom":"simplegeo",
    "wof:belongsto":[
        85853261,
        102191575,
        404523097,
        85633793,
        85978555,
        102082385,
        85688543
    ],
    "wof:breaches":[],
    "wof:concordances":{
        "sg:id":"SG_4ycVZWgcZ1kJ9HUKn2uB64_41.065702_-74.045457@1294177022"
    },
    "wof:country":"US",
    "wof:geomhash":"de47bfc7ac7bb4a5cf9cf89b547ea4c4",
    "wof:hierarchy":[
        {
            "continent_id":102191575,
            "country_id":85633793,
            "county_id":102082385,
            "localadmin_id":404523097,
            "locality_id":85978555,
            "neighbourhood_id":85853261,
            "region_id":85688543,
            "venue_id":554940971
        }
    ],
    "wof:id":554940971,
    "wof:lastmodified":1461017695,
    "wof:name":"Tanglewood Acres",
    "wof:parent_id":85853261,
    "wof:placetype":"venue",
    "wof:superseded_by":[],
    "wof:supersedes":[],
    "wof:tags":[
        "mentally",
        "residence",
        "community",
        "for",
        "retarded"
    ]
},
  "bbox": [
    -74.045457,
    41.065702,
    -74.045457,
    41.065702
],
  "geometry": {"coordinates":[-74.045457,41.065702],"type":"Point"}
}