{
  "id": 572175329,
  "type": "Feature",
  "properties": {
    "edtf:cessation":"uuuu",
    "edtf:inception":"uuuu",
    "geom:area":0.0,
    "geom:bbox":"-73.977887,40.827967,-73.977887,40.827967",
    "geom:latitude":40.827967,
    "geom:longitude":-73.977887,
    "iso:country":"US",
    "sg:address":"30 Holly Rd",
    "sg:city":"Ronkonkoma",
    "sg:classifiers":[
        {
            "category":"Sports & Exercise",
            "subcategory":"Gym",
            "type":"Entertainment"
        }
    ],
    "sg:owner":"simplegeo",
    "sg:phone":"+1 631 737 2442",
    "sg:postcode":"11779",
    "sg:province":"NY",
    "sg:tags":[
        "trainer"
    ],
    "sg:website":"www.jazzercise.com",
    "src:geom":"simplegeo",
    "wof:belongsto":[
        85882237,
        102191575,
        404477537,
        85633793,
        85975869,
        102086773,
        85688607
    ],
    "wof:breaches":[],
    "wof:concordances":{
        "sg:id":"SG_7mU27qYPcPbmBWUHS77W4d_40.827967_-73.977887@1303262379"
    },
    "wof:country":"US",
    "wof:geomhash":"d119305562dd90d53342dc2c2243dd8a",
    "wof:hierarchy":[
        {
            "continent_id":102191575,
            "country_id":85633793,
            "county_id":102086773,
            "localadmin_id":404477537,
            "locality_id":85975869,
            "neighbourhood_id":85882237,
            "region_id":85688607,
            "venue_id":572175329
        }
    ],
    "wof:id":572175329,
    "wof:lastmodified":1461051577,
    "wof:name":"Jazzercise",
    "wof:parent_id":85882237,
    "wof:placetype":"venue",
    "wof:superseded_by":[],
    "wof:supersedes":[],
    "wof:tags":[
        "trainer"
    ]
},
  "bbox": [
    -73.977887,
    40.827967,
    -73.977887,
    40.827967
],
  "geometry": {"coordinates":[-73.977887,40.827967],"type":"Point"}
}