{
  "id": 554939329,
  "type": "Feature",
  "properties": {
    "edtf:cessation":"uuuu",
    "edtf:inception":"uuuu",
    "geom:area":0.0,
    "geom:bbox":"-74.147266,41.106721,-74.147266,41.106721",
    "geom:latitude":41.106721,
    "geom:longitude":-74.147266,
    "iso:country":"US",
    "sg:address":"96 Lonergan Dr",
    "sg:city":"Suffern",
    "sg:classifiers":[
        {
            "category":"Building & Trades",
            "subcategory":"Construction",
            "type":"Services"
        }
    ],
    "sg:owner":"simplegeo",
    "sg:phone":"+1 845 357 0971",
    "sg:postcode":"10901",
    "sg:province":"NY",
    "sg:tags":[
        "house"
    ],
    "src:geom":"simplegeo",
    "wof:belongsto":[
        85855885,
        102191575,
        404523097,
        85633793,
        85978523,
        102082385,
        85688543
    ],
    "wof:breaches":[],
    "wof:concordances":{
        "sg:id":"SG_288LfLhhJKd2sdIVMQb6Xh_41.106721_-74.147266@1294177022"
    },
    "wof:country":"US",
    "wof:geomhash":"2db87206589cc0b8efe5a6f608f9d226",
    "wof:hierarchy":[
        {
            "continent_id":102191575,
            "country_id":85633793,
            "county_id":102082385,
            "localadmin_id":404523097,
            "locality_id":85978523,
            "neighbourhood_id":85855885,
            "region_id":85688543,
            "venue_id":554939329
        }
    ],
    "wof:id":554939329,
    "wof:lastmodified":1461017553,
    "wof:name":"Hanys Home Improvement",
    "wof:parent_id":85855885,
    "wof:placetype":"venue",
    "wof:superseded_by":[],
    "wof:supersedes":[],
    "wof:tags":[
        "house"
    ]
},
  "bbox": [
    -74.147266,
    41.106721,
    -74.147266,
    41.106721
],
  "geometry": {"coordinates":[-74.147266,41.106721],"type":"Point"}
}