{
  "id": 554940751,
  "type": "Feature",
  "properties": {
    "edtf:cessation":"uuuu",
    "edtf:inception":"uuuu",
    "geom:area":0.0,
    "geom:bbox":"-73.633128,41.02999,-73.633128,41.02999",
    "geom:latitude":41.02999,
    "geom:longitude":-73.633128,
    "iso:country":"US",
    "sg:address":"4 Dearfield Ln",
    "sg:city":"Greenwich",
    "sg:classifiers":[
        {
            "category":"Professional",
            "subcategory":"Business Services",
            "type":"Services"
        }
    ],
    "sg:owner":"simplegeo",
    "sg:phone":"+1   ",
    "sg:postcode":"06831",
    "sg:province":"NY",
    "src:geom":"simplegeo",
    "wof:belongsto":[
        420555529,
        102191575,
        404495949,
        85633793,
        85930941,
        102084283,
        85688629
    ],
    "wof:breaches":[],
    "wof:concordances":{
        "sg:id":"SG_3IelAacX63JNu2fM7Ugt8n_41.029990_-73.633128@1294177022"
    },
    "wof:country":"US",
    "wof:geomhash":"395322aca899c4ea471013a3abb6a701",
    "wof:hierarchy":[
        {
            "continent_id":102191575,
            "country_id":85633793,
            "county_id":102084283,
            "localadmin_id":404495949,
            "locality_id":85930941,
            "neighbourhood_id":420555529,
            "region_id":85688629,
            "venue_id":554940751
        }
    ],
    "wof:id":554940751,
    "wof:lastmodified":1461017676,
    "wof:name":"Strategic Enterprises LLC",
    "wof:parent_id":420555529,
    "wof:placetype":"venue",
    "wof:superseded_by":[],
    "wof:supersedes":[],
    "wof:tags":[]
},
  "bbox": [
    -73.633128,
    41.02999,
    -73.633128,
    41.02999
],
  "geometry": {"coordinates":[-73.633128,41.02999],"type":"Point"}
}