{
  "id": 554937211,
  "type": "Feature",
  "properties": {
    "edtf:cessation":"uuuu",
    "edtf:inception":"uuuu",
    "geom:area":0.0,
    "geom:bbox":"-73.473878,41.124487,-73.473878,41.124487",
    "geom:latitude":41.124487,
    "geom:longitude":-73.473878,
    "iso:country":"US",
    "sg:address":"376 White Oak Shade Rd",
    "sg:city":"New Canaan",
    "sg:classifiers":[
        {
            "category":"Professional",
            "subcategory":"Business Services",
            "type":"Services"
        }
    ],
    "sg:owner":"simplegeo",
    "sg:phone":"+1   ",
    "sg:postcode":"06840",
    "sg:province":"NY",
    "src:geom":"simplegeo",
    "wof:belongsto":[
        85688629,
        85633793,
        85851779,
        102084283
    ],
    "wof:breaches":[],
    "wof:concordances":{
        "sg:id":"SG_1k2W4WQTh9bDLuNPTSxddM_41.124487_-73.473878@1294177022"
    },
    "wof:country":"US",
    "wof:geomhash":"d07418fecdd947350fbb957a62023674",
    "wof:hierarchy":[
        {
            "country_id":85633793,
            "county_id":102084283,
            "neighbourhood_id":85851779,
            "region_id":85688629,
            "venue_id":554937211
        }
    ],
    "wof:id":554937211,
    "wof:lastmodified":1461017337,
    "wof:name":"Louise Pastores Interiors",
    "wof:parent_id":85851779,
    "wof:placetype":"venue",
    "wof:superseded_by":[],
    "wof:supersedes":[],
    "wof:tags":[]
},
  "bbox": [
    -73.473878,
    41.124487,
    -73.473878,
    41.124487
],
  "geometry": {"coordinates":[-73.473878,41.124487],"type":"Point"}
}