{
  "id": 554935457,
  "type": "Feature",
  "properties": {
    "edtf:cessation":"uuuu",
    "edtf:inception":"uuuu",
    "geom:area":0.0,
    "geom:bbox":"-73.49408,41.149305,-73.49408,41.149305",
    "geom:latitude":41.149305,
    "geom:longitude":-73.49408,
    "iso:country":"US",
    "sg:address":"125 Heritage Hill Rd",
    "sg:city":"New Canaan",
    "sg:classifiers":[
        {
            "category":"Wholesale",
            "subcategory":"Machinery & Supplies",
            "type":"Manufacturing & Wholesale Goods"
        }
    ],
    "sg:owner":"simplegeo",
    "sg:phone":"+1 203 966 0833",
    "sg:postcode":"06840",
    "sg:province":"NY",
    "sg:tags":[
        "ship",
        "broker"
    ],
    "src:geom":"simplegeo",
    "wof:belongsto":[
        85688629,
        85633793,
        85851779,
        102084283
    ],
    "wof:breaches":[],
    "wof:concordances":{
        "sg:id":"SG_1WrqiDULUKJYwx8WbyACr0_41.149305_-73.494080@1294177022"
    },
    "wof:country":"US",
    "wof:geomhash":"a3bce67cb077caae19fbaec5d76dcea6",
    "wof:hierarchy":[
        {
            "country_id":85633793,
            "county_id":102084283,
            "neighbourhood_id":85851779,
            "region_id":85688629,
            "venue_id":554935457
        }
    ],
    "wof:id":554935457,
    "wof:lastmodified":1461017072,
    "wof:name":"Map Logistics Inc",
    "wof:parent_id":85851779,
    "wof:placetype":"venue",
    "wof:superseded_by":[],
    "wof:supersedes":[],
    "wof:tags":[
        "ship",
        "broker"
    ]
},
  "bbox": [
    -73.49408,
    41.149305,
    -73.49408,
    41.149305
],
  "geometry": {"coordinates":[-73.49408,41.149305],"type":"Point"}
}