{
  "id": 572170175,
  "type": "Feature",
  "properties": {
    "edtf:cessation":"uuuu",
    "edtf:inception":"uuuu",
    "geom:area":0.0,
    "geom:bbox":"-74.294752,40.628524,-74.294752,40.628524",
    "geom:latitude":40.628524,
    "geom:longitude":-74.294752,
    "iso:country":"US",
    "sg:address":"504 76th St",
    "sg:city":"Brooklyn",
    "sg:classifiers":[
        {
            "category":"Building & Trades",
            "subcategory":"Locksmith",
            "type":"Services"
        }
    ],
    "sg:owner":"simplegeo",
    "sg:phone":"+1 347 554 2681",
    "sg:postcode":"11209",
    "sg:province":"NY",
    "sg:tags":[
        "key"
    ],
    "src:geom":"simplegeo",
    "wof:belongsto":[],
    "wof:breaches":[],
    "wof:concordances":{
        "sg:id":"SG_6XHHchdlkLz7WiNFPAufaL_40.628524_-74.294752@1303262338"
    },
    "wof:country":"US",
    "wof:geomhash":"7bf0e2b9f58968bb465b5e013938be27",
    "wof:hierarchy":[],
    "wof:id":572170175,
    "wof:lastmodified":1461051413,
    "wof:name":"Amazon Lock And Key",
    "wof:parent_id":-1,
    "wof:placetype":"venue",
    "wof:superseded_by":[],
    "wof:supersedes":[],
    "wof:tags":[
        "key"
    ]
},
  "bbox": [
    -74.294752,
    40.628524,
    -74.294752,
    40.628524
],
  "geometry": {"coordinates":[-74.294752,40.628524],"type":"Point"}
}