{
  "id": 555281203,
  "type": "Feature",
  "properties": {
    "edtf:cessation":"uuuu",
    "edtf:inception":"uuuu",
    "geom:area":0.0,
    "geom:bbox":"-74.009213,41.507455,-74.009213,41.507455",
    "geom:latitude":41.507455,
    "geom:longitude":-74.009213,
    "iso:country":"US",
    "sg:address":"251 Grand St",
    "sg:city":"Newburgh",
    "sg:classifiers":[
        {
            "category":"Organizations",
            "subcategory":"Religious Organization",
            "type":"Services"
        }
    ],
    "sg:owner":"simplegeo",
    "sg:phone":"+1 845 565 5053",
    "sg:postcode":"12550",
    "sg:province":"NY",
    "sg:tags":[
        "church"
    ],
    "src:geom":"simplegeo",
    "wof:belongsto":[],
    "wof:breaches":[],
    "wof:concordances":{
        "sg:id":"SG_2yjx4FAbwnXF2sxT5b5py7_41.507455_-74.009213@1294177022"
    },
    "wof:country":"US",
    "wof:geomhash":"4b49a06aedb734924defc917fd683149",
    "wof:hierarchy":[],
    "wof:id":555281203,
    "wof:lastmodified":1461026074,
    "wof:name":"Newburgh Tabernacle Seventh Dy",
    "wof:parent_id":-1,
    "wof:placetype":"venue",
    "wof:superseded_by":[],
    "wof:supersedes":[],
    "wof:tags":[
        "church"
    ]
},
  "bbox": [
    -74.009213,
    41.507455,
    -74.009213,
    41.507455
],
  "geometry": {"coordinates":[-74.009213,41.507455],"type":"Point"}
}