{
  "id": 554938509,
  "type": "Feature",
  "properties": {
    "edtf:cessation":"uuuu",
    "edtf:inception":"uuuu",
    "geom:area":0.0,
    "geom:bbox":"-73.638663,41.138979,-73.638663,41.138979",
    "geom:latitude":41.138979,
    "geom:longitude":-73.638663,
    "iso:country":"US",
    "sg:address":"1064 North St",
    "sg:city":"Greenwich",
    "sg:classifiers":[
        {
            "category":"Shopping",
            "subcategory":"Clothing, Apparel, & Fashions",
            "type":"Retail Goods"
        }
    ],
    "sg:owner":"simplegeo",
    "sg:phone":"+1 203 622 4558",
    "sg:postcode":"06831",
    "sg:province":"NY",
    "src:geom":"simplegeo",
    "wof:belongsto":[],
    "wof:breaches":[],
    "wof:concordances":{
        "sg:id":"SG_6csuubDSX3Bsux8pTqTQrd_41.138979_-73.638663@1294177022"
    },
    "wof:country":"US",
    "wof:geomhash":"9b29a7783ac2970767ba31d793867871",
    "wof:hierarchy":[],
    "wof:id":554938509,
    "wof:lastmodified":1461017483,
    "wof:name":"Elizabeth Day Lawrence",
    "wof:parent_id":-1,
    "wof:placetype":"venue",
    "wof:superseded_by":[],
    "wof:supersedes":[],
    "wof:tags":[]
},
  "bbox": [
    -73.638663,
    41.138979,
    -73.638663,
    41.138979
],
  "geometry": {"coordinates":[-73.63866299999999,41.138979],"type":"Point"}
}