{
  "id": 571551827,
  "type": "Feature",
  "properties": {
    "edtf:cessation":"uuuu",
    "edtf:inception":"uuuu",
    "geom:area":0.0,
    "geom:bbox":"-77.429658,43.212365,-77.429658,43.212365",
    "geom:latitude":43.212365,
    "geom:longitude":-77.429658,
    "iso:country":"US",
    "sg:address":"14 E Main St",
    "sg:city":"Webster",
    "sg:classifiers":[
        {
            "category":"Personal",
            "subcategory":"Beauty Salon",
            "type":"Services"
        }
    ],
    "sg:owner":"simplegeo",
    "sg:phone":"+1   ",
    "sg:postcode":"14580",
    "sg:province":"NY",
    "sg:tags":[
        "shop"
    ],
    "src:geom":"simplegeo",
    "wof:belongsto":[],
    "wof:breaches":[],
    "wof:concordances":{
        "sg:id":"SG_4qTeFjlwI3wppQsnTpsP95_43.212365_-77.429658@1294177022"
    },
    "wof:country":"US",
    "wof:geomhash":"2ae19f7a5e4dcc14c28021fb6c296209",
    "wof:hierarchy":[],
    "wof:id":571551827,
    "wof:lastmodified":1461038236,
    "wof:name":"Studio 91",
    "wof:parent_id":-1,
    "wof:placetype":"venue",
    "wof:superseded_by":[],
    "wof:supersedes":[],
    "wof:tags":[
        "shop"
    ]
},
  "bbox": [
    -77.429658,
    43.212365,
    -77.429658,
    43.212365
],
  "geometry": {"coordinates":[-77.429658,43.212365],"type":"Point"}
}