{
  "id": 554940461,
  "type": "Feature",
  "properties": {
    "edtf:cessation":"uuuu",
    "edtf:inception":"uuuu",
    "geom:area":0.0,
    "geom:bbox":"-73.494139,41.145782,-73.494139,41.145782",
    "geom:latitude":41.145782,
    "geom:longitude":-73.494139,
    "iso:country":"US",
    "sg:address":"26 Cherry St",
    "sg:city":"New Canaan",
    "sg:classifiers":[
        {
            "category":"Real Estate",
            "subcategory":"Real Estate Agent",
            "type":"Services"
        }
    ],
    "sg:owner":"simplegeo",
    "sg:phone":"+1 203 966 2633",
    "sg:postcode":"06840",
    "sg:province":"NY",
    "sg:tags":[
        "agency"
    ],
    "src:geom":"simplegeo",
    "wof:belongsto":[
        85688629,
        85633793,
        85851779,
        102084283
    ],
    "wof:breaches":[],
    "wof:concordances":{
        "sg:id":"SG_5DWlAzMqWrEB4QZfTjqgdN_41.145782_-73.494139@1294177022"
    },
    "wof:country":"US",
    "wof:geomhash":"8afd8e247f74877fb73498cbb3ebf458",
    "wof:hierarchy":[
        {
            "country_id":85633793,
            "county_id":102084283,
            "neighbourhood_id":85851779,
            "region_id":85688629,
            "venue_id":554940461
        }
    ],
    "wof:id":554940461,
    "wof:lastmodified":1461017654,
    "wof:name":"Pitt William RE Ltd Partnr",
    "wof:parent_id":85851779,
    "wof:placetype":"venue",
    "wof:superseded_by":[],
    "wof:supersedes":[],
    "wof:tags":[
        "agency"
    ]
},
  "bbox": [
    -73.494139,
    41.145782,
    -73.494139,
    41.145782
],
  "geometry": {"coordinates":[-73.494139,41.145782],"type":"Point"}
}