{
  "id": 554937373,
  "type": "Feature",
  "properties": {
    "edtf:cessation":"uuuu",
    "edtf:inception":"uuuu",
    "geom:area":0.0,
    "geom:bbox":"-73.637307,41.148262,-73.637307,41.148262",
    "geom:latitude":41.148262,
    "geom:longitude":-73.637307,
    "iso:country":"US",
    "sg:address":"5 Peppercorn Pl",
    "sg:city":"Bedford",
    "sg:classifiers":[
        {
            "category":"Real Estate",
            "subcategory":"Real Estate Agent",
            "type":"Services"
        }
    ],
    "sg:owner":"simplegeo",
    "sg:phone":"+1 914 234 7753",
    "sg:postcode":"10506",
    "sg:province":"NY",
    "src:geom":"simplegeo",
    "wof:belongsto":[
        85688629,
        85633793,
        85930787,
        102084283,
        85838073
    ],
    "wof:breaches":[],
    "wof:concordances":{
        "sg:id":"SG_3JyLBd1tKAp0POOL8I0Bn5_41.148262_-73.637307@1294177022"
    },
    "wof:country":"US",
    "wof:geomhash":"69977c81839f6e9b52594505557dcfc2",
    "wof:hierarchy":[
        {
            "country_id":85633793,
            "county_id":102084283,
            "locality_id":85930787,
            "neighbourhood_id":85838073,
            "region_id":85688629,
            "venue_id":554937373
        }
    ],
    "wof:id":554937373,
    "wof:lastmodified":1461017359,
    "wof:name":"776 Warburton Inc",
    "wof:parent_id":85838073,
    "wof:placetype":"venue",
    "wof:superseded_by":[],
    "wof:supersedes":[],
    "wof:tags":[]
},
  "bbox": [
    -73.637307,
    41.148262,
    -73.637307,
    41.148262
],
  "geometry": {"coordinates":[-73.63730700000001,41.148262],"type":"Point"}
}