{
  "id": 555135395,
  "type": "Feature",
  "properties": {
    "edtf:cessation":"uuuu",
    "edtf:inception":"uuuu",
    "geom:area":0.0,
    "geom:bbox":"-74.689584,41.657998,-74.689584,41.657998",
    "geom:latitude":41.657998,
    "geom:longitude":-74.689584,
    "iso:country":"US",
    "sg:address":"33 Liberty St",
    "sg:city":"Monticello",
    "sg:classifiers":[
        {
            "category":"Health Services",
            "subcategory":"Nursing And Care Facility",
            "type":"Services"
        }
    ],
    "sg:owner":"simplegeo",
    "sg:phone":"+1 845 794 8767",
    "sg:postcode":"12701",
    "sg:province":"NY",
    "sg:tags":[
        "home",
        "convalescent"
    ],
    "src:geom":"simplegeo",
    "wof:belongsto":[],
    "wof:breaches":[],
    "wof:concordances":{
        "sg:id":"SG_7iMXJlLSo3mfJPgV7gxHSK_41.657998_-74.689584@1294177022"
    },
    "wof:country":"US",
    "wof:geomhash":"0106257fede10cf3eb9e3f7ff067b57c",
    "wof:hierarchy":[],
    "wof:id":555135395,
    "wof:lastmodified":1461022814,
    "wof:name":"John Crawford Senior Housing",
    "wof:parent_id":420530101,
    "wof:placetype":"venue",
    "wof:superseded_by":[],
    "wof:supersedes":[],
    "wof:tags":[
        "home",
        "convalescent"
    ]
},
  "bbox": [
    -74.689584,
    41.657998,
    -74.689584,
    41.657998
],
  "geometry": {"coordinates":[-74.689584,41.657998],"type":"Point"}
}