{
  "id": 572171675,
  "type": "Feature",
  "properties": {
    "edtf:cessation":"uuuu",
    "edtf:inception":"uuuu",
    "geom:area":0.0,
    "geom:bbox":"-74.897159,40.651067,-74.897159,40.651067",
    "geom:latitude":40.651067,
    "geom:longitude":-74.897159,
    "iso:country":"US",
    "sg:address":"3921 5th Ave",
    "sg:city":"Brooklyn",
    "sg:classifiers":[
        {
            "category":"Cinema",
            "subcategory":"Movie Rental",
            "type":"Entertainment"
        }
    ],
    "sg:owner":"simplegeo",
    "sg:phone":"+1 718 435 3574",
    "sg:postcode":"11232",
    "sg:province":"NY",
    "sg:tags":[
        "game",
        "video"
    ],
    "src:geom":"simplegeo",
    "wof:belongsto":[
        85841547,
        102191575,
        404478221,
        85633793,
        85975687,
        102085997,
        85688607
    ],
    "wof:breaches":[],
    "wof:concordances":{
        "sg:id":"SG_26YKLYCF1iEuVwztIrgNP9_40.651067_-74.897159@1303262348"
    },
    "wof:country":"US",
    "wof:geomhash":"080b9c68514353650dc14810e564bc9f",
    "wof:hierarchy":[
        {
            "continent_id":102191575,
            "country_id":85633793,
            "county_id":102085997,
            "localadmin_id":404478221,
            "locality_id":85975687,
            "neighbourhood_id":85841547,
            "region_id":85688607,
            "venue_id":572171675
        }
    ],
    "wof:id":572171675,
    "wof:lastmodified":1461051460,
    "wof:name":"Merila Video Store",
    "wof:parent_id":85841547,
    "wof:placetype":"venue",
    "wof:superseded_by":[],
    "wof:supersedes":[],
    "wof:tags":[
        "game",
        "video"
    ]
},
  "bbox": [
    -74.897159,
    40.651067,
    -74.897159,
    40.651067
],
  "geometry": {"coordinates":[-74.897159,40.651067],"type":"Point"}
}