{
  "id": 554937403,
  "type": "Feature",
  "properties": {
    "edtf:cessation":"uuuu",
    "edtf:inception":"uuuu",
    "geom:area":0.0,
    "geom:bbox":"-73.538922,41.161872,-73.538922,41.161872",
    "geom:latitude":41.161872,
    "geom:longitude":-73.538922,
    "iso:country":"US",
    "sg:address":"1480 Ponus Ridge",
    "sg:city":"New Canaan",
    "sg:classifiers":[
        {
            "category":"Communications",
            "subcategory":"Film & Video Production",
            "type":"Services"
        },
        {
            "category":"Education",
            "subcategory":"Special Training",
            "type":"Public Place"
        }
    ],
    "sg:owner":"simplegeo",
    "sg:phone":"+1   ",
    "sg:postcode":"06840",
    "sg:province":"NY",
    "sg:tags":[
        "motion",
        "picture"
    ],
    "src:geom":"simplegeo",
    "wof:belongsto":[
        85688629,
        85633793,
        85842701,
        102084283
    ],
    "wof:breaches":[],
    "wof:concordances":{
        "sg:id":"SG_3LPu3DauuD3IRR3yLq3Qj1_41.161872_-73.538922@1294177022"
    },
    "wof:country":"US",
    "wof:geomhash":"1401cc47b4ce71b328fb61f40070dfe9",
    "wof:hierarchy":[
        {
            "country_id":85633793,
            "county_id":102084283,
            "neighbourhood_id":85842701,
            "region_id":85688629,
            "venue_id":554937403
        }
    ],
    "wof:id":554937403,
    "wof:lastmodified":1461017367,
    "wof:name":"Double Diamond Corp",
    "wof:parent_id":85842701,
    "wof:placetype":"venue",
    "wof:superseded_by":[],
    "wof:supersedes":[],
    "wof:tags":[
        "motion",
        "picture"
    ]
},
  "bbox": [
    -73.538922,
    41.161872,
    -73.538922,
    41.161872
],
  "geometry": {"coordinates":[-73.538922,41.161872],"type":"Point"}
}