{
  "id": 554936469,
  "type": "Feature",
  "properties": {
    "edtf:cessation":"uuuu",
    "edtf:inception":"uuuu",
    "geom:area":0.0,
    "geom:bbox":"-73.485032,41.115993,-73.485032,41.115993",
    "geom:latitude":41.115993,
    "geom:longitude":-73.485032,
    "iso:country":"US",
    "sg:address":"986 South Ave",
    "sg:city":"New Canaan",
    "sg:classifiers":[
        {
            "category":"Banks & Credit Unions",
            "subcategory":"Investment Brokerage",
            "type":"Services"
        }
    ],
    "sg:owner":"simplegeo",
    "sg:phone":"+1 203 972 1659",
    "sg:postcode":"06840",
    "sg:province":"NY",
    "sg:tags":[
        "advisory"
    ],
    "src:geom":"simplegeo",
    "wof:belongsto":[
        85688629,
        85633793,
        85851779,
        102084283
    ],
    "wof:breaches":[],
    "wof:concordances":{
        "sg:id":"SG_3g0lExMesNoEkT8i5oaGOk_41.115993_-73.485032@1294177022"
    },
    "wof:country":"US",
    "wof:geomhash":"0511a16854e91fce1f14f19e36ad4e1f",
    "wof:hierarchy":[
        {
            "country_id":85633793,
            "county_id":102084283,
            "neighbourhood_id":85851779,
            "region_id":85688629,
            "venue_id":554936469
        }
    ],
    "wof:id":554936469,
    "wof:lastmodified":1461017228,
    "wof:name":"Timothy F Dann",
    "wof:parent_id":85851779,
    "wof:placetype":"venue",
    "wof:superseded_by":[],
    "wof:supersedes":[],
    "wof:tags":[
        "advisory"
    ]
},
  "bbox": [
    -73.485032,
    41.115993,
    -73.485032,
    41.115993
],
  "geometry": {"coordinates":[-73.485032,41.115993],"type":"Point"}
}