{
  "id": 554935843,
  "type": "Feature",
  "properties": {
    "edtf:cessation":"uuuu",
    "edtf:inception":"uuuu",
    "geom:area":0.0,
    "geom:bbox":"-73.694658,41.111926,-73.694658,41.111926",
    "geom:latitude":41.111926,
    "geom:longitude":-73.694658,
    "iso:country":"US",
    "sg:address":"741 Riversville Rd",
    "sg:city":"Greenwich",
    "sg:classifiers":[
        {
            "category":"Shopping",
            "subcategory":"",
            "type":"Retail Goods"
        }
    ],
    "sg:owner":"simplegeo",
    "sg:phone":"+1 203 863 9161",
    "sg:postcode":"06831",
    "sg:province":"NY",
    "sg:tags":[
        "merchandise"
    ],
    "src:geom":"simplegeo",
    "wof:belongsto":[
        85688629,
        85633793,
        85837667,
        102084283
    ],
    "wof:breaches":[],
    "wof:concordances":{
        "sg:id":"SG_7UJZoJx4iwc3UJTHHAugrf_41.111926_-73.694658@1294177022"
    },
    "wof:country":"US",
    "wof:geomhash":"9c6f466a12ddfc16cae287fdb0a293fa",
    "wof:hierarchy":[
        {
            "country_id":85633793,
            "county_id":102084283,
            "neighbourhood_id":85837667,
            "region_id":85688629,
            "venue_id":554935843
        }
    ],
    "wof:id":554935843,
    "wof:lastmodified":1461017128,
    "wof:name":"Flag of Honor",
    "wof:parent_id":85837667,
    "wof:placetype":"venue",
    "wof:superseded_by":[],
    "wof:supersedes":[],
    "wof:tags":[
        "merchandise"
    ]
},
  "bbox": [
    -73.694658,
    41.111926,
    -73.694658,
    41.111926
],
  "geometry": {"coordinates":[-73.694658,41.111926],"type":"Point"}
}