{
  "id": 555086461,
  "type": "Feature",
  "properties": {
    "edtf:cessation":"uuuu",
    "edtf:inception":"uuuu",
    "geom:area":0.0,
    "geom:bbox":"-73.920732,42.977298,-73.920732,42.977298",
    "geom:latitude":42.977298,
    "geom:longitude":-73.920732,
    "iso:country":"US",
    "sg:address":"507 Hop City Rd",
    "sg:city":"Ballston Spa",
    "sg:classifiers":[
        {
            "category":"Autos & Motor Vehicles",
            "subcategory":"Automobile Sales",
            "type":"Retail Goods"
        }
    ],
    "sg:owner":"simplegeo",
    "sg:phone":"+1 518 363 0129",
    "sg:postcode":"12020",
    "sg:province":"NY",
    "sg:tags":[
        "car",
        "dealer"
    ],
    "src:geom":"simplegeo",
    "wof:belongsto":[],
    "wof:breaches":[],
    "wof:concordances":{
        "sg:id":"SG_0Ci0DSjXjah8Xn7UppBB7o_42.977298_-73.920732@1294177022"
    },
    "wof:country":"US",
    "wof:geomhash":"f919fbe634b84c5f9242e57873c340bc",
    "wof:hierarchy":[],
    "wof:id":555086461,
    "wof:lastmodified":1461021642,
    "wof:name":"SMI Hyundai",
    "wof:parent_id":-1,
    "wof:placetype":"venue",
    "wof:superseded_by":[],
    "wof:supersedes":[],
    "wof:tags":[
        "car",
        "dealer"
    ]
},
  "bbox": [
    -73.920732,
    42.977298,
    -73.920732,
    42.977298
],
  "geometry": {"coordinates":[-73.920732,42.977298],"type":"Point"}
}