{
  "id": 554935729,
  "type": "Feature",
  "properties": {
    "edtf:cessation":"uuuu",
    "edtf:inception":"uuuu",
    "geom:area":0.0,
    "geom:bbox":"-73.500464,41.191731,-73.500464,41.191731",
    "geom:latitude":41.191731,
    "geom:longitude":-73.500464,
    "iso:country":"US",
    "sg:address":"320 N Wilton Rd",
    "sg:city":"New Canaan",
    "sg:classifiers":[
        {
            "category":"Professional",
            "subcategory":"Art Services",
            "type":"Services"
        }
    ],
    "sg:owner":"simplegeo",
    "sg:phone":"+1   ",
    "sg:postcode":"06840",
    "sg:province":"NY",
    "sg:tags":[
        "commercial",
        "design"
    ],
    "src:geom":"simplegeo",
    "wof:belongsto":[],
    "wof:breaches":[],
    "wof:concordances":{
        "sg:id":"SG_7akFD3Uv0LO9q9DiJTRXbS_41.191731_-73.500464@1294177022"
    },
    "wof:country":"US",
    "wof:geomhash":"2cb5b74c78a64c014aa2fa293311d2b4",
    "wof:hierarchy":[],
    "wof:id":554935729,
    "wof:lastmodified":1461017112,
    "wof:name":"RE Design",
    "wof:parent_id":-1,
    "wof:placetype":"venue",
    "wof:superseded_by":[],
    "wof:supersedes":[],
    "wof:tags":[
        "commercial",
        "design"
    ]
},
  "bbox": [
    -73.500464,
    41.191731,
    -73.500464,
    41.191731
],
  "geometry": {"coordinates":[-73.50046399999999,41.191731],"type":"Point"}
}