{
  "id": 554941839,
  "type": "Feature",
  "properties": {
    "edtf:cessation":"uuuu",
    "edtf:inception":"uuuu",
    "geom:area":0.0,
    "geom:bbox":"-74.048542,41.083776,-74.048542,41.083776",
    "geom:latitude":41.083776,
    "geom:longitude":-74.048542,
    "iso:country":"US",
    "sg:address":"86 Sutin Pl",
    "sg:city":"Spring Valley",
    "sg:classifiers":[
        {
            "category":"Retail",
            "subcategory":"Repair Shop",
            "type":"Services"
        }
    ],
    "sg:owner":"simplegeo",
    "sg:phone":"+1 845 356 4796",
    "sg:postcode":"10977",
    "sg:province":"NY",
    "src:geom":"simplegeo",
    "wof:belongsto":[
        85853261,
        102191575,
        404523097,
        85633793,
        85978555,
        102082385,
        85688543
    ],
    "wof:breaches":[],
    "wof:concordances":{
        "sg:id":"SG_0RAJFDFgbQeQFu9OJDnlbQ_41.083776_-74.048542@1294177022"
    },
    "wof:country":"US",
    "wof:geomhash":"c64b472d88cc7e2c0fab0020ae350fac",
    "wof:hierarchy":[
        {
            "continent_id":102191575,
            "country_id":85633793,
            "county_id":102082385,
            "localadmin_id":404523097,
            "locality_id":85978555,
            "neighbourhood_id":85853261,
            "region_id":85688543,
            "venue_id":554941839
        }
    ],
    "wof:id":554941839,
    "wof:lastmodified":1461017812,
    "wof:name":"Mazzola",
    "wof:parent_id":85853261,
    "wof:placetype":"venue",
    "wof:superseded_by":[],
    "wof:supersedes":[],
    "wof:tags":[]
},
  "bbox": [
    -74.048542,
    41.083776,
    -74.048542,
    41.083776
],
  "geometry": {"coordinates":[-74.048542,41.083776],"type":"Point"}
}