{
  "id": 554937319,
  "type": "Feature",
  "properties": {
    "edtf:cessation":"uuuu",
    "edtf:inception":"uuuu",
    "geom:area":0.0,
    "geom:bbox":"-73.483639,41.140669,-73.483639,41.140669",
    "geom:latitude":41.140669,
    "geom:longitude":-73.483639,
    "iso:country":"US",
    "sg:address":"394 Main St",
    "sg:city":"New Canaan",
    "sg:classifiers":[
        {
            "category":"Building & Trades",
            "subcategory":"Construction",
            "type":"Services"
        }
    ],
    "sg:owner":"simplegeo",
    "sg:phone":"+1 203 801 7138",
    "sg:postcode":"06840",
    "sg:province":"NY",
    "sg:tags":[
        "company"
    ],
    "src:geom":"simplegeo",
    "wof:belongsto":[
        85688629,
        85633793,
        85851779,
        102084283
    ],
    "wof:breaches":[],
    "wof:concordances":{
        "sg:id":"SG_6Ir9Qw5GcjPecNxTglEXor_41.140669_-73.483639@1294177022"
    },
    "wof:country":"US",
    "wof:geomhash":"c94651f1552c789f63f237abc892bc0b",
    "wof:hierarchy":[
        {
            "country_id":85633793,
            "county_id":102084283,
            "neighbourhood_id":85851779,
            "region_id":85688629,
            "venue_id":554937319
        }
    ],
    "wof:id":554937319,
    "wof:lastmodified":1461017351,
    "wof:name":"Viking Construction",
    "wof:parent_id":85851779,
    "wof:placetype":"venue",
    "wof:superseded_by":[],
    "wof:supersedes":[],
    "wof:tags":[
        "company"
    ]
},
  "bbox": [
    -73.483639,
    41.140669,
    -73.483639,
    41.140669
],
  "geometry": {"coordinates":[-73.483639,41.140669],"type":"Point"}
}