{
  "id": 572081185,
  "type": "Feature",
  "properties": {
    "edtf:cessation":"uuuu",
    "edtf:inception":"uuuu",
    "geom:area":0.0,
    "geom:bbox":"-73.860689,41.14567,-73.860689,41.14567",
    "geom:latitude":41.14567,
    "geom:longitude":-73.860689,
    "iso:country":"US",
    "sg:address":"197 S Highland Ave",
    "sg:city":"Ossining",
    "sg:classifiers":[
        {
            "category":"Retail",
            "subcategory":"Auto Repair",
            "type":"Services"
        }
    ],
    "sg:owner":"simplegeo",
    "sg:phone":"+1 914 941 3447",
    "sg:postcode":"10562",
    "sg:province":"NY",
    "src:geom":"simplegeo",
    "wof:belongsto":[
        85850419,
        102191575,
        404523379,
        85633793,
        85978717,
        102082373,
        85688543
    ],
    "wof:breaches":[],
    "wof:concordances":{
        "sg:id":"SG_4KuhKgxdjL4IiGLnX2zDfg_41.145670_-73.860689@1303262326"
    },
    "wof:country":"US",
    "wof:geomhash":"d53eba30ad3e6b4af90150aa56730331",
    "wof:hierarchy":[
        {
            "continent_id":102191575,
            "country_id":85633793,
            "county_id":102082373,
            "localadmin_id":404523379,
            "locality_id":85978717,
            "neighbourhood_id":85850419,
            "region_id":85688543,
            "venue_id":572081185
        }
    ],
    "wof:id":572081185,
    "wof:lastmodified":1461049504,
    "wof:name":"Highland Sunoco",
    "wof:parent_id":85850419,
    "wof:placetype":"venue",
    "wof:superseded_by":[],
    "wof:supersedes":[],
    "wof:tags":[]
},
  "bbox": [
    -73.860689,
    41.14567,
    -73.860689,
    41.14567
],
  "geometry": {"coordinates":[-73.86068899999999,41.14567],"type":"Point"}
}