{
  "id": 555726113,
  "type": "Feature",
  "properties": {
    "edtf:cessation":"uuuu",
    "edtf:inception":"uuuu",
    "geom:area":0.0,
    "geom:bbox":"-73.867673,40.822762,-73.867673,40.822762",
    "geom:latitude":40.822762,
    "geom:longitude":-73.867673,
    "iso:country":"US",
    "sg:address":"849 Soundview Ave",
    "sg:city":"Bronx",
    "sg:classifiers":[
        {
            "category":"Shopping",
            "subcategory":"Stationery & Office Supplies",
            "type":"Retail Goods"
        }
    ],
    "sg:owner":"simplegeo",
    "sg:phone":"+1   ",
    "sg:postcode":"10473",
    "sg:province":"NY",
    "src:geom":"simplegeo",
    "wof:belongsto":[
        85688543,
        102191575,
        85633793,
        85977539,
        102082361,
        420528053,
        102082377,
        102081863,
        102083063,
        102081779
    ],
    "wof:breaches":[],
    "wof:concordances":{
        "sg:id":"SG_0tUaGw3Balsu0HrchKhlCb_40.822762_-73.867673@1294177022"
    },
    "wof:country":"US",
    "wof:geomhash":"4736feaa78656e4f65000d473dfafedb",
    "wof:hierarchy":[
        {
            "continent_id":102191575,
            "country_id":85633793,
            "county_id":102082361,
            "locality_id":85977539,
            "neighbourhood_id":420528053,
            "region_id":85688543,
            "venue_id":555726113
        },
        {
            "continent_id":102191575,
            "country_id":85633793,
            "county_id":102082377,
            "locality_id":85977539,
            "neighbourhood_id":420528053,
            "region_id":85688543,
            "venue_id":555726113
        },
        {
            "continent_id":102191575,
            "country_id":85633793,
            "county_id":102081863,
            "locality_id":85977539,
            "neighbourhood_id":420528053,
            "region_id":85688543,
            "venue_id":555726113
        },
        {
            "continent_id":102191575,
            "country_id":85633793,
            "county_id":102083063,
            "locality_id":85977539,
            "neighbourhood_id":420528053,
            "region_id":85688543,
            "venue_id":555726113
        },
        {
            "continent_id":102191575,
            "country_id":85633793,
            "county_id":102081779,
            "locality_id":85977539,
            "neighbourhood_id":420528053,
            "region_id":85688543,
            "venue_id":555726113
        }
    ],
    "wof:id":555726113,
    "wof:lastmodified":1461036203,
    "wof:name":"Soundview Stationery Inc",
    "wof:parent_id":420528053,
    "wof:placetype":"venue",
    "wof:superseded_by":[],
    "wof:supersedes":[],
    "wof:tags":[]
},
  "bbox": [
    -73.867673,
    40.822762,
    -73.867673,
    40.822762
],
  "geometry": {"coordinates":[-73.867673,40.822762],"type":"Point"}
}