{
  "id": 554934935,
  "type": "Feature",
  "properties": {
    "edtf:cessation":"uuuu",
    "edtf:inception":"uuuu",
    "geom:area":0.0,
    "geom:bbox":"-73.238115,42.498883,-73.238115,42.498883",
    "geom:latitude":42.498883,
    "geom:longitude":-73.238115,
    "iso:country":"US",
    "sg:address":"720 S Main St",
    "sg:city":"Lanesboro",
    "sg:classifiers":[
        {
            "category":"Retail",
            "subcategory":"Repair Shop",
            "type":"Services"
        }
    ],
    "sg:owner":"simplegeo",
    "sg:phone":"+1 413 442 1215",
    "sg:postcode":"01237",
    "sg:province":"NY",
    "sg:tags":[
        "water",
        "equipment",
        "softening"
    ],
    "src:geom":"simplegeo",
    "wof:belongsto":[
        85688645,
        85633793,
        85829509,
        102084369
    ],
    "wof:breaches":[],
    "wof:concordances":{
        "sg:id":"SG_33zRADdeuA9uiK53dkft1J_42.498883_-73.238115@1294177022"
    },
    "wof:country":"US",
    "wof:geomhash":"2cee4c0d7e049df44f631baa78bd9271",
    "wof:hierarchy":[
        {
            "country_id":85633793,
            "county_id":102084369,
            "neighbourhood_id":85829509,
            "region_id":85688645,
            "venue_id":554934935
        }
    ],
    "wof:id":554934935,
    "wof:lastmodified":1461017001,
    "wof:name":"Barnes & Kiley Water Cond Co",
    "wof:parent_id":85829509,
    "wof:placetype":"venue",
    "wof:superseded_by":[],
    "wof:supersedes":[],
    "wof:tags":[
        "water",
        "equipment",
        "softening"
    ]
},
  "bbox": [
    -73.238115,
    42.498883,
    -73.238115,
    42.498883
],
  "geometry": {"coordinates":[-73.23811499999999,42.498883],"type":"Point"}
}