{
  "id": 554936397,
  "type": "Feature",
  "properties": {
    "edtf:cessation":"uuuu",
    "edtf:inception":"uuuu",
    "geom:area":0.0,
    "geom:bbox":"-73.609443,41.183783,-73.609443,41.183783",
    "geom:latitude":41.183783,
    "geom:longitude":-73.609443,
    "iso:country":"US",
    "sg:address":"1 Great Hills Farm Rd",
    "sg:city":"Bedford",
    "sg:classifiers":[
        {
            "category":"Banks & Credit Unions",
            "subcategory":"Bank",
            "type":"Services"
        }
    ],
    "sg:owner":"simplegeo",
    "sg:phone":"+1 914 764 4616",
    "sg:postcode":"10506",
    "sg:province":"NY",
    "src:geom":"simplegeo",
    "wof:belongsto":[
        85688629,
        85633793,
        85930787,
        102084283,
        85838073
    ],
    "wof:breaches":[],
    "wof:concordances":{
        "sg:id":"SG_2AGrHfpKeu5DK3L743L8bB_41.183783_-73.609443@1294177022"
    },
    "wof:country":"US",
    "wof:geomhash":"1237eeecc1cf7d553a9bd0a84e55034a",
    "wof:hierarchy":[
        {
            "country_id":85633793,
            "county_id":102084283,
            "locality_id":85930787,
            "neighbourhood_id":85838073,
            "region_id":85688629,
            "venue_id":554936397
        }
    ],
    "wof:id":554936397,
    "wof:lastmodified":1461017215,
    "wof:name":"Banco Santander",
    "wof:parent_id":85838073,
    "wof:placetype":"venue",
    "wof:superseded_by":[],
    "wof:supersedes":[],
    "wof:tags":[]
},
  "bbox": [
    -73.609443,
    41.183783,
    -73.609443,
    41.183783
],
  "geometry": {"coordinates":[-73.609443,41.183783],"type":"Point"}
}