{
  "id": 555671879,
  "type": "Feature",
  "properties": {
    "edtf:cessation":"uuuu",
    "edtf:inception":"uuuu",
    "geom:area":0.0,
    "geom:bbox":"-73.72268,42.607086,-73.72268,42.607086",
    "geom:latitude":42.607086,
    "geom:longitude":-73.72268,
    "iso:country":"US",
    "sg:address":"420 Columbia Tpke",
    "sg:city":"Rensselaer",
    "sg:classifiers":[
        {
            "category":"Farming",
            "subcategory":"Nursery",
            "type":"Manufacturing & Wholesale Goods"
        }
    ],
    "sg:owner":"simplegeo",
    "sg:phone":"+1 518 477 4163",
    "sg:postcode":"12144",
    "sg:province":"NY",
    "sg:tags":[
        "ornamental",
        "greenhouse"
    ],
    "src:geom":"simplegeo",
    "wof:belongsto":[],
    "wof:breaches":[],
    "wof:concordances":{
        "sg:id":"SG_4KmGJtPzK7xU0hGwgrX6HM_42.607086_-73.722680@1294177022"
    },
    "wof:country":"US",
    "wof:geomhash":"7db22c37e18be6f2d625d5def231c252",
    "wof:hierarchy":[],
    "wof:id":555671879,
    "wof:lastmodified":1461035061,
    "wof:name":"Becker's Farm",
    "wof:parent_id":420529741,
    "wof:placetype":"venue",
    "wof:superseded_by":[],
    "wof:supersedes":[],
    "wof:tags":[
        "ornamental",
        "greenhouse"
    ]
},
  "bbox": [
    -73.72268,
    42.607086,
    -73.72268,
    42.607086
],
  "geometry": {"coordinates":[-73.72268,42.607086],"type":"Point"}
}