{
  "id": 554939881,
  "type": "Feature",
  "properties": {
    "edtf:cessation":"uuuu",
    "edtf:inception":"uuuu",
    "geom:area":0.0,
    "geom:bbox":"-73.473143,41.118521,-73.473143,41.118521",
    "geom:latitude":41.118521,
    "geom:longitude":-73.473143,
    "iso:country":"US",
    "sg:address":"496 Brookside Rd",
    "sg:city":"New Canaan",
    "sg:classifiers":[
        {
            "category":"Professional",
            "subcategory":"",
            "type":"Services"
        }
    ],
    "sg:owner":"simplegeo",
    "sg:phone":"+1 203 972 3563",
    "sg:postcode":"06840",
    "sg:province":"NY",
    "src:geom":"simplegeo",
    "wof:belongsto":[
        85688629,
        85633793,
        85851779,
        102084283
    ],
    "wof:breaches":[],
    "wof:concordances":{
        "sg:id":"SG_6kv7Mu2AoQeWy1KjEjV9cI_41.118521_-73.473143@1294177022"
    },
    "wof:country":"US",
    "wof:geomhash":"3b452331b04d6f331e6b317ceec86148",
    "wof:hierarchy":[
        {
            "country_id":85633793,
            "county_id":102084283,
            "neighbourhood_id":85851779,
            "region_id":85688629,
            "venue_id":554939881
        }
    ],
    "wof:id":554939881,
    "wof:lastmodified":1461017604,
    "wof:name":"Hahn & Hahn LLC",
    "wof:parent_id":85851779,
    "wof:placetype":"venue",
    "wof:superseded_by":[],
    "wof:supersedes":[],
    "wof:tags":[]
},
  "bbox": [
    -73.473143,
    41.118521,
    -73.473143,
    41.118521
],
  "geometry": {"coordinates":[-73.47314299999999,41.118521],"type":"Point"}
}