{
  "id": 572171573,
  "type": "Feature",
  "properties": {
    "edtf:cessation":"uuuu",
    "edtf:inception":"uuuu",
    "geom:area":0.0,
    "geom:bbox":"-74.313637,40.679216,-74.313637,40.679216",
    "geom:latitude":40.679216,
    "geom:longitude":-74.313637,
    "iso:country":"US",
    "sg:address":"185 King St",
    "sg:city":"Brooklyn",
    "sg:classifiers":[
        {
            "category":"Organizations",
            "subcategory":"Non-profit Organization",
            "type":"Services"
        }
    ],
    "sg:owner":"simplegeo",
    "sg:phone":"+1 718 488 1730",
    "sg:postcode":"11231",
    "sg:province":"NY",
    "sg:tags":[
        "service/non-profit",
        "community"
    ],
    "src:geom":"simplegeo",
    "wof:belongsto":[
        85688607,
        85633793,
        85834427,
        102085995
    ],
    "wof:breaches":[],
    "wof:concordances":{
        "sg:id":"SG_5cpVHltl9ZWJIvtBb95juI_40.679216_-74.313637@1303262348"
    },
    "wof:country":"US",
    "wof:geomhash":"5d59f8d4a0cb6491186d62f75a241ab1",
    "wof:hierarchy":[
        {
            "country_id":85633793,
            "county_id":102085995,
            "neighbourhood_id":85834427,
            "region_id":85688607,
            "venue_id":572171573
        }
    ],
    "wof:id":572171573,
    "wof:lastmodified":1461051458,
    "wof:name":"Seaman's Church Institute",
    "wof:parent_id":85834427,
    "wof:placetype":"venue",
    "wof:superseded_by":[],
    "wof:supersedes":[],
    "wof:tags":[
        "service/non-profit",
        "community"
    ]
},
  "bbox": [
    -74.313637,
    40.679216,
    -74.313637,
    40.679216
],
  "geometry": {"coordinates":[-74.313637,40.679216],"type":"Point"}
}