{
  "id": 554934745,
  "type": "Feature",
  "properties": {
    "edtf:cessation":"uuuu",
    "edtf:inception":"uuuu",
    "geom:area":0.0,
    "geom:bbox":"-73.645073,41.022413,-73.645073,41.022413",
    "geom:latitude":41.022413,
    "geom:longitude":-73.645073,
    "iso:country":"US",
    "sg:address":"15 Valley Dr",
    "sg:city":"Greenwich",
    "sg:classifiers":[
        {
            "category":"Real Estate",
            "subcategory":"Real Estate Agent",
            "type":"Services"
        }
    ],
    "sg:owner":"simplegeo",
    "sg:phone":"+1 203 629 9076",
    "sg:postcode":"06831",
    "sg:province":"NY",
    "src:geom":"simplegeo",
    "wof:belongsto":[
        85885307,
        102191575,
        404495949,
        85633793,
        85930941,
        102084283,
        85688629,
        420555529
    ],
    "wof:breaches":[],
    "wof:concordances":{
        "sg:id":"SG_0eQqfty5sVK1UVqVt88NDd_41.022413_-73.645073@1294177022"
    },
    "wof:country":"US",
    "wof:geomhash":"7d6b533fd8481284645c971d2f107ce8",
    "wof:hierarchy":[
        {
            "continent_id":102191575,
            "country_id":85633793,
            "county_id":102084283,
            "localadmin_id":404495949,
            "locality_id":85930941,
            "neighbourhood_id":85885307,
            "region_id":85688629,
            "venue_id":554934745
        },
        {
            "continent_id":102191575,
            "country_id":85633793,
            "county_id":102084283,
            "localadmin_id":404495949,
            "locality_id":85930941,
            "neighbourhood_id":420555529,
            "region_id":85688629,
            "venue_id":554934745
        }
    ],
    "wof:id":554934745,
    "wof:lastmodified":1461016980,
    "wof:name":"Ponderosa Property LLC",
    "wof:parent_id":-1,
    "wof:placetype":"venue",
    "wof:superseded_by":[],
    "wof:supersedes":[],
    "wof:tags":[]
},
  "bbox": [
    -73.645073,
    41.022413,
    -73.645073,
    41.022413
],
  "geometry": {"coordinates":[-73.645073,41.022413],"type":"Point"}
}