{
  "id": 554939989,
  "type": "Feature",
  "properties": {
    "edtf:cessation":"uuuu",
    "edtf:inception":"uuuu",
    "geom:area":0.0,
    "geom:bbox":"-74.053181,41.066306,-74.053181,41.066306",
    "geom:latitude":41.066306,
    "geom:longitude":-74.053181,
    "iso:country":"US",
    "sg:address":"269 Red Schoolhouse Rd",
    "sg:city":"Chestnut Ridge",
    "sg:classifiers":[
        {
            "category":"Retail",
            "subcategory":"Animal Services",
            "type":"Services"
        }
    ],
    "sg:owner":"simplegeo",
    "sg:phone":"+1 845 371 4000",
    "sg:postcode":"10977",
    "sg:province":"NY",
    "sg:tags":[
        "pet"
    ],
    "sg:website":"www.bestfriendspetcare.com",
    "src:geom":"simplegeo",
    "wof:belongsto":[
        85853261,
        102191575,
        404523097,
        85633793,
        85978555,
        102082385,
        85688543
    ],
    "wof:breaches":[],
    "wof:concordances":{
        "sg:id":"SG_6Qa84NB48PTozowcMNCRd2_41.066306_-74.053181@1294177022"
    },
    "wof:country":"US",
    "wof:geomhash":"a855233f473e1369e0605ba188ac4ae3",
    "wof:hierarchy":[
        {
            "continent_id":102191575,
            "country_id":85633793,
            "county_id":102082385,
            "localadmin_id":404523097,
            "locality_id":85978555,
            "neighbourhood_id":85853261,
            "region_id":85688543,
            "venue_id":554939989
        }
    ],
    "wof:id":554939989,
    "wof:lastmodified":1461017614,
    "wof:name":"Best Friends Pet Resort & Sln",
    "wof:parent_id":85853261,
    "wof:placetype":"venue",
    "wof:superseded_by":[],
    "wof:supersedes":[],
    "wof:tags":[
        "pet"
    ]
},
  "bbox": [
    -74.053181,
    41.066306,
    -74.053181,
    41.066306
],
  "geometry": {"coordinates":[-74.053181,41.066306],"type":"Point"}
}