{
  "id": 555047049,
  "type": "Feature",
  "properties": {
    "edtf:cessation":"uuuu",
    "edtf:inception":"uuuu",
    "geom:area":0.0,
    "geom:bbox":"-73.716914,41.198627,-73.716914,41.198627",
    "geom:latitude":41.198627,
    "geom:longitude":-73.716914,
    "iso:country":"US",
    "sg:address":"110 S Bedford Rd",
    "sg:city":"Mount Kisco",
    "sg:classifiers":[
        {
            "category":"Health Services",
            "subcategory":"Health Practitioner",
            "type":"Services"
        }
    ],
    "sg:owner":"simplegeo",
    "sg:phone":"+1   ",
    "sg:postcode":"10549",
    "sg:province":"NY",
    "src:geom":"simplegeo",
    "wof:belongsto":[],
    "wof:breaches":[],
    "wof:concordances":{
        "sg:id":"SG_3ROIBOQ7QI3uzHdcMwb1yF_41.198627_-73.716914@1294177022"
    },
    "wof:country":"US",
    "wof:geomhash":"5dab6ef4580b427b85cf72aaaf4a4c0a",
    "wof:hierarchy":[],
    "wof:id":555047049,
    "wof:lastmodified":1461020568,
    "wof:name":"Bernard McMerney Pt",
    "wof:parent_id":-1,
    "wof:placetype":"venue",
    "wof:superseded_by":[],
    "wof:supersedes":[],
    "wof:tags":[]
},
  "bbox": [
    -73.716914,
    41.198627,
    -73.716914,
    41.198627
],
  "geometry": {"coordinates":[-73.716914,41.198627],"type":"Point"}
}