{
  "id": 554935539,
  "type": "Feature",
  "properties": {
    "edtf:cessation":"uuuu",
    "edtf:inception":"uuuu",
    "geom:area":0.0,
    "geom:bbox":"-79.710724,42.262749,-79.710724,42.262749",
    "geom:latitude":42.262749,
    "geom:longitude":-79.710724,
    "iso:country":"US",
    "sg:address":"23 Goodrich St",
    "sg:city":"Ripley",
    "sg:classifiers":[
        {
            "category":"Mining & Drilling",
            "subcategory":"",
            "type":"Manufacturing & Wholesale Goods"
        }
    ],
    "sg:owner":"simplegeo",
    "sg:phone":"+1 716 736 3828",
    "sg:postcode":"14775",
    "sg:province":"NY",
    "sg:tags":[
        "construction"
    ],
    "src:geom":"simplegeo",
    "wof:belongsto":[
        85688481,
        85633793,
        85850957,
        102080955
    ],
    "wof:breaches":[],
    "wof:concordances":{
        "sg:id":"SG_0ivYhf56iaG70KxGa7UigJ_42.262749_-79.710724@1294177022"
    },
    "wof:country":"US",
    "wof:geomhash":"c71d864e9394baeae4df8f53efd91de7",
    "wof:hierarchy":[
        {
            "country_id":85633793,
            "county_id":102080955,
            "neighbourhood_id":85850957,
            "region_id":85688481,
            "venue_id":554935539
        }
    ],
    "wof:id":554935539,
    "wof:lastmodified":1461017087,
    "wof:name":"Eimers Construction",
    "wof:parent_id":85850957,
    "wof:placetype":"venue",
    "wof:superseded_by":[],
    "wof:supersedes":[],
    "wof:tags":[
        "construction"
    ]
},
  "bbox": [
    -79.710724,
    42.262749,
    -79.710724,
    42.262749
],
  "geometry": {"coordinates":[-79.710724,42.262749],"type":"Point"}
}