{
  "id": 554934185,
  "type": "Feature",
  "properties": {
    "edtf:cessation":"uuuu",
    "edtf:inception":"uuuu",
    "geom:area":0.0,
    "geom:bbox":"-73.518797,41.178917,-73.518797,41.178917",
    "geom:latitude":41.178917,
    "geom:longitude":-73.518797,
    "iso:country":"US",
    "sg:address":"1031 Oenoke Ridge",
    "sg:city":"New Canaan",
    "sg:classifiers":[
        {
            "category":"Real Estate",
            "subcategory":"Architect",
            "type":"Services"
        }
    ],
    "sg:owner":"simplegeo",
    "sg:phone":"+1 203 966 5552",
    "sg:postcode":"06840",
    "sg:province":"NY",
    "sg:tags":[
        "engineering",
        "architectural"
    ],
    "sg:website":"www.schettinoarchitects.com",
    "src:geom":"simplegeo",
    "wof:belongsto":[],
    "wof:breaches":[],
    "wof:concordances":{
        "sg:id":"SG_1aKf3JBs8RI0CTOy5x8CkU_41.178917_-73.518797@1294177022"
    },
    "wof:country":"US",
    "wof:geomhash":"1bbd7de80b1e9e96c00763407ff5d7dd",
    "wof:hierarchy":[],
    "wof:id":554934185,
    "wof:lastmodified":1461016909,
    "wof:name":"Schettino James Architects",
    "wof:parent_id":-1,
    "wof:placetype":"venue",
    "wof:superseded_by":[],
    "wof:supersedes":[],
    "wof:tags":[
        "engineering",
        "architectural"
    ]
},
  "bbox": [
    -73.518797,
    41.178917,
    -73.518797,
    41.178917
],
  "geometry": {"coordinates":[-73.51879700000001,41.178917],"type":"Point"}
}