{
  "id": 554941975,
  "type": "Feature",
  "properties": {
    "edtf:cessation":"uuuu",
    "edtf:inception":"uuuu",
    "geom:area":0.0,
    "geom:bbox":"-73.478339,41.160415,-73.478339,41.160415",
    "geom:latitude":41.160415,
    "geom:longitude":-73.478339,
    "iso:country":"US",
    "sg:address":"124 Canoe Hill Rd",
    "sg:city":"New Canaan",
    "sg:classifiers":[
        {
            "category":"Real Estate",
            "subcategory":"Real Estate Agent",
            "type":"Services"
        }
    ],
    "sg:owner":"simplegeo",
    "sg:phone":"+1 203 966 4591",
    "sg:postcode":"06840",
    "sg:province":"NY",
    "src:geom":"simplegeo",
    "wof:belongsto":[],
    "wof:breaches":[],
    "wof:concordances":{
        "sg:id":"SG_0plLjpF1Fep1Wp6FmIjRTF_41.160415_-73.478339@1294177022"
    },
    "wof:country":"US",
    "wof:geomhash":"fdf00a98dff23825123f56953b9c0809",
    "wof:hierarchy":[],
    "wof:id":554941975,
    "wof:lastmodified":1461017826,
    "wof:name":"August Real Estate Svc LLC",
    "wof:parent_id":-1,
    "wof:placetype":"venue",
    "wof:superseded_by":[],
    "wof:supersedes":[],
    "wof:tags":[]
},
  "bbox": [
    -73.478339,
    41.160415,
    -73.478339,
    41.160415
],
  "geometry": {"coordinates":[-73.47833900000001,41.160415],"type":"Point"}
}