{
  "id": 554936889,
  "type": "Feature",
  "properties": {
    "edtf:cessation":"uuuu",
    "edtf:inception":"uuuu",
    "geom:area":0.0,
    "geom:bbox":"-73.491508,41.145461,-73.491508,41.145461",
    "geom:latitude":41.145461,
    "geom:longitude":-73.491508,
    "iso:country":"US",
    "sg:address":"152 Main St",
    "sg:city":"New Canaan",
    "sg:classifiers":[
        {
            "category":"Banks & Credit Unions",
            "subcategory":"Bank",
            "type":"Services"
        }
    ],
    "sg:owner":"simplegeo",
    "sg:phone":"+1 203 966 2641",
    "sg:postcode":"06840",
    "sg:province":"NY",
    "src:geom":"simplegeo",
    "wof:belongsto":[
        85688629,
        85633793,
        85851779,
        102084283
    ],
    "wof:breaches":[],
    "wof:concordances":{
        "sg:id":"SG_4OJ7wUbPgJA5t8AyHb5blY_41.145461_-73.491508@1294177022"
    },
    "wof:country":"US",
    "wof:geomhash":"b460254482b3b7ff110ae95f49aec5ba",
    "wof:hierarchy":[
        {
            "country_id":85633793,
            "county_id":102084283,
            "neighbourhood_id":85851779,
            "region_id":85688629,
            "venue_id":554936889
        }
    ],
    "wof:id":554936889,
    "wof:lastmodified":1461017287,
    "wof:name":"Wachovia Bank",
    "wof:parent_id":85851779,
    "wof:placetype":"venue",
    "wof:superseded_by":[],
    "wof:supersedes":[],
    "wof:tags":[]
},
  "bbox": [
    -73.491508,
    41.145461,
    -73.491508,
    41.145461
],
  "geometry": {"coordinates":[-73.491508,41.145461],"type":"Point"}
}