{
  "id": 554936293,
  "type": "Feature",
  "properties": {
    "edtf:cessation":"uuuu",
    "edtf:inception":"uuuu",
    "geom:area":0.0,
    "geom:bbox":"-73.986579,40.780609,-73.986579,40.780609",
    "geom:latitude":40.780609,
    "geom:longitude":-73.986579,
    "iso:country":"US",
    "sg:address":"322 W 72 St",
    "sg:city":"New York",
    "sg:classifiers":[
        {
            "category":"Retail",
            "subcategory":"Repair Shop",
            "type":"Services"
        }
    ],
    "sg:owner":"simplegeo",
    "sg:phone":"+1 646 224 0492",
    "sg:postcode":"10023",
    "sg:province":"NY",
    "sg:tags":[
        "lock",
        "locksmith"
    ],
    "src:geom":"simplegeo",
    "wof:belongsto":[
        85869077,
        102191575,
        404478149,
        85633793,
        85975287,
        102080719,
        85688607
    ],
    "wof:breaches":[],
    "wof:concordances":{
        "sg:id":"SG_01Du26N3ZYFapgGfR4SxvQ_40.780609_-73.986579@1294177022"
    },
    "wof:country":"US",
    "wof:geomhash":"13520fbb747e5af1fc04c9f3f4ef1999",
    "wof:hierarchy":[
        {
            "continent_id":102191575,
            "country_id":85633793,
            "county_id":102080719,
            "localadmin_id":404478149,
            "locality_id":85975287,
            "neighbourhood_id":85869077,
            "region_id":85688607,
            "venue_id":554936293
        }
    ],
    "wof:id":554936293,
    "wof:lastmodified":1461017195,
    "wof:name":"Locksmith Svc",
    "wof:parent_id":85869077,
    "wof:placetype":"venue",
    "wof:superseded_by":[],
    "wof:supersedes":[],
    "wof:tags":[
        "lock",
        "locksmith"
    ]
},
  "bbox": [
    -73.986579,
    40.780609,
    -73.986579,
    40.780609
],
  "geometry": {"coordinates":[-73.98657900000001,40.780609],"type":"Point"}
}