{
  "id": 572170991,
  "type": "Feature",
  "properties": {
    "edtf:cessation":"uuuu",
    "edtf:inception":"uuuu",
    "geom:area":0.0,
    "geom:bbox":"-74.208019,40.64278,-74.208019,40.64278",
    "geom:latitude":40.64278,
    "geom:longitude":-74.208019,
    "iso:country":"US",
    "sg:address":"4722 8th Ave",
    "sg:city":"Brooklyn",
    "sg:classifiers":[
        {
            "category":"Food & Beverages",
            "subcategory":"Groceries & Convenience Stores",
            "type":"Retail Goods"
        }
    ],
    "sg:owner":"simplegeo",
    "sg:phone":"+1 718 851 0568",
    "sg:postcode":"11220",
    "sg:province":"NY",
    "src:geom":"simplegeo",
    "wof:belongsto":[
        85868017,
        102191575,
        404478497,
        85633793,
        85975847,
        102085995,
        85688607
    ],
    "wof:breaches":[],
    "wof:concordances":{
        "sg:id":"SG_0LzW6M34hPS1Xdpzp4oJPr_40.642780_-74.208019@1303262344"
    },
    "wof:country":"US",
    "wof:geomhash":"d6ea5a537e8c8c9842a42f952e173bb6",
    "wof:hierarchy":[
        {
            "continent_id":102191575,
            "country_id":85633793,
            "county_id":102085995,
            "localadmin_id":404478497,
            "locality_id":85975847,
            "neighbourhood_id":85868017,
            "region_id":85688607,
            "venue_id":572170991
        }
    ],
    "wof:id":572170991,
    "wof:lastmodified":1461051437,
    "wof:name":"Jinsen Grocery Inc",
    "wof:parent_id":85868017,
    "wof:placetype":"venue",
    "wof:superseded_by":[],
    "wof:supersedes":[],
    "wof:tags":[]
},
  "bbox": [
    -74.208019,
    40.64278,
    -74.208019,
    40.64278
],
  "geometry": {"coordinates":[-74.20801899999999,40.64278],"type":"Point"}
}