{
  "id": 554940091,
  "type": "Feature",
  "properties": {
    "edtf:cessation":"uuuu",
    "edtf:inception":"uuuu",
    "geom:area":0.0,
    "geom:bbox":"-74.060546,41.081843,-74.060546,41.081843",
    "geom:latitude":41.081843,
    "geom:longitude":-74.060546,
    "iso:country":"US",
    "sg:address":"817 Chestnut Ridge Rd",
    "sg:city":"Chestnut Ridge",
    "sg:classifiers":[
        {
            "category":"Shopping",
            "subcategory":"Hobbies, Toys, & Games",
            "type":"Retail Goods"
        }
    ],
    "sg:owner":"simplegeo",
    "sg:phone":"+1 845 371 9751",
    "sg:postcode":"10977",
    "sg:province":"NY",
    "src:geom":"simplegeo",
    "wof:belongsto":[
        85853261,
        102191575,
        404523097,
        85633793,
        85978555,
        102082385,
        85688543
    ],
    "wof:breaches":[],
    "wof:concordances":{
        "sg:id":"SG_30J1HWVT52SYG95aGs7big_41.081843_-74.060546@1294177022"
    },
    "wof:country":"US",
    "wof:geomhash":"ccfe58467f4cf36a7bce685499606ba3",
    "wof:hierarchy":[
        {
            "continent_id":102191575,
            "country_id":85633793,
            "county_id":102082385,
            "localadmin_id":404523097,
            "locality_id":85978555,
            "neighbourhood_id":85853261,
            "region_id":85688543,
            "venue_id":554940091
        }
    ],
    "wof:id":554940091,
    "wof:lastmodified":1461017624,
    "wof:name":"Nova Natural Toys & Crafts LLC",
    "wof:parent_id":85853261,
    "wof:placetype":"venue",
    "wof:superseded_by":[],
    "wof:supersedes":[],
    "wof:tags":[]
},
  "bbox": [
    -74.060546,
    41.081843,
    -74.060546,
    41.081843
],
  "geometry": {"coordinates":[-74.060546,41.081843],"type":"Point"}
}