{
  "id": 554939565,
  "type": "Feature",
  "properties": {
    "edtf:cessation":"uuuu",
    "edtf:inception":"uuuu",
    "geom:area":0.0,
    "geom:bbox":"-73.674267,41.116788,-73.674267,41.116788",
    "geom:latitude":41.116788,
    "geom:longitude":-73.674267,
    "iso:country":"US",
    "sg:address":"30 Sumner Rd",
    "sg:city":"Greenwich",
    "sg:classifiers":[
        {
            "category":"Professional",
            "subcategory":"Business Services",
            "type":"Services"
        }
    ],
    "sg:owner":"simplegeo",
    "sg:phone":"+1 203 618 0460",
    "sg:postcode":"06831",
    "sg:province":"NY",
    "sg:tags":[
        "automobile",
        "used"
    ],
    "src:geom":"simplegeo",
    "wof:belongsto":[
        85688629,
        85633793,
        85837667,
        102084283
    ],
    "wof:breaches":[],
    "wof:concordances":{
        "sg:id":"SG_50hteN0TMB9J0waRNPtZqQ_41.116788_-73.674267@1294177022"
    },
    "wof:country":"US",
    "wof:geomhash":"cfd4385aea01507c5ccda644ad4b2486",
    "wof:hierarchy":[
        {
            "country_id":85633793,
            "county_id":102084283,
            "neighbourhood_id":85837667,
            "region_id":85688629,
            "venue_id":554939565
        }
    ],
    "wof:id":554939565,
    "wof:lastmodified":1461017575,
    "wof:name":"Greenwich Concours LLC",
    "wof:parent_id":85837667,
    "wof:placetype":"venue",
    "wof:superseded_by":[],
    "wof:supersedes":[],
    "wof:tags":[
        "automobile",
        "used"
    ]
},
  "bbox": [
    -73.674267,
    41.116788,
    -73.674267,
    41.116788
],
  "geometry": {"coordinates":[-73.674267,41.116788],"type":"Point"}
}