{
  "id": 572071693,
  "type": "Feature",
  "properties": {
    "edtf:cessation":"uuuu",
    "edtf:inception":"uuuu",
    "geom:area":0.0,
    "geom:bbox":"-73.763772,41.160595,-73.763772,41.160595",
    "geom:latitude":41.160595,
    "geom:longitude":-73.763772,
    "iso:country":"US",
    "sg:address":"150 Bedford Rd",
    "sg:city":"Chappaqua",
    "sg:classifiers":[
        {
            "category":"Communications",
            "subcategory":"Television Station",
            "type":"Services"
        }
    ],
    "sg:owner":"simplegeo",
    "sg:phone":"+1 914 861 2554",
    "sg:postcode":"10514",
    "sg:province":"NY",
    "sg:tags":[
        "representative"
    ],
    "src:geom":"simplegeo",
    "wof:belongsto":[],
    "wof:breaches":[],
    "wof:concordances":{
        "sg:id":"SG_1UsT0Y4N1br9qXaUHPR8fT_41.160595_-73.763772@1303262325"
    },
    "wof:country":"US",
    "wof:geomhash":"cd0ce98ba33679ebb7b15fa7fc544922",
    "wof:hierarchy":[],
    "wof:id":572071693,
    "wof:lastmodified":1461049311,
    "wof:name":"National Television Sales",
    "wof:parent_id":-1,
    "wof:placetype":"venue",
    "wof:superseded_by":[],
    "wof:supersedes":[],
    "wof:tags":[
        "representative"
    ]
},
  "bbox": [
    -73.763772,
    41.160595,
    -73.763772,
    41.160595
],
  "geometry": {"coordinates":[-73.763772,41.160595],"type":"Point"}
}