{
  "id": 554939637,
  "type": "Feature",
  "properties": {
    "edtf:cessation":"uuuu",
    "edtf:inception":"uuuu",
    "geom:area":0.0,
    "geom:bbox":"-74.146507,41.107159,-74.146507,41.107159",
    "geom:latitude":41.107159,
    "geom:longitude":-74.146507,
    "iso:country":"US",
    "sg:address":"40 Temple Ln",
    "sg:city":"Suffern",
    "sg:classifiers":[
        {
            "category":"Building & Trades",
            "subcategory":"Construction",
            "type":"Services"
        }
    ],
    "sg:owner":"simplegeo",
    "sg:phone":"+1 845 368 2840",
    "sg:postcode":"10901",
    "sg:province":"NY",
    "sg:tags":[
        "hanging",
        "contractor"
    ],
    "src:geom":"simplegeo",
    "wof:belongsto":[
        85855885,
        102191575,
        404523097,
        85633793,
        85978523,
        102082385,
        85688543
    ],
    "wof:breaches":[],
    "wof:concordances":{
        "sg:id":"SG_4EwJh01ikgdd7Agts53xg6_41.107159_-74.146507@1294177022"
    },
    "wof:country":"US",
    "wof:geomhash":"cea7703ce81713f9c0f902d7238128dc",
    "wof:hierarchy":[
        {
            "continent_id":102191575,
            "country_id":85633793,
            "county_id":102082385,
            "localadmin_id":404523097,
            "locality_id":85978523,
            "neighbourhood_id":85855885,
            "region_id":85688543,
            "venue_id":554939637
        }
    ],
    "wof:id":554939637,
    "wof:lastmodified":1461017582,
    "wof:name":"Painters Brush Inc",
    "wof:parent_id":85855885,
    "wof:placetype":"venue",
    "wof:superseded_by":[],
    "wof:supersedes":[],
    "wof:tags":[
        "hanging",
        "contractor"
    ]
},
  "bbox": [
    -74.146507,
    41.107159,
    -74.146507,
    41.107159
],
  "geometry": {"coordinates":[-74.146507,41.107159],"type":"Point"}
}