{
  "id": 572170285,
  "type": "Feature",
  "properties": {
    "edtf:cessation":"uuuu",
    "edtf:inception":"uuuu",
    "geom:area":0.0,
    "geom:bbox":"-74.257684,40.612491,-74.257684,40.612491",
    "geom:latitude":40.612491,
    "geom:longitude":-74.257684,
    "iso:country":"US",
    "sg:address":"455 100th St",
    "sg:city":"Brooklyn",
    "sg:classifiers":[
        {
            "category":"Professional",
            "subcategory":"Employment Agencies",
            "type":"Services"
        }
    ],
    "sg:owner":"simplegeo",
    "sg:phone":"+1 718 531 3450",
    "sg:postcode":"11209",
    "sg:province":"NY",
    "src:geom":"simplegeo",
    "wof:belongsto":[],
    "wof:breaches":[],
    "wof:concordances":{
        "sg:id":"SG_12KF7CATM93GaVDhhJYhOX_40.612491_-74.257684@1303262339"
    },
    "wof:country":"US",
    "wof:geomhash":"400d702af5eaab55847d76321f007cd2",
    "wof:hierarchy":[],
    "wof:id":572170285,
    "wof:lastmodified":1461051416,
    "wof:name":"S J A Recruiting LLC",
    "wof:parent_id":-1,
    "wof:placetype":"venue",
    "wof:superseded_by":[],
    "wof:supersedes":[],
    "wof:tags":[]
},
  "bbox": [
    -74.257684,
    40.612491,
    -74.257684,
    40.612491
],
  "geometry": {"coordinates":[-74.257684,40.612491],"type":"Point"}
}