{
  "id": 554937369,
  "type": "Feature",
  "properties": {
    "edtf:cessation":"uuuu",
    "edtf:inception":"uuuu",
    "geom:area":0.0,
    "geom:bbox":"-74.056255,41.084226,-74.056255,41.084226",
    "geom:latitude":41.084226,
    "geom:longitude":-74.056255,
    "iso:country":"US",
    "sg:address":"787 Chestnut Ridge Rd",
    "sg:city":"Chestnut Ridge",
    "sg:classifiers":[
        {
            "category":"Shopping",
            "subcategory":"",
            "type":"Retail Goods"
        }
    ],
    "sg:owner":"simplegeo",
    "sg:phone":"+1 845 356 0837",
    "sg:postcode":"10977",
    "sg:province":"NY",
    "sg:tags":[
        "spa",
        "hot",
        "tub"
    ],
    "sg:website":"www.bbpoolandspa.com",
    "src:geom":"simplegeo",
    "wof:belongsto":[
        85853261,
        102191575,
        404523097,
        85633793,
        85978555,
        102082385,
        85688543
    ],
    "wof:breaches":[],
    "wof:concordances":{
        "sg:id":"SG_4MqOMtj1EgN1YftAJ64Ixp_41.084226_-74.056255@1294177022"
    },
    "wof:country":"US",
    "wof:geomhash":"a8acab9a9ee8c55c5d20e0b53aef189f",
    "wof:hierarchy":[
        {
            "continent_id":102191575,
            "country_id":85633793,
            "county_id":102082385,
            "localadmin_id":404523097,
            "locality_id":85978555,
            "neighbourhood_id":85853261,
            "region_id":85688543,
            "venue_id":554937369
        }
    ],
    "wof:id":554937369,
    "wof:lastmodified":1461017358,
    "wof:name":"B & B Pool & Spa Ctr",
    "wof:parent_id":85853261,
    "wof:placetype":"venue",
    "wof:superseded_by":[],
    "wof:supersedes":[],
    "wof:tags":[
        "spa",
        "hot",
        "tub"
    ]
},
  "bbox": [
    -74.056255,
    41.084226,
    -74.056255,
    41.084226
],
  "geometry": {"coordinates":[-74.05625499999999,41.084226],"type":"Point"}
}