{
  "id": 554939813,
  "type": "Feature",
  "properties": {
    "edtf:cessation":"uuuu",
    "edtf:inception":"uuuu",
    "geom:area":0.0,
    "geom:bbox":"-74.054526,41.085334,-74.054526,41.085334",
    "geom:latitude":41.085334,
    "geom:longitude":-74.054526,
    "iso:country":"US",
    "sg:address":"790 Chestnut Ridge Rd",
    "sg:city":"Spring Valley",
    "sg:classifiers":[
        {
            "category":"Retail",
            "subcategory":"Veterinary Services",
            "type":"Services"
        }
    ],
    "sg:owner":"simplegeo",
    "sg:phone":"+1 845 356 3838",
    "sg:postcode":"10977",
    "sg:province":"NY",
    "src:geom":"simplegeo",
    "wof:belongsto":[
        85853261,
        102191575,
        404523097,
        85633793,
        85978555,
        102082385,
        85688543
    ],
    "wof:breaches":[],
    "wof:concordances":{
        "sg:id":"SG_7DJjpPBF6vCs2jg7neXjMX_41.085334_-74.054526@1294177022"
    },
    "wof:country":"US",
    "wof:geomhash":"c29ece9c386c7a00a24281c455fb8da0",
    "wof:hierarchy":[
        {
            "continent_id":102191575,
            "country_id":85633793,
            "county_id":102082385,
            "localadmin_id":404523097,
            "locality_id":85978555,
            "neighbourhood_id":85853261,
            "region_id":85688543,
            "venue_id":554939813
        }
    ],
    "wof:id":554939813,
    "wof:lastmodified":1461017596,
    "wof:name":"Beverly Cappel",
    "wof:parent_id":85853261,
    "wof:placetype":"venue",
    "wof:superseded_by":[],
    "wof:supersedes":[],
    "wof:tags":[]
},
  "bbox": [
    -74.054526,
    41.085334,
    -74.054526,
    41.085334
],
  "geometry": {"coordinates":[-74.054526,41.085334],"type":"Point"}
}