{
  "id": 572176725,
  "type": "Feature",
  "properties": {
    "edtf:cessation":"uuuu",
    "edtf:inception":"uuuu",
    "geom:area":0.0,
    "geom:bbox":"-74.28375,40.969028,-74.28375,40.969028",
    "geom:latitude":40.969028,
    "geom:longitude":-74.28375,
    "iso:country":"US",
    "sg:address":"144 County Highway 10",
    "sg:city":"Morris",
    "sg:classifiers":[
        {
            "category":"Professional",
            "subcategory":"Lawyer & Legal Services",
            "type":"Services"
        }
    ],
    "sg:owner":"simplegeo",
    "sg:phone":"+1 607 263 5741",
    "sg:postcode":"13808",
    "sg:province":"NY",
    "sg:website":"www.trjlaw.com",
    "src:geom":"simplegeo",
    "wof:belongsto":[],
    "wof:breaches":[],
    "wof:concordances":{
        "sg:id":"SG_1Bxped2fZ84HIcoxTcesRJ_40.969028_-74.283750@1303262394"
    },
    "wof:country":"US",
    "wof:geomhash":"2faf9b40a803471bfa9b3aa3d0416656",
    "wof:hierarchy":[],
    "wof:id":572176725,
    "wof:lastmodified":1461051626,
    "wof:name":"Johnson Timothy R Atty",
    "wof:parent_id":-1,
    "wof:placetype":"venue",
    "wof:superseded_by":[],
    "wof:supersedes":[],
    "wof:tags":[]
},
  "bbox": [
    -74.28375,
    40.969028,
    -74.28375,
    40.969028
],
  "geometry": {"coordinates":[-74.28375,40.969028],"type":"Point"}
}