{
  "id": 554937007,
  "type": "Feature",
  "properties": {
    "edtf:cessation":"uuuu",
    "edtf:inception":"uuuu",
    "geom:area":0.0,
    "geom:bbox":"-74.055947,41.083163,-74.055947,41.083163",
    "geom:latitude":41.083163,
    "geom:longitude":-74.055947,
    "iso:country":"US",
    "sg:address":"40 Red Schoolhouse Rd",
    "sg:city":"Spring Valley",
    "sg:classifiers":[
        {
            "category":"Government",
            "subcategory":"Fire Station",
            "type":"Public Place"
        }
    ],
    "sg:owner":"simplegeo",
    "sg:phone":"+1 845 356 0074",
    "sg:postcode":"10977",
    "sg:province":"NY",
    "sg:tags":[
        "department",
        "protection"
    ],
    "src:geom":"simplegeo",
    "wof:belongsto":[
        85853261,
        102191575,
        404523097,
        85633793,
        85978555,
        102082385,
        85688543
    ],
    "wof:breaches":[],
    "wof:concordances":{
        "sg:id":"SG_1fVvL5EHjlUcQ60d1V3DcN_41.083163_-74.055947@1294177022"
    },
    "wof:country":"US",
    "wof:geomhash":"366d1d181df0fd7380e6d6cb00e95b94",
    "wof:hierarchy":[
        {
            "continent_id":102191575,
            "country_id":85633793,
            "county_id":102082385,
            "localadmin_id":404523097,
            "locality_id":85978555,
            "neighbourhood_id":85853261,
            "region_id":85688543,
            "venue_id":554937007
        }
    ],
    "wof:id":554937007,
    "wof:lastmodified":1461017304,
    "wof:name":"South Spring Valley Fire Dist",
    "wof:parent_id":85853261,
    "wof:placetype":"venue",
    "wof:superseded_by":[],
    "wof:supersedes":[],
    "wof:tags":[
        "department",
        "protection"
    ]
},
  "bbox": [
    -74.055947,
    41.083163,
    -74.055947,
    41.083163
],
  "geometry": {"coordinates":[-74.055947,41.083163],"type":"Point"}
}