{
  "id": 554935829,
  "type": "Feature",
  "properties": {
    "edtf:cessation":"uuuu",
    "edtf:inception":"uuuu",
    "geom:area":0.0,
    "geom:bbox":"-73.499106,41.145032,-73.499106,41.145032",
    "geom:latitude":41.145032,
    "geom:longitude":-73.499106,
    "iso:country":"US",
    "sg:address":"31 Grove St",
    "sg:city":"New Canaan",
    "sg:classifiers":[
        {
            "category":"Building & Trades",
            "subcategory":"Construction",
            "type":"Services"
        }
    ],
    "sg:owner":"simplegeo",
    "sg:phone":"+1 203 966 9550",
    "sg:postcode":"06840",
    "sg:province":"NY",
    "sg:tags":[
        "contractor"
    ],
    "src:geom":"simplegeo",
    "wof:belongsto":[
        85688629,
        85633793,
        85851779,
        102084283
    ],
    "wof:breaches":[],
    "wof:concordances":{
        "sg:id":"SG_79nkL86xkk0S2dXubkPIh2_41.145032_-73.499106@1294177022"
    },
    "wof:country":"US",
    "wof:geomhash":"ef135f8718c1d56466652a560b99b18f",
    "wof:hierarchy":[
        {
            "country_id":85633793,
            "county_id":102084283,
            "neighbourhood_id":85851779,
            "region_id":85688629,
            "venue_id":554935829
        }
    ],
    "wof:id":554935829,
    "wof:lastmodified":1461017125,
    "wof:name":"Contract Lighting Systems",
    "wof:parent_id":85851779,
    "wof:placetype":"venue",
    "wof:superseded_by":[],
    "wof:supersedes":[],
    "wof:tags":[
        "contractor"
    ]
},
  "bbox": [
    -73.499106,
    41.145032,
    -73.499106,
    41.145032
],
  "geometry": {"coordinates":[-73.499106,41.145032],"type":"Point"}
}