{
  "id": 554936181,
  "type": "Feature",
  "properties": {
    "edtf:cessation":"uuuu",
    "edtf:inception":"uuuu",
    "geom:area":0.0,
    "geom:bbox":"-74.05771,41.086005,-74.05771,41.086005",
    "geom:latitude":41.086005,
    "geom:longitude":-74.05771,
    "iso:country":"US",
    "sg:address":"6 Janna Ct",
    "sg:city":"Spring Valley",
    "sg:classifiers":[
        {
            "category":"Wholesale",
            "subcategory":"Machinery & Supplies",
            "type":"Manufacturing & Wholesale Goods"
        }
    ],
    "sg:owner":"simplegeo",
    "sg:phone":"+1 845 356 5480",
    "sg:postcode":"10977",
    "sg:province":"NY",
    "sg:tags":[
        "equipment",
        "industrial"
    ],
    "src:geom":"simplegeo",
    "wof:belongsto":[
        85853261,
        102191575,
        404523097,
        85633793,
        85978555,
        102082385,
        85688543
    ],
    "wof:breaches":[],
    "wof:concordances":{
        "sg:id":"SG_5VMiBFFUC7L88pQmzfIPej_41.086005_-74.057710@1294177022"
    },
    "wof:country":"US",
    "wof:geomhash":"32a4bd3c169ae74e33266b81c14fcee1",
    "wof:hierarchy":[
        {
            "continent_id":102191575,
            "country_id":85633793,
            "county_id":102082385,
            "localadmin_id":404523097,
            "locality_id":85978555,
            "neighbourhood_id":85853261,
            "region_id":85688543,
            "venue_id":554936181
        }
    ],
    "wof:id":554936181,
    "wof:lastmodified":1461017177,
    "wof:name":"Automation Solutions Inc",
    "wof:parent_id":85853261,
    "wof:placetype":"venue",
    "wof:superseded_by":[],
    "wof:supersedes":[],
    "wof:tags":[
        "equipment",
        "industrial"
    ]
},
  "bbox": [
    -74.05771,
    41.086005,
    -74.05771,
    41.086005
],
  "geometry": {"coordinates":[-74.05771,41.086005],"type":"Point"}
}