{
  "id": 554934665,
  "type": "Feature",
  "properties": {
    "edtf:cessation":"uuuu",
    "edtf:inception":"uuuu",
    "geom:area":0.0,
    "geom:bbox":"-74.051948,41.064097,-74.051948,41.064097",
    "geom:latitude":41.064097,
    "geom:longitude":-74.051948,
    "iso:country":"US",
    "sg:address":"280 Red Schoolhouse Rd",
    "sg:city":"Spring Valley",
    "sg:classifiers":[
        {
            "category":"Home & Garden",
            "subcategory":"Building Materials",
            "type":"Retail Goods"
        }
    ],
    "sg:owner":"simplegeo",
    "sg:phone":"+1 845 735 1234",
    "sg:postcode":"10977",
    "sg:province":"NY",
    "sg:tags":[
        "lumber"
    ],
    "src:geom":"simplegeo",
    "wof:belongsto":[
        85853261,
        102191575,
        404523097,
        85633793,
        85978555,
        102082385,
        85688543
    ],
    "wof:breaches":[],
    "wof:concordances":{
        "sg:id":"SG_47MQO91dR3r4hgnpbuortr_41.064097_-74.051948@1294177022"
    },
    "wof:country":"US",
    "wof:geomhash":"9924a38c4a346b93bae88a63edf4de22",
    "wof:hierarchy":[
        {
            "continent_id":102191575,
            "country_id":85633793,
            "county_id":102082385,
            "localadmin_id":404523097,
            "locality_id":85978555,
            "neighbourhood_id":85853261,
            "region_id":85688543,
            "venue_id":554934665
        }
    ],
    "wof:id":554934665,
    "wof:lastmodified":1461016969,
    "wof:name":"Ridge Supply",
    "wof:parent_id":85853261,
    "wof:placetype":"venue",
    "wof:superseded_by":[],
    "wof:supersedes":[],
    "wof:tags":[
        "lumber"
    ]
},
  "bbox": [
    -74.051948,
    41.064097,
    -74.051948,
    41.064097
],
  "geometry": {"coordinates":[-74.051948,41.064097],"type":"Point"}
}