{
  "id": 572171685,
  "type": "Feature",
  "properties": {
    "edtf:cessation":"uuuu",
    "edtf:inception":"uuuu",
    "geom:area":0.0,
    "geom:bbox":"-74.189933,40.653526,-74.189933,40.653526",
    "geom:latitude":40.653526,
    "geom:longitude":-74.189933,
    "iso:country":"US",
    "sg:address":"213 42nd St",
    "sg:city":"Brooklyn",
    "sg:classifiers":[
        {
            "category":"Personal",
            "subcategory":"",
            "type":"Services"
        }
    ],
    "sg:owner":"simplegeo",
    "sg:phone":"+1 718 499 1934",
    "sg:postcode":"11232",
    "sg:province":"NY",
    "sg:tags":[
        "mover"
    ],
    "src:geom":"simplegeo",
    "wof:belongsto":[
        85877221,
        102191575,
        404478497,
        85633793,
        85975847,
        102085995,
        85688607
    ],
    "wof:breaches":[],
    "wof:concordances":{
        "sg:id":"SG_41kKdAEE0feDvG7f2Bn5Kt_40.653526_-74.189933@1303262348"
    },
    "wof:country":"US",
    "wof:geomhash":"41003d7b841a7c9b52a33bdaa6898086",
    "wof:hierarchy":[
        {
            "continent_id":102191575,
            "country_id":85633793,
            "county_id":102085995,
            "localadmin_id":404478497,
            "locality_id":85975847,
            "neighbourhood_id":85877221,
            "region_id":85688607,
            "venue_id":572171685
        }
    ],
    "wof:id":572171685,
    "wof:lastmodified":1461051460,
    "wof:name":"Express Van Lines Moving",
    "wof:parent_id":85877221,
    "wof:placetype":"venue",
    "wof:superseded_by":[],
    "wof:supersedes":[],
    "wof:tags":[
        "mover"
    ]
},
  "bbox": [
    -74.189933,
    40.653526,
    -74.189933,
    40.653526
],
  "geometry": {"coordinates":[-74.189933,40.653526],"type":"Point"}
}