{
  "id": 554934791,
  "type": "Feature",
  "properties": {
    "edtf:cessation":"uuuu",
    "edtf:inception":"uuuu",
    "geom:area":0.0,
    "geom:bbox":"-73.654712,41.017569,-73.654712,41.017569",
    "geom:latitude":41.017569,
    "geom:longitude":-73.654712,
    "iso:country":"US",
    "sg:address":"64 Pemberwick Rd",
    "sg:city":"Greenwich",
    "sg:classifiers":[
        {
            "category":"Building & Trades",
            "subcategory":"Construction",
            "type":"Services"
        }
    ],
    "sg:owner":"simplegeo",
    "sg:phone":"+1 203 629 1998",
    "sg:postcode":"06831",
    "sg:province":"NY",
    "sg:tags":[
        "roofing",
        "contractor"
    ],
    "src:geom":"simplegeo",
    "wof:belongsto":[
        85885307,
        102191575,
        404495949,
        85633793,
        85930941,
        102084283,
        85688629,
        420555461,
        85930937
    ],
    "wof:breaches":[],
    "wof:concordances":{
        "sg:id":"SG_4eH9B7UZnb9Uqn8BwJqrmS_41.017569_-73.654712@1294177022"
    },
    "wof:country":"US",
    "wof:geomhash":"be93162f983f998a4d4d038638d3a3a2",
    "wof:hierarchy":[
        {
            "continent_id":102191575,
            "country_id":85633793,
            "county_id":102084283,
            "localadmin_id":404495949,
            "locality_id":85930941,
            "neighbourhood_id":85885307,
            "region_id":85688629,
            "venue_id":554934791
        },
        {
            "continent_id":102191575,
            "country_id":85633793,
            "county_id":102084283,
            "localadmin_id":404495949,
            "locality_id":85930937,
            "neighbourhood_id":420555461,
            "region_id":85688629,
            "venue_id":554934791
        }
    ],
    "wof:id":554934791,
    "wof:lastmodified":1461016984,
    "wof:name":"ARE Roofing & Restoration",
    "wof:parent_id":-1,
    "wof:placetype":"venue",
    "wof:superseded_by":[],
    "wof:supersedes":[],
    "wof:tags":[
        "roofing",
        "contractor"
    ]
},
  "bbox": [
    -73.654712,
    41.017569,
    -73.654712,
    41.017569
],
  "geometry": {"coordinates":[-73.654712,41.017569],"type":"Point"}
}