{
  "id": 555411427,
  "type": "Feature",
  "properties": {
    "edtf:cessation":"uuuu",
    "edtf:inception":"uuuu",
    "geom:area":0.0,
    "geom:bbox":"-73.981295,40.771029,-73.981295,40.771029",
    "geom:latitude":40.771029,
    "geom:longitude":-73.981295,
    "iso:country":"US",
    "sg:address":"1 Lincoln Center Plz",
    "sg:city":"New York",
    "sg:classifiers":[
        {
            "category":"Banks & Credit Unions",
            "subcategory":"Bank",
            "type":"Services"
        }
    ],
    "sg:owner":"simplegeo",
    "sg:phone":"+1 212 935 9935",
    "sg:postcode":"10023",
    "sg:province":"NY",
    "src:geom":"simplegeo",
    "wof:belongsto":[],
    "wof:breaches":[],
    "wof:concordances":{
        "sg:id":"SG_0cgkdstoL3JR6vrc2BsLuZ_40.771029_-73.981295@1294177022"
    },
    "wof:country":"US",
    "wof:geomhash":"aaee778818475b2bef4fab27b3cd61a5",
    "wof:hierarchy":[],
    "wof:id":555411427,
    "wof:lastmodified":1461029251,
    "wof:name":"Chase",
    "wof:parent_id":-1,
    "wof:placetype":"venue",
    "wof:superseded_by":[],
    "wof:supersedes":[],
    "wof:tags":[]
},
  "bbox": [
    -73.981295,
    40.771029,
    -73.981295,
    40.771029
],
  "geometry": {"coordinates":[-73.981295,40.771029],"type":"Point"}
}