{
  "id": 572170791,
  "type": "Feature",
  "properties": {
    "edtf:cessation":"uuuu",
    "edtf:inception":"uuuu",
    "geom:area":0.0,
    "geom:bbox":"-74.209058,40.647359,-74.209058,40.647359",
    "geom:latitude":40.647359,
    "geom:longitude":-74.209058,
    "iso:country":"US",
    "sg:address":"4616 5th Ave",
    "sg:city":"Brooklyn",
    "sg:classifiers":[
        {
            "category":"Restaurant",
            "subcategory":"",
            "type":"Food & Drink"
        }
    ],
    "sg:owner":"simplegeo",
    "sg:phone":"+1 718 439 1661",
    "sg:postcode":"11220",
    "sg:province":"NY",
    "sg:tags":[
        "mexican"
    ],
    "src:geom":"simplegeo",
    "wof:belongsto":[
        85868017,
        102191575,
        404478497,
        85633793,
        85975847,
        102085995,
        85688607
    ],
    "wof:breaches":[],
    "wof:concordances":{
        "sg:id":"SG_5r6BTHwwIAEDOml39yLav6_40.647359_-74.209058@1303262344"
    },
    "wof:country":"US",
    "wof:geomhash":"27c332ccb72da1653bf5e2ced72459f6",
    "wof:hierarchy":[
        {
            "continent_id":102191575,
            "country_id":85633793,
            "county_id":102085995,
            "localadmin_id":404478497,
            "locality_id":85975847,
            "neighbourhood_id":85868017,
            "region_id":85688607,
            "venue_id":572170791
        }
    ],
    "wof:id":572170791,
    "wof:lastmodified":1461051433,
    "wof:name":"Taco Mex 2 Inc",
    "wof:parent_id":85868017,
    "wof:placetype":"venue",
    "wof:superseded_by":[],
    "wof:supersedes":[],
    "wof:tags":[
        "mexican"
    ]
},
  "bbox": [
    -74.209058,
    40.647359,
    -74.209058,
    40.647359
],
  "geometry": {"coordinates":[-74.209058,40.647359],"type":"Point"}
}