{
  "id": 554934101,
  "type": "Feature",
  "properties": {
    "edtf:cessation":"uuuu",
    "edtf:inception":"uuuu",
    "geom:area":0.0,
    "geom:bbox":"-73.660457,41.010125,-73.660457,41.010125",
    "geom:latitude":41.010125,
    "geom:longitude":-73.660457,
    "iso:country":"US",
    "sg:address":"445 Willett Ave",
    "sg:city":"Port Chester",
    "sg:classifiers":[
        {
            "category":"Building & Trades",
            "subcategory":"Construction",
            "type":"Services"
        }
    ],
    "sg:owner":"simplegeo",
    "sg:phone":"+1 914 937 0533",
    "sg:postcode":"10573",
    "sg:province":"NY",
    "sg:tags":[
        "excavation",
        "masonry",
        "contractor",
        "paving",
        "general"
    ],
    "src:geom":"simplegeo",
    "wof:belongsto":[
        85885307,
        102191575,
        404495949,
        85633793,
        85930941,
        102084283,
        85688629,
        420530431,
        404523389,
        85978705,
        102082373,
        85688543
    ],
    "wof:breaches":[],
    "wof:concordances":{
        "sg:id":"SG_77Lw9XFTnPeKPF4YBHhGVF_41.010125_-73.660457@1294177022"
    },
    "wof:country":"US",
    "wof:geomhash":"aa9e73cc3a4966bb6c4ff5ee5dc06bfc",
    "wof:hierarchy":[
        {
            "continent_id":102191575,
            "country_id":85633793,
            "county_id":102084283,
            "localadmin_id":404495949,
            "locality_id":85930941,
            "neighbourhood_id":85885307,
            "region_id":85688629,
            "venue_id":554934101
        },
        {
            "continent_id":102191575,
            "country_id":85633793,
            "county_id":102082373,
            "localadmin_id":404523389,
            "locality_id":85978705,
            "neighbourhood_id":420530431,
            "region_id":85688543,
            "venue_id":554934101
        }
    ],
    "wof:id":554934101,
    "wof:lastmodified":1461016899,
    "wof:name":"CPA Construction Co Inc",
    "wof:parent_id":-1,
    "wof:placetype":"venue",
    "wof:superseded_by":[],
    "wof:supersedes":[],
    "wof:tags":[
        "excavation",
        "masonry",
        "contractor",
        "paving",
        "general"
    ]
},
  "bbox": [
    -73.660457,
    41.010125,
    -73.660457,
    41.010125
],
  "geometry": {"coordinates":[-73.66045699999999,41.010125],"type":"Point"}
}