{
  "id": 554939603,
  "type": "Feature",
  "properties": {
    "edtf:cessation":"uuuu",
    "edtf:inception":"uuuu",
    "geom:area":0.0,
    "geom:bbox":"-73.49975,41.154359,-73.49975,41.154359",
    "geom:latitude":41.154359,
    "geom:longitude":-73.49975,
    "iso:country":"US",
    "sg:address":"195 Oenoke Ridge",
    "sg:city":"New Canaan",
    "sg:classifiers":[
        {
            "category":"Travel",
            "subcategory":"Hotels & Motels",
            "type":"Entertainment"
        },
        {
            "category":"Restaurant",
            "subcategory":"",
            "type":"Food & Drink"
        }
    ],
    "sg:owner":"simplegeo",
    "sg:phone":"+1 203 966 4541",
    "sg:postcode":"06840",
    "sg:province":"NY",
    "sg:tags":[
        "eating",
        "bar"
    ],
    "sg:website":"www.rogersherman.com",
    "src:geom":"simplegeo",
    "wof:belongsto":[
        85688629,
        85633793,
        85851779,
        102084283
    ],
    "wof:breaches":[],
    "wof:concordances":{
        "sg:id":"SG_2vM7u4XdwfUIEB9gQVcAZs_41.154359_-73.499750@1294177022"
    },
    "wof:country":"US",
    "wof:geomhash":"7916bd82109cc649254bc3ce2978a6f8",
    "wof:hierarchy":[
        {
            "country_id":85633793,
            "county_id":102084283,
            "neighbourhood_id":85851779,
            "region_id":85688629,
            "venue_id":554939603
        }
    ],
    "wof:id":554939603,
    "wof:lastmodified":1461017579,
    "wof:name":"Roger Sherman Inn The",
    "wof:parent_id":85851779,
    "wof:placetype":"venue",
    "wof:superseded_by":[],
    "wof:supersedes":[],
    "wof:tags":[
        "eating",
        "bar"
    ]
},
  "bbox": [
    -73.49975,
    41.154359,
    -73.49975,
    41.154359
],
  "geometry": {"coordinates":[-73.49975000000001,41.154359],"type":"Point"}
}