{
  "id": 554936303,
  "type": "Feature",
  "properties": {
    "edtf:cessation":"uuuu",
    "edtf:inception":"uuuu",
    "geom:area":0.0,
    "geom:bbox":"-73.479056,41.192847,-73.479056,41.192847",
    "geom:latitude":41.192847,
    "geom:longitude":-73.479056,
    "iso:country":"US",
    "sg:address":"205 Benedict Hill Rd",
    "sg:city":"New Canaan",
    "sg:classifiers":[
        {
            "category":"Manufacturing",
            "subcategory":"Tools & Machinery",
            "type":"Manufacturing & Wholesale Goods"
        }
    ],
    "sg:owner":"simplegeo",
    "sg:phone":"+1 203 966 3404",
    "sg:postcode":"06840",
    "sg:province":"NY",
    "sg:tags":[
        "measuring",
        "instrument",
        "electrical",
        "mfg"
    ],
    "src:geom":"simplegeo",
    "wof:belongsto":[],
    "wof:breaches":[],
    "wof:concordances":{
        "sg:id":"SG_3qQNtunBAAPQ6z63m3qZWf_41.192847_-73.479056@1294177022"
    },
    "wof:country":"US",
    "wof:geomhash":"ee21e90c2924d9d534cd0e7182d43395",
    "wof:hierarchy":[],
    "wof:id":554936303,
    "wof:lastmodified":1461017196,
    "wof:name":"Megasonics Inc",
    "wof:parent_id":-1,
    "wof:placetype":"venue",
    "wof:superseded_by":[],
    "wof:supersedes":[],
    "wof:tags":[
        "measuring",
        "instrument",
        "electrical",
        "mfg"
    ]
},
  "bbox": [
    -73.479056,
    41.192847,
    -73.479056,
    41.192847
],
  "geometry": {"coordinates":[-73.479056,41.192847],"type":"Point"}
}