{
  "id": 554941515,
  "type": "Feature",
  "properties": {
    "edtf:cessation":"uuuu",
    "edtf:inception":"uuuu",
    "geom:area":0.0,
    "geom:bbox":"-73.518281,41.172372,-73.518281,41.172372",
    "geom:latitude":41.172372,
    "geom:longitude":-73.518281,
    "iso:country":"US",
    "sg:address":"174 Turtle Back Rd",
    "sg:city":"New Canaan",
    "sg:classifiers":[
        {
            "category":"Banks & Credit Unions",
            "subcategory":"Financial Services",
            "type":"Services"
        }
    ],
    "sg:owner":"simplegeo",
    "sg:phone":"+1 203 966 8332",
    "sg:postcode":"06840",
    "sg:province":"NY",
    "sg:tags":[
        "trust",
        "nonprofit",
        "management"
    ],
    "src:geom":"simplegeo",
    "wof:belongsto":[],
    "wof:breaches":[],
    "wof:concordances":{
        "sg:id":"SG_0aXqTQE6IQYQUqsuugD0Dj_41.172372_-73.518281@1294177022"
    },
    "wof:country":"US",
    "wof:geomhash":"948c359a352451711f543614746e706f",
    "wof:hierarchy":[],
    "wof:id":554941515,
    "wof:lastmodified":1461017767,
    "wof:name":"Rein Family Foundation Inc",
    "wof:parent_id":-1,
    "wof:placetype":"venue",
    "wof:superseded_by":[],
    "wof:supersedes":[],
    "wof:tags":[
        "trust",
        "nonprofit",
        "management"
    ]
},
  "bbox": [
    -73.518281,
    41.172372,
    -73.518281,
    41.172372
],
  "geometry": {"coordinates":[-73.518281,41.172372],"type":"Point"}
}