{
  "id": 554935267,
  "type": "Feature",
  "properties": {
    "edtf:cessation":"uuuu",
    "edtf:inception":"uuuu",
    "geom:area":0.0,
    "geom:bbox":"-73.513116,41.138378,-73.513116,41.138378",
    "geom:latitude":41.138378,
    "geom:longitude":-73.513116,
    "iso:country":"US",
    "sg:address":"20 Hanford Ln",
    "sg:city":"New Canaan",
    "sg:classifiers":[
        {
            "category":"Professional",
            "subcategory":"Business Services",
            "type":"Services"
        }
    ],
    "sg:owner":"simplegeo",
    "sg:phone":"+1   ",
    "sg:postcode":"06840",
    "sg:province":"NY",
    "src:geom":"simplegeo",
    "wof:belongsto":[
        85688629,
        85633793,
        85851779,
        102084283
    ],
    "wof:breaches":[],
    "wof:concordances":{
        "sg:id":"SG_6lvSNB9WKyv5Kmpt8nMxoY_41.138378_-73.513116@1294177022"
    },
    "wof:country":"US",
    "wof:geomhash":"3835419f50cccfb15527b42edda3e3fa",
    "wof:hierarchy":[
        {
            "country_id":85633793,
            "county_id":102084283,
            "neighbourhood_id":85851779,
            "region_id":85688629,
            "venue_id":554935267
        }
    ],
    "wof:id":554935267,
    "wof:lastmodified":1461017047,
    "wof:name":"Packer Design Inc",
    "wof:parent_id":85851779,
    "wof:placetype":"venue",
    "wof:superseded_by":[],
    "wof:supersedes":[],
    "wof:tags":[]
},
  "bbox": [
    -73.513116,
    41.138378,
    -73.513116,
    41.138378
],
  "geometry": {"coordinates":[-73.513116,41.138378],"type":"Point"}
}