{
  "id": 554942055,
  "type": "Feature",
  "properties": {
    "edtf:cessation":"uuuu",
    "edtf:inception":"uuuu",
    "geom:area":0.0,
    "geom:bbox":"-73.483427,41.138368,-73.483427,41.138368",
    "geom:latitude":41.138368,
    "geom:longitude":-73.483427,
    "iso:country":"US",
    "sg:address":"162 Woodland Rd",
    "sg:city":"New Canaan",
    "sg:classifiers":[
        {
            "category":"Communications",
            "subcategory":"",
            "type":"Services"
        }
    ],
    "sg:owner":"simplegeo",
    "sg:phone":"+1   ",
    "sg:postcode":"06840",
    "sg:province":"NY",
    "sg:tags":[
        "communication",
        "agency",
        "advertising"
    ],
    "src:geom":"simplegeo",
    "wof:belongsto":[
        85688629,
        85633793,
        85851779,
        102084283
    ],
    "wof:breaches":[],
    "wof:concordances":{
        "sg:id":"SG_4BrphKZBug5I7QCaNs3Rtk_41.138368_-73.483427@1294177022"
    },
    "wof:country":"US",
    "wof:geomhash":"b2eb6f284bee94f9ed67966b939fa6f3",
    "wof:hierarchy":[
        {
            "country_id":85633793,
            "county_id":102084283,
            "neighbourhood_id":85851779,
            "region_id":85688629,
            "venue_id":554942055
        }
    ],
    "wof:id":554942055,
    "wof:lastmodified":1461017838,
    "wof:name":"Wendy Ban Prys Mktg Cmmnctions",
    "wof:parent_id":85851779,
    "wof:placetype":"venue",
    "wof:superseded_by":[],
    "wof:supersedes":[],
    "wof:tags":[
        "communication",
        "agency",
        "advertising"
    ]
},
  "bbox": [
    -73.483427,
    41.138368,
    -73.483427,
    41.138368
],
  "geometry": {"coordinates":[-73.48342700000001,41.138368],"type":"Point"}
}