{
  "id": 554936155,
  "type": "Feature",
  "properties": {
    "edtf:cessation":"uuuu",
    "edtf:inception":"uuuu",
    "geom:area":0.0,
    "geom:bbox":"-73.49513,41.145961,-73.49513,41.145961",
    "geom:latitude":41.145961,
    "geom:longitude":-73.49513,
    "iso:country":"US",
    "sg:address":"94 Park St",
    "sg:city":"New Canaan",
    "sg:classifiers":[
        {
            "category":"Shopping",
            "subcategory":"Bicycles & Sporting Goods",
            "type":"Retail Goods"
        }
    ],
    "sg:owner":"simplegeo",
    "sg:phone":"+1 203 966 2399",
    "sg:postcode":"06840",
    "sg:province":"NY",
    "sg:tags":[
        "repair"
    ],
    "src:geom":"simplegeo",
    "wof:belongsto":[
        85688629,
        85633793,
        85851779,
        102084283
    ],
    "wof:breaches":[],
    "wof:concordances":{
        "sg:id":"SG_160caIbpIiBDxjKUufLzyC_41.145961_-73.495130@1294177022"
    },
    "wof:country":"US",
    "wof:geomhash":"7ad13d3dbd97da623bc75dd64c8bc7e7",
    "wof:hierarchy":[
        {
            "country_id":85633793,
            "county_id":102084283,
            "neighbourhood_id":85851779,
            "region_id":85688629,
            "venue_id":554936155
        }
    ],
    "wof:id":554936155,
    "wof:lastmodified":1461017173,
    "wof:name":"New Cannan Cyclery Inc",
    "wof:parent_id":85851779,
    "wof:placetype":"venue",
    "wof:superseded_by":[],
    "wof:supersedes":[],
    "wof:tags":[
        "repair"
    ]
},
  "bbox": [
    -73.49513,
    41.145961,
    -73.49513,
    41.145961
],
  "geometry": {"coordinates":[-73.49513,41.145961],"type":"Point"}
}