{
  "id": 555497885,
  "type": "Feature",
  "properties": {
    "edtf:cessation":"uuuu",
    "edtf:inception":"uuuu",
    "geom:area":0.0,
    "geom:bbox":"-74.103888,42.667137,-74.103888,42.667137",
    "geom:latitude":42.667137,
    "geom:longitude":-74.103888,
    "iso:country":"US",
    "sg:address":"604 Knox Cave Rd",
    "sg:city":"Altamont",
    "sg:classifiers":[
        {
            "category":"Manufacturing",
            "subcategory":"Metals",
            "type":"Manufacturing & Wholesale Goods"
        }
    ],
    "sg:owner":"simplegeo",
    "sg:phone":"+1 518 872 9225",
    "sg:postcode":"12009",
    "sg:province":"NY",
    "sg:tags":[
        "steel"
    ],
    "src:geom":"simplegeo",
    "wof:belongsto":[],
    "wof:breaches":[],
    "wof:concordances":{
        "sg:id":"SG_7fyHkKV97NnGPVQ7T3t8QN_42.667137_-74.103888@1294177022"
    },
    "wof:country":"US",
    "wof:geomhash":"36d206c86142ebe3ca3c81ec93d0e960",
    "wof:hierarchy":[],
    "wof:id":555497885,
    "wof:lastmodified":1461031284,
    "wof:name":"FNS Mobile Welding & Fab",
    "wof:parent_id":-1,
    "wof:placetype":"venue",
    "wof:superseded_by":[],
    "wof:supersedes":[],
    "wof:tags":[
        "steel"
    ]
},
  "bbox": [
    -74.103888,
    42.667137,
    -74.103888,
    42.667137
],
  "geometry": {"coordinates":[-74.103888,42.667137],"type":"Point"}
}