{
  "id": 554940465,
  "type": "Feature",
  "properties": {
    "edtf:cessation":"uuuu",
    "edtf:inception":"uuuu",
    "geom:area":0.0,
    "geom:bbox":"-73.630844,41.108463,-73.630844,41.108463",
    "geom:latitude":41.108463,
    "geom:longitude":-73.630844,
    "iso:country":"US",
    "sg:address":"755 North St",
    "sg:city":"Greenwich",
    "sg:classifiers":[
        {
            "category":"Professional",
            "subcategory":"",
            "type":"Services"
        }
    ],
    "sg:owner":"simplegeo",
    "sg:phone":"+1 203 622 1763",
    "sg:postcode":"06831",
    "sg:province":"NY",
    "sg:tags":[
        "establishment"
    ],
    "src:geom":"simplegeo",
    "wof:belongsto":[
        85688629,
        85633793,
        85850923,
        102084283
    ],
    "wof:breaches":[],
    "wof:concordances":{
        "sg:id":"SG_0BoJVslRpYH3MEvOZ9ORsh_41.108463_-73.630844@1294177022"
    },
    "wof:country":"US",
    "wof:geomhash":"96e34c73d3c0c431deb4eae03923fcf8",
    "wof:hierarchy":[
        {
            "country_id":85633793,
            "county_id":102084283,
            "neighbourhood_id":85850923,
            "region_id":85688629,
            "venue_id":554940465
        }
    ],
    "wof:id":554940465,
    "wof:lastmodified":1461017655,
    "wof:name":"Hobbs Inc",
    "wof:parent_id":85850923,
    "wof:placetype":"venue",
    "wof:superseded_by":[],
    "wof:supersedes":[],
    "wof:tags":[
        "establishment"
    ]
},
  "bbox": [
    -73.630844,
    41.108463,
    -73.630844,
    41.108463
],
  "geometry": {"coordinates":[-73.630844,41.108463],"type":"Point"}
}