{
  "id": 572174849,
  "type": "Feature",
  "properties": {
    "edtf:cessation":"uuuu",
    "edtf:inception":"uuuu",
    "geom:area":0.0,
    "geom:bbox":"-73.999895,40.822755,-73.999895,40.822755",
    "geom:latitude":40.822755,
    "geom:longitude":-73.999895,
    "iso:country":"US",
    "sg:address":"151 Holbrook Rd",
    "sg:city":"Holbrook",
    "sg:classifiers":[
        {
            "category":"Education",
            "subcategory":"School",
            "type":"Public Place"
        }
    ],
    "sg:owner":"simplegeo",
    "sg:phone":"+1 631 471 1850",
    "sg:postcode":"11741",
    "sg:province":"NY",
    "sg:tags":[
        "high",
        "middle",
        "elementary"
    ],
    "src:geom":"simplegeo",
    "wof:belongsto":[],
    "wof:breaches":[],
    "wof:concordances":{
        "sg:id":"SG_4wYh7Rk93BBcP6LXmmOfMc_40.822755_-73.999895@1303262375"
    },
    "wof:country":"US",
    "wof:geomhash":"16944644db0499c370ad42b3277b6624",
    "wof:hierarchy":[],
    "wof:id":572174849,
    "wof:lastmodified":1461051558,
    "wof:name":"Sachem Central School District At",
    "wof:parent_id":-1,
    "wof:placetype":"venue",
    "wof:superseded_by":[],
    "wof:supersedes":[],
    "wof:tags":[
        "high",
        "middle",
        "elementary"
    ]
},
  "bbox": [
    -73.999895,
    40.822755,
    -73.999895,
    40.822755
],
  "geometry": {"coordinates":[-73.999895,40.822755],"type":"Point"}
}