{
  "id": 554941293,
  "type": "Feature",
  "properties": {
    "edtf:cessation":"uuuu",
    "edtf:inception":"uuuu",
    "geom:area":0.0,
    "geom:bbox":"-79.728179,42.19491,-79.728179,42.19491",
    "geom:latitude":42.19491,
    "geom:longitude":-79.728179,
    "iso:country":"US",
    "sg:address":"10268 NE Sherman Rd",
    "sg:city":"Ripley",
    "sg:classifiers":[
        {
            "category":"Professional",
            "subcategory":"",
            "type":"Services"
        }
    ],
    "sg:owner":"simplegeo",
    "sg:phone":"+1 716 252 6606",
    "sg:postcode":"14775",
    "sg:province":"NY",
    "sg:tags":[
        "establishment"
    ],
    "src:geom":"simplegeo",
    "wof:belongsto":[
        85688481,
        85633793,
        85850957,
        102080955
    ],
    "wof:breaches":[],
    "wof:concordances":{
        "sg:id":"SG_0fxO7FEyiKmigBBCsX2N3y_42.194910_-79.728179@1294177022"
    },
    "wof:country":"US",
    "wof:geomhash":"d39c77c30b3e317ecf7958b8493ea1b4",
    "wof:hierarchy":[
        {
            "country_id":85633793,
            "county_id":102080955,
            "neighbourhood_id":85850957,
            "region_id":85688481,
            "venue_id":554941293
        }
    ],
    "wof:id":554941293,
    "wof:lastmodified":1461017726,
    "wof:name":"Ripley Hose Co",
    "wof:parent_id":85850957,
    "wof:placetype":"venue",
    "wof:superseded_by":[],
    "wof:supersedes":[],
    "wof:tags":[
        "establishment"
    ]
},
  "bbox": [
    -79.728179,
    42.19491,
    -79.728179,
    42.19491
],
  "geometry": {"coordinates":[-79.728179,42.19491],"type":"Point"}
}