{
  "id": 554936987,
  "type": "Feature",
  "properties": {
    "edtf:cessation":"uuuu",
    "edtf:inception":"uuuu",
    "geom:area":0.0,
    "geom:bbox":"-73.698575,41.11284,-73.698575,41.11284",
    "geom:latitude":41.11284,
    "geom:longitude":-73.698575,
    "iso:country":"US",
    "sg:address":"248 Bedford Rd",
    "sg:city":"Greenwich",
    "sg:classifiers":[
        {
            "category":"Banks & Credit Unions",
            "subcategory":"Investment Brokerage",
            "type":"Services"
        }
    ],
    "sg:owner":"simplegeo",
    "sg:phone":"+1 203 552 0600",
    "sg:postcode":"06831",
    "sg:province":"NY",
    "sg:tags":[
        "stock",
        "bond"
    ],
    "src:geom":"simplegeo",
    "wof:belongsto":[
        85688629,
        85633793,
        85837667,
        102084283
    ],
    "wof:breaches":[],
    "wof:concordances":{
        "sg:id":"SG_3c37uJtYLArynRBVCUxzVU_41.112840_-73.698575@1294177022"
    },
    "wof:country":"US",
    "wof:geomhash":"dce4d881354db68d50a442b26710db88",
    "wof:hierarchy":[
        {
            "country_id":85633793,
            "county_id":102084283,
            "neighbourhood_id":85837667,
            "region_id":85688629,
            "venue_id":554936987
        }
    ],
    "wof:id":554936987,
    "wof:lastmodified":1461017301,
    "wof:name":"Corporate Securities Group",
    "wof:parent_id":85837667,
    "wof:placetype":"venue",
    "wof:superseded_by":[],
    "wof:supersedes":[],
    "wof:tags":[
        "stock",
        "bond"
    ]
},
  "bbox": [
    -73.698575,
    41.11284,
    -73.698575,
    41.11284
],
  "geometry": {"coordinates":[-73.69857500000001,41.11284],"type":"Point"}
}