{
  "id": 571521683,
  "type": "Feature",
  "properties": {
    "edtf:cessation":"uuuu",
    "edtf:inception":"uuuu",
    "geom:area":0.0,
    "geom:bbox":"-73.392739,40.675157,-73.392739,40.675157",
    "geom:latitude":40.675157,
    "geom:longitude":-73.392739,
    "iso:country":"US",
    "sg:address":"110 Ferndale Ct",
    "sg:city":"Copiague",
    "sg:classifiers":[
        {
            "category":"Wholesale",
            "subcategory":"Durable Goods & Equipment",
            "type":"Manufacturing & Wholesale Goods"
        }
    ],
    "sg:owner":"simplegeo",
    "sg:phone":"+1 631 841 0804",
    "sg:postcode":"11726",
    "sg:province":"NY",
    "sg:tags":[
        "representative",
        "manufacturer"
    ],
    "src:geom":"simplegeo",
    "wof:belongsto":[],
    "wof:breaches":[],
    "wof:concordances":{
        "sg:id":"SG_2kMeuRj2EzCKSYxMG6jvLm_40.675157_-73.392739@1294177022"
    },
    "wof:country":"US",
    "wof:geomhash":"7c0831c17736f113eb90d51d0ef22847",
    "wof:hierarchy":[],
    "wof:id":571521683,
    "wof:lastmodified":1461037609,
    "wof:name":"C J KEAN Co Inc",
    "wof:parent_id":-1,
    "wof:placetype":"venue",
    "wof:superseded_by":[],
    "wof:supersedes":[],
    "wof:tags":[
        "representative",
        "manufacturer"
    ]
},
  "bbox": [
    -73.392739,
    40.675157,
    -73.392739,
    40.675157
],
  "geometry": {"coordinates":[-73.39273900000001,40.675157],"type":"Point"}
}