{
  "id": 572171479,
  "type": "Feature",
  "properties": {
    "edtf:cessation":"uuuu",
    "edtf:inception":"uuuu",
    "geom:area":0.0,
    "geom:bbox":"-74.189691,40.682234,-74.189691,40.682234",
    "geom:latitude":40.682234,
    "geom:longitude":-74.189691,
    "iso:country":"US",
    "sg:address":"72 Bowne St",
    "sg:city":"Brooklyn",
    "sg:classifiers":[
        {
            "category":"Building & Trades",
            "subcategory":"Construction",
            "type":"Services"
        }
    ],
    "sg:owner":"simplegeo",
    "sg:phone":"+1 718 855 9444",
    "sg:postcode":"11231",
    "sg:province":"NY",
    "sg:tags":[
        "contractor"
    ],
    "src:geom":"simplegeo",
    "wof:belongsto":[
        102530049,
        85852463,
        102191575,
        404478049,
        85633793,
        85975279,
        102085043,
        85688607
    ],
    "wof:breaches":[],
    "wof:concordances":{
        "sg:id":"SG_7M8jAwVFPkaS9ZfzFADF0w_40.682234_-74.189691@1303262348"
    },
    "wof:country":"US",
    "wof:geomhash":"35531c06c9a19488c50f0fe02e3ee558",
    "wof:hierarchy":[
        {
            "campus_id":102530049,
            "continent_id":102191575,
            "country_id":85633793,
            "county_id":102085043,
            "localadmin_id":404478049,
            "locality_id":85975279,
            "neighbourhood_id":85852463,
            "region_id":85688607,
            "venue_id":572171479
        }
    ],
    "wof:id":572171479,
    "wof:lastmodified":1461051456,
    "wof:name":"Apollo Tech Construction",
    "wof:parent_id":102530049,
    "wof:placetype":"venue",
    "wof:superseded_by":[],
    "wof:supersedes":[],
    "wof:tags":[
        "contractor"
    ]
},
  "bbox": [
    -74.189691,
    40.682234,
    -74.189691,
    40.682234
],
  "geometry": {"coordinates":[-74.189691,40.682234],"type":"Point"}
}