{
  "id": 554941375,
  "type": "Feature",
  "properties": {
    "edtf:cessation":"uuuu",
    "edtf:inception":"uuuu",
    "geom:area":0.0,
    "geom:bbox":"-73.457696,41.141942,-73.457696,41.141942",
    "geom:latitude":41.141942,
    "geom:longitude":-73.457696,
    "iso:country":"US",
    "sg:address":"46 Betsys Ln",
    "sg:city":"New Canaan",
    "sg:classifiers":[
        {
            "category":"Professional",
            "subcategory":"Management & Consulting",
            "type":"Services"
        }
    ],
    "sg:owner":"simplegeo",
    "sg:phone":"+1   ",
    "sg:postcode":"06840",
    "sg:province":"NY",
    "sg:tags":[
        "public",
        "relations"
    ],
    "src:geom":"simplegeo",
    "wof:belongsto":[
        85879307,
        102191575,
        404495959,
        85633793,
        85930795,
        102084283,
        85688629,
        85848785
    ],
    "wof:breaches":[],
    "wof:concordances":{
        "sg:id":"SG_43udAxYTlgF7484eGWN9F2_41.141942_-73.457696@1294177022"
    },
    "wof:country":"US",
    "wof:geomhash":"c6ab7dfcdb6c5099fbaaeaaf65c4e4b4",
    "wof:hierarchy":[
        {
            "continent_id":102191575,
            "country_id":85633793,
            "county_id":102084283,
            "localadmin_id":404495959,
            "locality_id":85930795,
            "neighbourhood_id":85879307,
            "region_id":85688629,
            "venue_id":554941375
        },
        {
            "country_id":85633793,
            "county_id":102084283,
            "neighbourhood_id":85848785,
            "region_id":85688629,
            "venue_id":554941375
        }
    ],
    "wof:id":554941375,
    "wof:lastmodified":1461017735,
    "wof:name":"Stan Adler Associates",
    "wof:parent_id":-1,
    "wof:placetype":"venue",
    "wof:superseded_by":[],
    "wof:supersedes":[],
    "wof:tags":[
        "public",
        "relations"
    ]
},
  "bbox": [
    -73.457696,
    41.141942,
    -73.457696,
    41.141942
],
  "geometry": {"coordinates":[-73.457696,41.141942],"type":"Point"}
}