{
  "id": 572171205,
  "type": "Feature",
  "properties": {
    "edtf:cessation":"uuuu",
    "edtf:inception":"uuuu",
    "geom:area":0.0,
    "geom:bbox":"-74.307624,40.575611,-74.307624,40.575611",
    "geom:latitude":40.575611,
    "geom:longitude":-74.307624,
    "iso:country":"US",
    "sg:address":"3719 Oceanic Ave",
    "sg:city":"Brooklyn",
    "sg:classifiers":[
        {
            "category":"Personal",
            "subcategory":"Beauty Salon",
            "type":"Services"
        }
    ],
    "sg:owner":"simplegeo",
    "sg:phone":"+1 347 702 7239",
    "sg:postcode":"11224",
    "sg:province":"NY",
    "sg:tags":[
        "hair"
    ],
    "src:geom":"simplegeo",
    "wof:belongsto":[
        85892395,
        102191575,
        404478217,
        85633793,
        85976277,
        102087417,
        85688607
    ],
    "wof:breaches":[],
    "wof:concordances":{
        "sg:id":"SG_0YS96J3DpKNrHqF4xAGs8P_40.575611_-74.307624@1303262346"
    },
    "wof:country":"US",
    "wof:geomhash":"f0f42f13c688b8b68a4c4fb7e83296be",
    "wof:hierarchy":[
        {
            "continent_id":102191575,
            "country_id":85633793,
            "county_id":102087417,
            "localadmin_id":404478217,
            "locality_id":85976277,
            "neighbourhood_id":85892395,
            "region_id":85688607,
            "venue_id":572171205
        }
    ],
    "wof:id":572171205,
    "wof:lastmodified":1461051443,
    "wof:name":"Grand Palace",
    "wof:parent_id":85892395,
    "wof:placetype":"venue",
    "wof:superseded_by":[],
    "wof:supersedes":[],
    "wof:tags":[
        "hair"
    ]
},
  "bbox": [
    -74.307624,
    40.575611,
    -74.307624,
    40.575611
],
  "geometry": {"coordinates":[-74.307624,40.575611],"type":"Point"}
}