{
  "id": 554937689,
  "type": "Feature",
  "properties": {
    "edtf:cessation":"uuuu",
    "edtf:inception":"uuuu",
    "geom:area":0.0,
    "geom:bbox":"-73.491857,41.147766,-73.491857,41.147766",
    "geom:latitude":41.147766,
    "geom:longitude":-73.491857,
    "iso:country":"US",
    "sg:address":"30 East Ave",
    "sg:city":"New Canaan",
    "sg:classifiers":[
        {
            "category":"Home & Garden",
            "subcategory":"Garden Supply",
            "type":"Retail Goods"
        }
    ],
    "sg:owner":"simplegeo",
    "sg:phone":"+1 203 972 0820",
    "sg:postcode":"06840",
    "sg:province":"NY",
    "sg:tags":[
        "lawn"
    ],
    "src:geom":"simplegeo",
    "wof:belongsto":[
        85688629,
        85633793,
        85851779,
        102084283
    ],
    "wof:breaches":[],
    "wof:concordances":{
        "sg:id":"SG_2wpIiQH5MllrLtta75LqIh_41.147766_-73.491857@1294177022"
    },
    "wof:country":"US",
    "wof:geomhash":"ed7063460da097b58a1c3860b6a714b0",
    "wof:hierarchy":[
        {
            "country_id":85633793,
            "county_id":102084283,
            "neighbourhood_id":85851779,
            "region_id":85688629,
            "venue_id":554937689
        }
    ],
    "wof:id":554937689,
    "wof:lastmodified":1461017405,
    "wof:name":"Smith & Hawken",
    "wof:parent_id":85851779,
    "wof:placetype":"venue",
    "wof:superseded_by":[],
    "wof:supersedes":[],
    "wof:tags":[
        "lawn"
    ]
},
  "bbox": [
    -73.491857,
    41.147766,
    -73.491857,
    41.147766
],
  "geometry": {"coordinates":[-73.491857,41.147766],"type":"Point"}
}