{
  "id": 554935051,
  "type": "Feature",
  "properties": {
    "edtf:cessation":"uuuu",
    "edtf:inception":"uuuu",
    "geom:area":0.0,
    "geom:bbox":"-77.314707,41.985661,-77.314707,41.985661",
    "geom:latitude":41.985661,
    "geom:longitude":-77.314707,
    "iso:country":"US",
    "sg:address":"100 Forestview Dr",
    "sg:city":"Elkland",
    "sg:classifiers":[
        {
            "category":"Food & Beverages",
            "subcategory":"Groceries & Convenience Stores",
            "type":"Retail Goods"
        }
    ],
    "sg:owner":"simplegeo",
    "sg:phone":"+1   ",
    "sg:postcode":"16920",
    "sg:province":"NY",
    "src:geom":"simplegeo",
    "wof:belongsto":[],
    "wof:breaches":[],
    "wof:concordances":{
        "sg:id":"SG_01m9kRH4eWzaKqaPAzNDzk_41.985661_-77.314707@1294177022"
    },
    "wof:country":"US",
    "wof:geomhash":"182457f719f02310a0db57335264bd19",
    "wof:hierarchy":[],
    "wof:id":554935051,
    "wof:lastmodified":1461017017,
    "wof:name":"Prestons Sure Fine Food Mart",
    "wof:parent_id":420539789,
    "wof:placetype":"venue",
    "wof:superseded_by":[],
    "wof:supersedes":[],
    "wof:tags":[]
},
  "bbox": [
    -77.314707,
    41.985661,
    -77.314707,
    41.985661
],
  "geometry": {"coordinates":[-77.314707,41.985661],"type":"Point"}
}