{
  "id": 572170883,
  "type": "Feature",
  "properties": {
    "edtf:cessation":"uuuu",
    "edtf:inception":"uuuu",
    "geom:area":0.0,
    "geom:bbox":"-74.139988,40.651195,-74.139988,40.651195",
    "geom:latitude":40.651195,
    "geom:longitude":-74.139988,
    "iso:country":"US",
    "sg:address":"4406 3rd Ave",
    "sg:city":"Brooklyn",
    "sg:classifiers":[
        {
            "category":"Shopping",
            "subcategory":"Pharmacy",
            "type":"Retail Goods"
        }
    ],
    "sg:owner":"simplegeo",
    "sg:phone":"+1 718 439 5230",
    "sg:postcode":"11220",
    "sg:province":"NY",
    "sg:tags":[
        "drugstore"
    ],
    "src:geom":"simplegeo",
    "wof:belongsto":[
        85805819,
        102191575,
        404478127,
        85633793,
        85975307,
        102080719,
        85688607
    ],
    "wof:breaches":[],
    "wof:concordances":{
        "sg:id":"SG_3apPnOSemFkSgprv83mH71_40.651195_-74.139988@1303262344"
    },
    "wof:country":"US",
    "wof:geomhash":"fb61d265c422a878ede334eb16a41220",
    "wof:hierarchy":[
        {
            "continent_id":102191575,
            "country_id":85633793,
            "county_id":102080719,
            "localadmin_id":404478127,
            "locality_id":85975307,
            "neighbourhood_id":85805819,
            "region_id":85688607,
            "venue_id":572170883
        }
    ],
    "wof:id":572170883,
    "wof:lastmodified":1461051435,
    "wof:name":"Lender Medical Supply",
    "wof:parent_id":85805819,
    "wof:placetype":"venue",
    "wof:superseded_by":[],
    "wof:supersedes":[],
    "wof:tags":[
        "drugstore"
    ]
},
  "bbox": [
    -74.139988,
    40.651195,
    -74.139988,
    40.651195
],
  "geometry": {"coordinates":[-74.139988,40.651195],"type":"Point"}
}