{
  "id": 554936041,
  "type": "Feature",
  "properties": {
    "edtf:cessation":"uuuu",
    "edtf:inception":"uuuu",
    "geom:area":0.0,
    "geom:bbox":"-73.493313,41.146679,-73.493313,41.146679",
    "geom:latitude":41.146679,
    "geom:longitude":-73.493313,
    "iso:country":"US",
    "sg:address":"9 South Ave",
    "sg:city":"New Canaan",
    "sg:classifiers":[
        {
            "category":"Shopping",
            "subcategory":"Shoes",
            "type":"Retail Goods"
        }
    ],
    "sg:owner":"simplegeo",
    "sg:phone":"+1 203 972 8484",
    "sg:postcode":"06840",
    "sg:province":"NY",
    "src:geom":"simplegeo",
    "wof:belongsto":[
        85688629,
        85633793,
        85851779,
        102084283
    ],
    "wof:breaches":[],
    "wof:concordances":{
        "sg:id":"SG_0S2uiqUzFhIrorvcNTmQgQ_41.146679_-73.493313@1294177022"
    },
    "wof:country":"US",
    "wof:geomhash":"94a6c50264c7a95c37c41a6e2e20c837",
    "wof:hierarchy":[
        {
            "country_id":85633793,
            "county_id":102084283,
            "neighbourhood_id":85851779,
            "region_id":85688629,
            "venue_id":554936041
        }
    ],
    "wof:id":554936041,
    "wof:lastmodified":1461017154,
    "wof:name":"Shoes N More",
    "wof:parent_id":85851779,
    "wof:placetype":"venue",
    "wof:superseded_by":[],
    "wof:supersedes":[],
    "wof:tags":[]
},
  "bbox": [
    -73.493313,
    41.146679,
    -73.493313,
    41.146679
],
  "geometry": {"coordinates":[-73.493313,41.146679],"type":"Point"}
}