{
  "id": 554940349,
  "type": "Feature",
  "properties": {
    "edtf:cessation":"uuuu",
    "edtf:inception":"uuuu",
    "geom:area":0.0,
    "geom:bbox":"-73.618092,41.101474,-73.618092,41.101474",
    "geom:latitude":41.101474,
    "geom:longitude":-73.618092,
    "iso:country":"US",
    "sg:address":"26 Skyridge Rd",
    "sg:city":"Greenwich",
    "sg:classifiers":[
        {
            "category":"Professional",
            "subcategory":"",
            "type":"Services"
        }
    ],
    "sg:owner":"simplegeo",
    "sg:phone":"+1 203 869 8090",
    "sg:postcode":"06831",
    "sg:province":"NY",
    "sg:tags":[
        "establishment"
    ],
    "src:geom":"simplegeo",
    "wof:belongsto":[
        85688629,
        85633793,
        85844811,
        102084283
    ],
    "wof:breaches":[],
    "wof:concordances":{
        "sg:id":"SG_16qvopQ0Y3ZHFUcgakCijQ_41.101474_-73.618092@1294177022"
    },
    "wof:country":"US",
    "wof:geomhash":"0f3117fc816090fdd7a76b5de90d005c",
    "wof:hierarchy":[
        {
            "country_id":85633793,
            "county_id":102084283,
            "neighbourhood_id":85844811,
            "region_id":85688629,
            "venue_id":554940349
        }
    ],
    "wof:id":554940349,
    "wof:lastmodified":1461017644,
    "wof:name":"Nomura",
    "wof:parent_id":85844811,
    "wof:placetype":"venue",
    "wof:superseded_by":[],
    "wof:supersedes":[],
    "wof:tags":[
        "establishment"
    ]
},
  "bbox": [
    -73.618092,
    41.101474,
    -73.618092,
    41.101474
],
  "geometry": {"coordinates":[-73.618092,41.101474],"type":"Point"}
}