{
  "id": 572176787,
  "type": "Feature",
  "properties": {
    "edtf:cessation":"uuuu",
    "edtf:inception":"uuuu",
    "geom:area":0.0,
    "geom:bbox":"-75.935485,42.277303,-75.935485,42.277303",
    "geom:latitude":42.277303,
    "geom:longitude":-75.935485,
    "iso:country":"US",
    "sg:address":"169 Riverside Dr",
    "sg:city":"Binghamton",
    "sg:classifiers":[
        {
            "category":"Banks & Credit Unions",
            "subcategory":"Bank",
            "type":"Services"
        }
    ],
    "sg:owner":"simplegeo",
    "sg:phone":"+1 607 770 3847",
    "sg:postcode":"13905",
    "sg:province":"NY",
    "src:geom":"simplegeo",
    "wof:belongsto":[],
    "wof:breaches":[],
    "wof:concordances":{
        "sg:id":"SG_0opQidMn4uLnrxgcWybblJ_42.277303_-75.935485@1303262394"
    },
    "wof:country":"US",
    "wof:geomhash":"9fba315991c004dd369a7c689abe105f",
    "wof:hierarchy":[],
    "wof:id":572176787,
    "wof:lastmodified":1461051628,
    "wof:name":"Visions Fcu",
    "wof:parent_id":420528061,
    "wof:placetype":"venue",
    "wof:superseded_by":[],
    "wof:supersedes":[],
    "wof:tags":[]
},
  "bbox": [
    -75.935485,
    42.277303,
    -75.935485,
    42.277303
],
  "geometry": {"coordinates":[-75.935485,42.277303],"type":"Point"}
}