{
  "id": 571475105,
  "type": "Feature",
  "properties": {
    "edtf:cessation":"uuuu",
    "edtf:inception":"uuuu",
    "geom:area":0.0,
    "geom:bbox":"-77.80054,43.192453,-77.80054,43.192453",
    "geom:latitude":43.192453,
    "geom:longitude":-77.80054,
    "iso:country":"US",
    "sg:address":"138 S Union St",
    "sg:city":"Spencerport",
    "sg:classifiers":[
        {
            "category":"Wholesale",
            "subcategory":"Drugs",
            "type":"Manufacturing & Wholesale Goods"
        }
    ],
    "sg:owner":"simplegeo",
    "sg:phone":"+1 716 352 1420",
    "sg:postcode":"14559",
    "sg:province":"NY",
    "src:geom":"simplegeo",
    "wof:belongsto":[],
    "wof:breaches":[],
    "wof:concordances":{
        "sg:id":"SG_6vHMyDjICd9WwSXoUxDPrR_43.192453_-77.800540@1294177022"
    },
    "wof:country":"US",
    "wof:geomhash":"5b98128c7269ecafed3d61e7e11d5daa",
    "wof:hierarchy":[],
    "wof:id":571475105,
    "wof:lastmodified":1461036595,
    "wof:name":"Spencerport Paint & Paper Co",
    "wof:parent_id":-1,
    "wof:placetype":"venue",
    "wof:superseded_by":[],
    "wof:supersedes":[],
    "wof:tags":[]
},
  "bbox": [
    -77.80054,
    43.192453,
    -77.80054,
    43.192453
],
  "geometry": {"coordinates":[-77.80054,43.192453],"type":"Point"}
}