{
  "id": 572175753,
  "type": "Feature",
  "properties": {
    "edtf:cessation":"uuuu",
    "edtf:inception":"uuuu",
    "geom:area":0.0,
    "geom:bbox":"-71.944404,41.653845,-71.944404,41.653845",
    "geom:latitude":41.653845,
    "geom:longitude":-71.944404,
    "iso:country":"US",
    "sg:address":"58 S Erie Ave",
    "sg:city":"Montauk",
    "sg:classifiers":[
        {
            "category":"Food & Beverages",
            "subcategory":"Meat & Fish",
            "type":"Retail Goods"
        }
    ],
    "sg:owner":"simplegeo",
    "sg:phone":"+1 631 668 2100",
    "sg:postcode":"11954",
    "sg:province":"NY",
    "sg:tags":[
        "seafood",
        "market"
    ],
    "src:geom":"simplegeo",
    "wof:belongsto":[],
    "wof:breaches":[],
    "wof:concordances":{
        "sg:id":"SG_4Xvyo22hieP68pJXlQjl7j_41.653845_-71.944404@1303262383"
    },
    "wof:country":"US",
    "wof:geomhash":"5ffe3a61b1e2563e7464a1df0016d91a",
    "wof:hierarchy":[],
    "wof:id":572175753,
    "wof:lastmodified":1461051591,
    "wof:name":"Coleman Seafood",
    "wof:parent_id":-1,
    "wof:placetype":"venue",
    "wof:superseded_by":[],
    "wof:supersedes":[],
    "wof:tags":[
        "seafood",
        "market"
    ]
},
  "bbox": [
    -71.944404,
    41.653845,
    -71.944404,
    41.653845
],
  "geometry": {"coordinates":[-71.94440400000001,41.653845],"type":"Point"}
}