{
  "id": 554939375,
  "type": "Feature",
  "properties": {
    "edtf:cessation":"uuuu",
    "edtf:inception":"uuuu",
    "geom:area":0.0,
    "geom:bbox":"-73.458815,44.049195,-73.458815,44.049195",
    "geom:latitude":44.049195,
    "geom:longitude":-73.458815,
    "iso:country":"US",
    "sg:address":"23 Main St",
    "sg:city":"Port Henry",
    "sg:classifiers":[
        {
            "category":"Banks & Credit Unions",
            "subcategory":"Bank",
            "type":"Services"
        }
    ],
    "sg:owner":"simplegeo",
    "sg:phone":"+1 518 546 3312",
    "sg:postcode":"12974",
    "sg:province":"NY",
    "sg:tags":[
        "national",
        "commercial"
    ],
    "src:geom":"simplegeo",
    "wof:belongsto":[
        85688763,
        85633793,
        85857981,
        102080765
    ],
    "wof:breaches":[],
    "wof:concordances":{
        "sg:id":"SG_7QIpeWFzR9Oy0HilBG6jN4_44.049195_-73.458815@1294177022"
    },
    "wof:country":"US",
    "wof:geomhash":"420a185a86bd91257191dae59aef7d32",
    "wof:hierarchy":[
        {
            "country_id":85633793,
            "county_id":102080765,
            "neighbourhood_id":85857981,
            "region_id":85688763,
            "venue_id":554939375
        }
    ],
    "wof:id":554939375,
    "wof:lastmodified":1461017557,
    "wof:name":"Glens Falls Nat Bnk & Tr Co",
    "wof:parent_id":85857981,
    "wof:placetype":"venue",
    "wof:superseded_by":[],
    "wof:supersedes":[],
    "wof:tags":[
        "national",
        "commercial"
    ]
},
  "bbox": [
    -73.458815,
    44.049195,
    -73.458815,
    44.049195
],
  "geometry": {"coordinates":[-73.458815,44.049195],"type":"Point"}
}