{
  "id": 554934505,
  "type": "Feature",
  "properties": {
    "edtf:cessation":"uuuu",
    "edtf:inception":"uuuu",
    "geom:area":0.0,
    "geom:bbox":"-73.46874,41.15111,-73.46874,41.15111",
    "geom:latitude":41.15111,
    "geom:longitude":-73.46874,
    "iso:country":"US",
    "sg:address":"82 Hickory Dr",
    "sg:city":"New Canaan",
    "sg:classifiers":[
        {
            "category":"Professional",
            "subcategory":"Business Services",
            "type":"Services"
        }
    ],
    "sg:owner":"simplegeo",
    "sg:phone":"+1   ",
    "sg:postcode":"06840",
    "sg:province":"NY",
    "src:geom":"simplegeo",
    "wof:belongsto":[
        85688629,
        85633793,
        85848785,
        102084283
    ],
    "wof:breaches":[],
    "wof:concordances":{
        "sg:id":"SG_0RXEXRnwrPFfxsy5gLKoG8_41.151110_-73.468740@1294177022"
    },
    "wof:country":"US",
    "wof:geomhash":"aae90ced0da19d184ad49d58d39d8578",
    "wof:hierarchy":[
        {
            "country_id":85633793,
            "county_id":102084283,
            "neighbourhood_id":85848785,
            "region_id":85688629,
            "venue_id":554934505
        }
    ],
    "wof:id":554934505,
    "wof:lastmodified":1461016947,
    "wof:name":"Gibney Assoc LLC",
    "wof:parent_id":85848785,
    "wof:placetype":"venue",
    "wof:superseded_by":[],
    "wof:supersedes":[],
    "wof:tags":[]
},
  "bbox": [
    -73.46874,
    41.15111,
    -73.46874,
    41.15111
],
  "geometry": {"coordinates":[-73.46874,41.15111],"type":"Point"}
}