{
  "id": 555451177,
  "type": "Feature",
  "properties": {
    "edtf:cessation":"uuuu",
    "edtf:inception":"uuuu",
    "geom:area":0.0,
    "geom:bbox":"-73.832026,40.947005,-73.832026,40.947005",
    "geom:latitude":40.947005,
    "geom:longitude":-73.832026,
    "iso:country":"US",
    "sg:address":"7 Avon Rd",
    "sg:city":"Bronxville",
    "sg:classifiers":[
        {
            "category":"Professional",
            "subcategory":"Management & Consulting",
            "type":"Services"
        }
    ],
    "sg:owner":"simplegeo",
    "sg:phone":"+1 917 209 4130",
    "sg:postcode":"10708",
    "sg:province":"NY",
    "src:geom":"simplegeo",
    "wof:belongsto":[
        85810003,
        102191575,
        404523397,
        85633793,
        85978759,
        102082373,
        85688543
    ],
    "wof:breaches":[],
    "wof:concordances":{
        "sg:id":"SG_14kbx4wAh9FHYmcTgTExKN_40.947005_-73.832026@1294177022"
    },
    "wof:country":"US",
    "wof:geomhash":"a6273c20374e0cda4a1c295666dc7059",
    "wof:hierarchy":[
        {
            "continent_id":102191575,
            "country_id":85633793,
            "county_id":102082373,
            "localadmin_id":404523397,
            "locality_id":85978759,
            "neighbourhood_id":85810003,
            "region_id":85688543,
            "venue_id":555451177
        }
    ],
    "wof:id":555451177,
    "wof:lastmodified":1461030147,
    "wof:name":"Bridge Plaza Association LLC",
    "wof:parent_id":85810003,
    "wof:placetype":"venue",
    "wof:superseded_by":[],
    "wof:supersedes":[],
    "wof:tags":[]
},
  "bbox": [
    -73.832026,
    40.947005,
    -73.832026,
    40.947005
],
  "geometry": {"coordinates":[-73.832026,40.947005],"type":"Point"}
}