{
  "id": 554935213,
  "type": "Feature",
  "properties": {
    "edtf:cessation":"uuuu",
    "edtf:inception":"uuuu",
    "geom:area":0.0,
    "geom:bbox":"-73.710206,41.091235,-73.710206,41.091235",
    "geom:latitude":41.091235,
    "geom:longitude":-73.710206,
    "iso:country":"US",
    "sg:address":"55 Locust Rd",
    "sg:city":"Greenwich",
    "sg:classifiers":[
        {
            "category":"Shopping",
            "subcategory":"Bicycles & Sporting Goods",
            "type":"Retail Goods"
        }
    ],
    "sg:owner":"simplegeo",
    "sg:phone":"+1 203 531 7802",
    "sg:postcode":"06831",
    "sg:province":"NY",
    "sg:tags":[
        "equipment",
        "golf",
        "supply"
    ],
    "src:geom":"simplegeo",
    "wof:belongsto":[
        85688629,
        85633793,
        85837667,
        102084283
    ],
    "wof:breaches":[],
    "wof:concordances":{
        "sg:id":"SG_7Tlr3iRNHsFlTisdknbdJE_41.091235_-73.710206@1294177022"
    },
    "wof:country":"US",
    "wof:geomhash":"511308415f63a170559e3f080129f93b",
    "wof:hierarchy":[
        {
            "country_id":85633793,
            "county_id":102084283,
            "neighbourhood_id":85837667,
            "region_id":85688629,
            "venue_id":554935213
        }
    ],
    "wof:id":554935213,
    "wof:lastmodified":1461017039,
    "wof:name":"Paul Miner",
    "wof:parent_id":85837667,
    "wof:placetype":"venue",
    "wof:superseded_by":[],
    "wof:supersedes":[],
    "wof:tags":[
        "equipment",
        "golf",
        "supply"
    ]
},
  "bbox": [
    -73.710206,
    41.091235,
    -73.710206,
    41.091235
],
  "geometry": {"coordinates":[-73.710206,41.091235],"type":"Point"}
}