{
  "id": 554935875,
  "type": "Feature",
  "properties": {
    "edtf:cessation":"uuuu",
    "edtf:inception":"uuuu",
    "geom:area":0.0,
    "geom:bbox":"-73.449392,41.154161,-73.449392,41.154161",
    "geom:latitude":41.154161,
    "geom:longitude":-73.449392,
    "iso:country":"US",
    "sg:address":"160 Mill Rd",
    "sg:city":"New Canaan",
    "sg:classifiers":[
        {
            "category":"Building & Trades",
            "subcategory":"Cleaning & Sanitation",
            "type":"Services"
        }
    ],
    "sg:owner":"simplegeo",
    "sg:phone":"+1   ",
    "sg:postcode":"06840",
    "sg:province":"NY",
    "sg:tags":[
        "maintenance"
    ],
    "src:geom":"simplegeo",
    "wof:belongsto":[
        85688629,
        85633793,
        85848785,
        102084283
    ],
    "wof:breaches":[],
    "wof:concordances":{
        "sg:id":"SG_7ePeERuQ6I2CPGHrxzIl5p_41.154161_-73.449392@1294177022"
    },
    "wof:country":"US",
    "wof:geomhash":"8c864fb6939336092233205e969f17a6",
    "wof:hierarchy":[
        {
            "country_id":85633793,
            "county_id":102084283,
            "neighbourhood_id":85848785,
            "region_id":85688629,
            "venue_id":554935875
        }
    ],
    "wof:id":554935875,
    "wof:lastmodified":1461017131,
    "wof:name":"Squeaky Clean Windows",
    "wof:parent_id":85848785,
    "wof:placetype":"venue",
    "wof:superseded_by":[],
    "wof:supersedes":[],
    "wof:tags":[
        "maintenance"
    ]
},
  "bbox": [
    -73.449392,
    41.154161,
    -73.449392,
    41.154161
],
  "geometry": {"coordinates":[-73.449392,41.154161],"type":"Point"}
}