{
  "id": 554938259,
  "type": "Feature",
  "properties": {
    "edtf:cessation":"uuuu",
    "edtf:inception":"uuuu",
    "geom:area":0.0,
    "geom:bbox":"-73.657229,41.029699,-73.657229,41.029699",
    "geom:latitude":41.029699,
    "geom:longitude":-73.657229,
    "iso:country":"US",
    "sg:address":"3 Strawbridge Ln",
    "sg:city":"Greenwich",
    "sg:classifiers":[
        {
            "category":"Professional",
            "subcategory":"",
            "type":"Services"
        }
    ],
    "sg:owner":"simplegeo",
    "sg:phone":"+1 203 531 5418",
    "sg:postcode":"06831",
    "sg:province":"NY",
    "sg:tags":[
        "scientist"
    ],
    "src:geom":"simplegeo",
    "wof:belongsto":[
        420555461,
        102191575,
        404495949,
        85633793,
        85930937,
        102084283,
        85688629
    ],
    "wof:breaches":[],
    "wof:concordances":{
        "sg:id":"SG_474YhOxMnNWx2kNaUgljEl_41.029699_-73.657229@1294177022"
    },
    "wof:country":"US",
    "wof:geomhash":"48beb09b20067ec52febc2f317a2e722",
    "wof:hierarchy":[
        {
            "continent_id":102191575,
            "country_id":85633793,
            "county_id":102084283,
            "localadmin_id":404495949,
            "locality_id":85930937,
            "neighbourhood_id":420555461,
            "region_id":85688629,
            "venue_id":554938259
        }
    ],
    "wof:id":554938259,
    "wof:lastmodified":1461017460,
    "wof:name":"Sophisticomp Inc",
    "wof:parent_id":420555461,
    "wof:placetype":"venue",
    "wof:superseded_by":[],
    "wof:supersedes":[],
    "wof:tags":[
        "scientist"
    ]
},
  "bbox": [
    -73.657229,
    41.029699,
    -73.657229,
    41.029699
],
  "geometry": {"coordinates":[-73.657229,41.029699],"type":"Point"}
}