{
  "id": 554937371,
  "type": "Feature",
  "properties": {
    "edtf:cessation":"uuuu",
    "edtf:inception":"uuuu",
    "geom:area":0.0,
    "geom:bbox":"-79.732328,42.121423,-79.732328,42.121423",
    "geom:latitude":42.121423,
    "geom:longitude":-79.732328,
    "iso:country":"US",
    "sg:address":"2782 North Rd",
    "sg:city":"Findley Lake",
    "sg:classifiers":[
        {
            "category":"Shopping",
            "subcategory":"Gifts & Souvenirs",
            "type":"Retail Goods"
        }
    ],
    "sg:owner":"simplegeo",
    "sg:phone":"+1 716 769 7189",
    "sg:postcode":"14736",
    "sg:province":"NY",
    "sg:tags":[
        "shop"
    ],
    "src:geom":"simplegeo",
    "wof:belongsto":[
        85688481,
        85633793,
        85850957,
        102080955
    ],
    "wof:breaches":[],
    "wof:concordances":{
        "sg:id":"SG_4LDmgNf3xVet32BHseCVhr_42.121423_-79.732328@1294177022"
    },
    "wof:country":"US",
    "wof:geomhash":"0b94f00faed0287977134df63a22f2bf",
    "wof:hierarchy":[
        {
            "country_id":85633793,
            "county_id":102080955,
            "neighbourhood_id":85850957,
            "region_id":85688481,
            "venue_id":554937371
        }
    ],
    "wof:id":554937371,
    "wof:lastmodified":1461017358,
    "wof:name":"Ladybugz Landing Coffee & Gift",
    "wof:parent_id":85850957,
    "wof:placetype":"venue",
    "wof:superseded_by":[],
    "wof:supersedes":[],
    "wof:tags":[
        "shop"
    ]
},
  "bbox": [
    -79.732328,
    42.121423,
    -79.732328,
    42.121423
],
  "geometry": {"coordinates":[-79.732328,42.121423],"type":"Point"}
}