{
  "id": 554936415,
  "type": "Feature",
  "properties": {
    "edtf:cessation":"uuuu",
    "edtf:inception":"uuuu",
    "geom:area":0.0,
    "geom:bbox":"-73.494111,41.146877,-73.494111,41.146877",
    "geom:latitude":41.146877,
    "geom:longitude":-73.494111,
    "iso:country":"US",
    "sg:address":"125 Elm St",
    "sg:city":"New Canaan",
    "sg:classifiers":[
        {
            "category":"Banks & Credit Unions",
            "subcategory":"Investment Brokerage",
            "type":"Services"
        }
    ],
    "sg:owner":"simplegeo",
    "sg:phone":"+1 203 972 8605",
    "sg:postcode":"06840",
    "sg:province":"NY",
    "sg:tags":[
        "consultant",
        "planning",
        "financial"
    ],
    "src:geom":"simplegeo",
    "wof:belongsto":[
        85688629,
        85633793,
        85851779,
        102084283
    ],
    "wof:breaches":[],
    "wof:concordances":{
        "sg:id":"SG_4rAKmZui8YunwqeWtJU2Fq_41.146877_-73.494111@1294177022"
    },
    "wof:country":"US",
    "wof:geomhash":"3df7892ebfeafdc12722dab403c67852",
    "wof:hierarchy":[
        {
            "country_id":85633793,
            "county_id":102084283,
            "neighbourhood_id":85851779,
            "region_id":85688629,
            "venue_id":554936415
        }
    ],
    "wof:id":554936415,
    "wof:lastmodified":1461017218,
    "wof:name":"Westbrook Financial Advisers",
    "wof:parent_id":85851779,
    "wof:placetype":"venue",
    "wof:superseded_by":[],
    "wof:supersedes":[],
    "wof:tags":[
        "consultant",
        "planning",
        "financial"
    ]
},
  "bbox": [
    -73.494111,
    41.146877,
    -73.494111,
    41.146877
],
  "geometry": {"coordinates":[-73.494111,41.146877],"type":"Point"}
}