{
  "id": 554935381,
  "type": "Feature",
  "properties": {
    "edtf:cessation":"uuuu",
    "edtf:inception":"uuuu",
    "geom:area":0.0,
    "geom:bbox":"-74.051493,41.089636,-74.051493,41.089636",
    "geom:latitude":41.089636,
    "geom:longitude":-74.051493,
    "iso:country":"US",
    "sg:address":"675 Chestnut Ridge Rd",
    "sg:city":"Spring Valley",
    "sg:classifiers":[
        {
            "category":"Education",
            "subcategory":"School",
            "type":"Public Place"
        }
    ],
    "sg:owner":"simplegeo",
    "sg:phone":"+1 845 573 5000",
    "sg:postcode":"10977",
    "sg:province":"NY",
    "sg:tags":[
        "secondary"
    ],
    "src:geom":"simplegeo",
    "wof:belongsto":[
        85853261,
        102191575,
        404523097,
        85633793,
        85978555,
        102082385,
        85688543
    ],
    "wof:breaches":[],
    "wof:concordances":{
        "sg:id":"SG_15HMBOFnTEVfR0fs9tktYu_41.089636_-74.051493@1294177022"
    },
    "wof:country":"US",
    "wof:geomhash":"4e86676ff477b739ca29c445b08ca5f6",
    "wof:hierarchy":[
        {
            "continent_id":102191575,
            "country_id":85633793,
            "county_id":102082385,
            "localadmin_id":404523097,
            "locality_id":85978555,
            "neighbourhood_id":85853261,
            "region_id":85688543,
            "venue_id":554935381
        }
    ],
    "wof:id":554935381,
    "wof:lastmodified":1461017063,
    "wof:name":"Edwin Gould Academy",
    "wof:parent_id":85853261,
    "wof:placetype":"venue",
    "wof:superseded_by":[],
    "wof:supersedes":[],
    "wof:tags":[
        "secondary"
    ]
},
  "bbox": [
    -74.051493,
    41.089636,
    -74.051493,
    41.089636
],
  "geometry": {"coordinates":[-74.05149299999999,41.089636],"type":"Point"}
}