{
  "id": 554937497,
  "type": "Feature",
  "properties": {
    "edtf:cessation":"uuuu",
    "edtf:inception":"uuuu",
    "geom:area":0.0,
    "geom:bbox":"-73.524424,41.186882,-73.524424,41.186882",
    "geom:latitude":41.186882,
    "geom:longitude":-73.524424,
    "iso:country":"US",
    "sg:address":"21 Pinney Rd",
    "sg:city":"New Canaan",
    "sg:classifiers":[
        {
            "category":"Professional",
            "subcategory":"Advertising",
            "type":"Services"
        }
    ],
    "sg:owner":"simplegeo",
    "sg:phone":"+1 203 972 3559",
    "sg:postcode":"06840",
    "sg:province":"NY",
    "sg:tags":[
        "distribution"
    ],
    "src:geom":"simplegeo",
    "wof:belongsto":[],
    "wof:breaches":[],
    "wof:concordances":{
        "sg:id":"SG_09FE0awyNZ1r0cugnhKVNR_41.186882_-73.524424@1294177022"
    },
    "wof:country":"US",
    "wof:geomhash":"4ad02c3f35a925ac5a3e990f7ad4f143",
    "wof:hierarchy":[],
    "wof:id":554937497,
    "wof:lastmodified":1461017380,
    "wof:name":"Choice Pet Food Distributors",
    "wof:parent_id":-1,
    "wof:placetype":"venue",
    "wof:superseded_by":[],
    "wof:supersedes":[],
    "wof:tags":[
        "distribution"
    ]
},
  "bbox": [
    -73.524424,
    41.186882,
    -73.524424,
    41.186882
],
  "geometry": {"coordinates":[-73.524424,41.186882],"type":"Point"}
}