{
  "id": 554941075,
  "type": "Feature",
  "properties": {
    "edtf:cessation":"uuuu",
    "edtf:inception":"uuuu",
    "geom:area":0.0,
    "geom:bbox":"-74.038613,41.077463,-74.038613,41.077463",
    "geom:latitude":41.077463,
    "geom:longitude":-74.038613,
    "iso:country":"US",
    "sg:address":"16 Lomond Ave",
    "sg:city":"Spring Valley",
    "sg:classifiers":[
        {
            "category":"Real Estate",
            "subcategory":"Real Estate Agent",
            "type":"Services"
        }
    ],
    "sg:owner":"simplegeo",
    "sg:phone":"+1 845 623 2166",
    "sg:postcode":"10977",
    "sg:province":"NY",
    "src:geom":"simplegeo",
    "wof:belongsto":[
        85853261,
        102191575,
        404523097,
        85633793,
        85978555,
        102082385,
        85688543
    ],
    "wof:breaches":[],
    "wof:concordances":{
        "sg:id":"SG_7Tg9GCQSKz4sPn2yM273VI_41.077463_-74.038613@1294177022"
    },
    "wof:country":"US",
    "wof:geomhash":"5664a51e6bfa7738007b303c601bc5ec",
    "wof:hierarchy":[
        {
            "continent_id":102191575,
            "country_id":85633793,
            "county_id":102082385,
            "localadmin_id":404523097,
            "locality_id":85978555,
            "neighbourhood_id":85853261,
            "region_id":85688543,
            "venue_id":554941075
        }
    ],
    "wof:id":554941075,
    "wof:lastmodified":1461017709,
    "wof:name":"Jedi Realty Corp",
    "wof:parent_id":85853261,
    "wof:placetype":"venue",
    "wof:superseded_by":[],
    "wof:supersedes":[],
    "wof:tags":[]
},
  "bbox": [
    -74.038613,
    41.077463,
    -74.038613,
    41.077463
],
  "geometry": {"coordinates":[-74.038613,41.077463],"type":"Point"}
}