{
  "id": 572170453,
  "type": "Feature",
  "properties": {
    "edtf:cessation":"uuuu",
    "edtf:inception":"uuuu",
    "geom:area":0.0,
    "geom:bbox":"-74.257321,40.606043,-74.257321,40.606043",
    "geom:latitude":40.606043,
    "geom:longitude":-74.257321,
    "iso:country":"US",
    "sg:address":"1880 86th St",
    "sg:city":"Brooklyn",
    "sg:classifiers":[
        {
            "category":"Food & Beverages",
            "subcategory":"Groceries & Convenience Stores",
            "type":"Retail Goods"
        }
    ],
    "sg:owner":"simplegeo",
    "sg:phone":"+1 718 837 6300",
    "sg:postcode":"11214",
    "sg:province":"NY",
    "src:geom":"simplegeo",
    "wof:belongsto":[],
    "wof:breaches":[],
    "wof:concordances":{
        "sg:id":"SG_4du7dMnZ2cIc8pMwLZTUdN_40.606043_-74.257321@1303262341"
    },
    "wof:country":"US",
    "wof:geomhash":"e1f190728092748aed9471aa919be29c",
    "wof:hierarchy":[],
    "wof:id":572170453,
    "wof:lastmodified":1461051422,
    "wof:name":"Capitan Supermarkets",
    "wof:parent_id":-1,
    "wof:placetype":"venue",
    "wof:superseded_by":[],
    "wof:supersedes":[],
    "wof:tags":[]
},
  "bbox": [
    -74.257321,
    40.606043,
    -74.257321,
    40.606043
],
  "geometry": {"coordinates":[-74.257321,40.606043],"type":"Point"}
}