{
  "id": 554936757,
  "type": "Feature",
  "properties": {
    "edtf:cessation":"uuuu",
    "edtf:inception":"uuuu",
    "geom:area":0.0,
    "geom:bbox":"-73.986443,40.779776,-73.986443,40.779776",
    "geom:latitude":40.779776,
    "geom:longitude":-73.986443,
    "iso:country":"US",
    "sg:address":"325 W 71 St",
    "sg:city":"New York",
    "sg:classifiers":[
        {
            "category":"Professional",
            "subcategory":"",
            "type":"Services"
        }
    ],
    "sg:owner":"simplegeo",
    "sg:phone":"+1 212 579 8010",
    "sg:postcode":"10023",
    "sg:province":"NY",
    "sg:tags":[
        "establishment"
    ],
    "src:geom":"simplegeo",
    "wof:belongsto":[
        85869077,
        102191575,
        404478149,
        85633793,
        85975287,
        102080719,
        85688607
    ],
    "wof:breaches":[],
    "wof:concordances":{
        "sg:id":"SG_3ZUgO8IWPojiYd61RdUNHb_40.779776_-73.986443@1294177022"
    },
    "wof:country":"US",
    "wof:geomhash":"0581e16c8bf3a30e2ce073dafdcdc678",
    "wof:hierarchy":[
        {
            "continent_id":102191575,
            "country_id":85633793,
            "county_id":102080719,
            "localadmin_id":404478149,
            "locality_id":85975287,
            "neighbourhood_id":85869077,
            "region_id":85688607,
            "venue_id":554936757
        }
    ],
    "wof:id":554936757,
    "wof:lastmodified":1461017272,
    "wof:name":"Bluespring Com Inc",
    "wof:parent_id":85869077,
    "wof:placetype":"venue",
    "wof:superseded_by":[],
    "wof:supersedes":[],
    "wof:tags":[
        "establishment"
    ]
},
  "bbox": [
    -73.986443,
    40.779776,
    -73.986443,
    40.779776
],
  "geometry": {"coordinates":[-73.98644299999999,40.779776],"type":"Point"}
}