{
  "id": 572175839,
  "type": "Feature",
  "properties": {
    "edtf:cessation":"uuuu",
    "edtf:inception":"uuuu",
    "geom:area":0.0,
    "geom:bbox":"-72.427263,41.379242,-72.427263,41.379242",
    "geom:latitude":41.379242,
    "geom:longitude":-72.427263,
    "iso:country":"US",
    "sg:address":"46520 County Road 48",
    "sg:city":"Southold",
    "sg:classifiers":[
        {
            "category":"Health Services",
            "subcategory":"Hospital",
            "type":"Services"
        },
        {
            "category":"Health Services",
            "subcategory":"Health Practitioner",
            "type":"Services"
        }
    ],
    "sg:owner":"simplegeo",
    "sg:phone":"+1 631 765 9389",
    "sg:postcode":"11971",
    "sg:province":"NY",
    "sg:tags":[
        "therapy",
        "physical"
    ],
    "src:geom":"simplegeo",
    "wof:belongsto":[],
    "wof:breaches":[],
    "wof:concordances":{
        "sg:id":"SG_4Dyv4Bq6ucWXzSzy8cV8z9_41.379242_-72.427263@1303262384"
    },
    "wof:country":"US",
    "wof:geomhash":"91cb64c794ec9e7c71e35c30dbf1bb9a",
    "wof:hierarchy":[],
    "wof:id":572175839,
    "wof:lastmodified":1461051593,
    "wof:name":"Eastern Long Island Hospital",
    "wof:parent_id":-1,
    "wof:placetype":"venue",
    "wof:superseded_by":[],
    "wof:supersedes":[],
    "wof:tags":[
        "therapy",
        "physical"
    ]
},
  "bbox": [
    -72.427263,
    41.379242,
    -72.427263,
    41.379242
],
  "geometry": {"coordinates":[-72.427263,41.379242],"type":"Point"}
}