{
  "id": 554937761,
  "type": "Feature",
  "properties": {
    "edtf:cessation":"uuuu",
    "edtf:inception":"uuuu",
    "geom:area":0.0,
    "geom:bbox":"-73.487103,41.144625,-73.487103,41.144625",
    "geom:latitude":41.144625,
    "geom:longitude":-73.487103,
    "iso:country":"US",
    "sg:address":"168 Summer St",
    "sg:city":"New Canaan",
    "sg:classifiers":[
        {
            "category":"Professional",
            "subcategory":"Computer Services",
            "type":"Services"
        }
    ],
    "sg:owner":"simplegeo",
    "sg:phone":"+1   ",
    "sg:postcode":"06840",
    "sg:province":"NY",
    "sg:tags":[
        "prepackaged",
        "software"
    ],
    "src:geom":"simplegeo",
    "wof:belongsto":[
        85688629,
        85633793,
        85851779,
        102084283
    ],
    "wof:breaches":[],
    "wof:concordances":{
        "sg:id":"SG_4EHJEzNV0ux6V6CdQ2rm5V_41.144625_-73.487103@1294177022"
    },
    "wof:country":"US",
    "wof:geomhash":"1b4cc030698215ff001bff496fa0b90b",
    "wof:hierarchy":[
        {
            "country_id":85633793,
            "county_id":102084283,
            "neighbourhood_id":85851779,
            "region_id":85688629,
            "venue_id":554937761
        }
    ],
    "wof:id":554937761,
    "wof:lastmodified":1461017416,
    "wof:name":"Meta Software Corp",
    "wof:parent_id":85851779,
    "wof:placetype":"venue",
    "wof:superseded_by":[],
    "wof:supersedes":[],
    "wof:tags":[
        "prepackaged",
        "software"
    ]
},
  "bbox": [
    -73.487103,
    41.144625,
    -73.487103,
    41.144625
],
  "geometry": {"coordinates":[-73.487103,41.144625],"type":"Point"}
}