{
  "id": 554937329,
  "type": "Feature",
  "properties": {
    "edtf:cessation":"uuuu",
    "edtf:inception":"uuuu",
    "geom:area":0.0,
    "geom:bbox":"-73.496056,41.145408,-73.496056,41.145408",
    "geom:latitude":41.145408,
    "geom:longitude":-73.496056,
    "iso:country":"US",
    "sg:address":"70 Pine St",
    "sg:city":"New Canaan",
    "sg:classifiers":[
        {
            "category":"Real Estate",
            "subcategory":"Architect",
            "type":"Services"
        }
    ],
    "sg:owner":"simplegeo",
    "sg:phone":"+1   ",
    "sg:postcode":"06840",
    "sg:province":"NY",
    "sg:tags":[
        "speculative",
        "builder",
        "architectural"
    ],
    "src:geom":"simplegeo",
    "wof:belongsto":[
        85688629,
        85633793,
        85851779,
        102084283
    ],
    "wof:breaches":[],
    "wof:concordances":{
        "sg:id":"SG_3nqbXAEoKbZWBoQHSBo8p5_41.145408_-73.496056@1294177022"
    },
    "wof:country":"US",
    "wof:geomhash":"0b05ab5775da6209266fd72f70470d49",
    "wof:hierarchy":[
        {
            "country_id":85633793,
            "county_id":102084283,
            "neighbourhood_id":85851779,
            "region_id":85688629,
            "venue_id":554937329
        }
    ],
    "wof:id":554937329,
    "wof:lastmodified":1461017352,
    "wof:name":"Alex Kaali-Nagy Architect",
    "wof:parent_id":85851779,
    "wof:placetype":"venue",
    "wof:superseded_by":[],
    "wof:supersedes":[],
    "wof:tags":[
        "speculative",
        "builder",
        "architectural"
    ]
},
  "bbox": [
    -73.496056,
    41.145408,
    -73.496056,
    41.145408
],
  "geometry": {"coordinates":[-73.496056,41.145408],"type":"Point"}
}