{
  "id": 555304795,
  "type": "Feature",
  "properties": {
    "edtf:cessation":"uuuu",
    "edtf:inception":"uuuu",
    "geom:area":0.0,
    "geom:bbox":"-73.421862,40.735337,-73.421862,40.735337",
    "geom:latitude":40.735337,
    "geom:longitude":-73.421862,
    "iso:country":"US",
    "sg:address":"255 Airport Plaza Blvd",
    "sg:city":"Farmingdale",
    "sg:classifiers":[
        {
            "category":"Food & Beverages",
            "subcategory":"Bakery",
            "type":"Retail Goods"
        }
    ],
    "sg:owner":"simplegeo",
    "sg:phone":"+1 631 420 5391",
    "sg:postcode":"11735",
    "sg:province":"NY",
    "sg:tags":[
        "bagel"
    ],
    "src:geom":"simplegeo",
    "wof:belongsto":[],
    "wof:breaches":[],
    "wof:concordances":{
        "sg:id":"SG_5u5RUEhMwSwF2ZAMNmTAtS_40.735337_-73.421862@1294177022"
    },
    "wof:country":"US",
    "wof:geomhash":"9e26a50c7a9f156a3219cdb4bf6636ec",
    "wof:hierarchy":[],
    "wof:id":555304795,
    "wof:lastmodified":1461026646,
    "wof:name":"Bagel Factory",
    "wof:parent_id":-1,
    "wof:placetype":"venue",
    "wof:superseded_by":[],
    "wof:supersedes":[],
    "wof:tags":[
        "bagel"
    ]
},
  "bbox": [
    -73.421862,
    40.735337,
    -73.421862,
    40.735337
],
  "geometry": {"coordinates":[-73.421862,40.735337],"type":"Point"}
}