{
  "id": 554939743,
  "type": "Feature",
  "properties": {
    "edtf:cessation":"uuuu",
    "edtf:inception":"uuuu",
    "geom:area":0.0,
    "geom:bbox":"-74.081557,41.077562,-74.081557,41.077562",
    "geom:latitude":41.077562,
    "geom:longitude":-74.081557,
    "iso:country":"US",
    "sg:address":"767 Saddle River Rd",
    "sg:city":"Monsey",
    "sg:classifiers":[
        {
            "category":"Building & Trades",
            "subcategory":"Construction",
            "type":"Services"
        }
    ],
    "sg:owner":"simplegeo",
    "sg:phone":"+1 845 356 2310",
    "sg:postcode":"10952",
    "sg:province":"NY",
    "sg:tags":[
        "house"
    ],
    "src:geom":"simplegeo",
    "wof:belongsto":[
        85853261,
        102191575,
        404523097,
        85633793,
        85978555,
        102082385,
        85688543
    ],
    "wof:breaches":[],
    "wof:concordances":{
        "sg:id":"SG_5dYs0pCjlYQk7Zu9HwS5xu_41.077562_-74.081557@1294177022"
    },
    "wof:country":"US",
    "wof:geomhash":"fa9ba8ad37b6f049ecad20b1113ae13a",
    "wof:hierarchy":[
        {
            "continent_id":102191575,
            "country_id":85633793,
            "county_id":102082385,
            "localadmin_id":404523097,
            "locality_id":85978555,
            "neighbourhood_id":85853261,
            "region_id":85688543,
            "venue_id":554939743
        }
    ],
    "wof:id":554939743,
    "wof:lastmodified":1461017590,
    "wof:name":"Richard Pozsar",
    "wof:parent_id":85853261,
    "wof:placetype":"venue",
    "wof:superseded_by":[],
    "wof:supersedes":[],
    "wof:tags":[
        "house"
    ]
},
  "bbox": [
    -74.081557,
    41.077562,
    -74.081557,
    41.077562
],
  "geometry": {"coordinates":[-74.081557,41.077562],"type":"Point"}
}