{
  "id": 554935949,
  "type": "Feature",
  "properties": {
    "edtf:cessation":"uuuu",
    "edtf:inception":"uuuu",
    "geom:area":0.0,
    "geom:bbox":"-73.238241,42.602823,-73.238241,42.602823",
    "geom:latitude":42.602823,
    "geom:longitude":-73.238241,
    "iso:country":"US",
    "sg:address":"27 Ingraham Rd",
    "sg:city":"New Ashford",
    "sg:classifiers":[
        {
            "category":"Retail",
            "subcategory":"Auto Repair",
            "type":"Services"
        }
    ],
    "sg:owner":"simplegeo",
    "sg:phone":"+1 413 458 4683",
    "sg:postcode":"01237",
    "sg:province":"NY",
    "sg:tags":[
        "recreational",
        "vehicle"
    ],
    "src:geom":"simplegeo",
    "wof:belongsto":[],
    "wof:breaches":[],
    "wof:concordances":{
        "sg:id":"SG_0ykRy6O5NDLOb9XdyBtZlv_42.602823_-73.238241@1294177022"
    },
    "wof:country":"US",
    "wof:geomhash":"b7d4368df36266988348d51af68503d0",
    "wof:hierarchy":[],
    "wof:id":554935949,
    "wof:lastmodified":1461017141,
    "wof:name":"Camper's Needs",
    "wof:parent_id":-1,
    "wof:placetype":"venue",
    "wof:superseded_by":[],
    "wof:supersedes":[],
    "wof:tags":[
        "recreational",
        "vehicle"
    ]
},
  "bbox": [
    -73.238241,
    42.602823,
    -73.238241,
    42.602823
],
  "geometry": {"coordinates":[-73.238241,42.602823],"type":"Point"}
}