{
  "id": 554936875,
  "type": "Feature",
  "properties": {
    "edtf:cessation":"uuuu",
    "edtf:inception":"uuuu",
    "geom:area":0.0,
    "geom:bbox":"-73.499545,41.116864,-73.499545,41.116864",
    "geom:latitude":41.116864,
    "geom:longitude":-73.499545,
    "iso:country":"US",
    "sg:address":"685 Old Stamford Rd",
    "sg:city":"New Canaan",
    "sg:classifiers":[
        {
            "category":"Real Estate",
            "subcategory":"Developer",
            "type":"Services"
        }
    ],
    "sg:owner":"simplegeo",
    "sg:phone":"+1 203 966 0444",
    "sg:postcode":"06840",
    "sg:province":"NY",
    "src:geom":"simplegeo",
    "wof:belongsto":[
        85688629,
        85633793,
        85851779,
        102084283
    ],
    "wof:breaches":[],
    "wof:concordances":{
        "sg:id":"SG_6vFTzTXU6UUpYGj2qNs0W3_41.116864_-73.499545@1294177022"
    },
    "wof:country":"US",
    "wof:geomhash":"5cfb806f68153e8f4001cf1b7f479580",
    "wof:hierarchy":[
        {
            "country_id":85633793,
            "county_id":102084283,
            "neighbourhood_id":85851779,
            "region_id":85688629,
            "venue_id":554936875
        }
    ],
    "wof:id":554936875,
    "wof:lastmodified":1461017285,
    "wof:name":"Lilly Pond LLC",
    "wof:parent_id":85851779,
    "wof:placetype":"venue",
    "wof:superseded_by":[],
    "wof:supersedes":[],
    "wof:tags":[]
},
  "bbox": [
    -73.499545,
    41.116864,
    -73.499545,
    41.116864
],
  "geometry": {"coordinates":[-73.499545,41.116864],"type":"Point"}
}