{
  "id": 554937901,
  "type": "Feature",
  "properties": {
    "edtf:cessation":"uuuu",
    "edtf:inception":"uuuu",
    "geom:area":0.0,
    "geom:bbox":"-73.488713,41.134822,-73.488713,41.134822",
    "geom:latitude":41.134822,
    "geom:longitude":-73.488713,
    "iso:country":"US",
    "sg:address":"344 South Ave",
    "sg:city":"New Canaan",
    "sg:classifiers":[
        {
            "category":"Professional",
            "subcategory":"Management & Consulting",
            "type":"Services"
        }
    ],
    "sg:owner":"simplegeo",
    "sg:phone":"+1 203 801 4347",
    "sg:postcode":"06840",
    "sg:province":"NY",
    "sg:tags":[
        "marketing",
        "program"
    ],
    "src:geom":"simplegeo",
    "wof:belongsto":[
        85688629,
        85633793,
        85851779,
        102084283
    ],
    "wof:breaches":[],
    "wof:concordances":{
        "sg:id":"SG_24C2HuAUdoLWR1UFr6uiiZ_41.134822_-73.488713@1294177022"
    },
    "wof:country":"US",
    "wof:geomhash":"cefc38d6f756f274ff8db454b8418086",
    "wof:hierarchy":[
        {
            "country_id":85633793,
            "county_id":102084283,
            "neighbourhood_id":85851779,
            "region_id":85688629,
            "venue_id":554937901
        }
    ],
    "wof:id":554937901,
    "wof:lastmodified":1461017427,
    "wof:name":"Douglas Newton & Assoc",
    "wof:parent_id":85851779,
    "wof:placetype":"venue",
    "wof:superseded_by":[],
    "wof:supersedes":[],
    "wof:tags":[
        "marketing",
        "program"
    ]
},
  "bbox": [
    -73.488713,
    41.134822,
    -73.488713,
    41.134822
],
  "geometry": {"coordinates":[-73.488713,41.134822],"type":"Point"}
}