{
  "id": 571490185,
  "type": "Feature",
  "properties": {
    "edtf:cessation":"uuuu",
    "edtf:inception":"uuuu",
    "geom:area":0.0,
    "geom:bbox":"-73.393764,40.668857,-73.393764,40.668857",
    "geom:latitude":40.668857,
    "geom:longitude":-73.393764,
    "iso:country":"US",
    "sg:address":"873 Montauk Hwy",
    "sg:city":"Copiague",
    "sg:classifiers":[
        {
            "category":"Bars & Pubs",
            "subcategory":"",
            "type":"Food & Drink"
        }
    ],
    "sg:owner":"simplegeo",
    "sg:phone":"+1 631 842 9758",
    "sg:postcode":"11726",
    "sg:province":"NY",
    "src:geom":"simplegeo",
    "wof:belongsto":[],
    "wof:breaches":[],
    "wof:concordances":{
        "sg:id":"SG_1TAzyPJ9O7feFCbBnNTcrz_40.668857_-73.393764@1294177022"
    },
    "wof:country":"US",
    "wof:geomhash":"8c3564d4a7a0d91902285d3e5aeebeeb",
    "wof:hierarchy":[],
    "wof:id":571490185,
    "wof:lastmodified":1461036911,
    "wof:name":"Rohans",
    "wof:parent_id":-1,
    "wof:placetype":"venue",
    "wof:superseded_by":[],
    "wof:supersedes":[],
    "wof:tags":[]
},
  "bbox": [
    -73.393764,
    40.668857,
    -73.393764,
    40.668857
],
  "geometry": {"coordinates":[-73.393764,40.668857],"type":"Point"}
}