{
  "id": 554936807,
  "type": "Feature",
  "properties": {
    "edtf:cessation":"uuuu",
    "edtf:inception":"uuuu",
    "geom:area":0.0,
    "geom:bbox":"-73.492086,41.148556,-73.492086,41.148556",
    "geom:latitude":41.148556,
    "geom:longitude":-73.492086,
    "iso:country":"US",
    "sg:address":"12 Forest St",
    "sg:city":"New Canaan",
    "sg:classifiers":[
        {
            "category":"Restaurant",
            "subcategory":"",
            "type":"Food & Drink"
        }
    ],
    "sg:owner":"simplegeo",
    "sg:phone":"+1 203 966 5303",
    "sg:postcode":"06840",
    "sg:province":"NY",
    "sg:tags":[
        "eating"
    ],
    "src:geom":"simplegeo",
    "wof:belongsto":[
        85688629,
        85633793,
        85851779,
        102084283
    ],
    "wof:breaches":[],
    "wof:concordances":{
        "sg:id":"SG_1YVPBMCNnJi0AJ4YKV99q3_41.148556_-73.492086@1294177022"
    },
    "wof:country":"US",
    "wof:geomhash":"053773bf3a2f2491a54820779adac8f0",
    "wof:hierarchy":[
        {
            "country_id":85633793,
            "county_id":102084283,
            "neighbourhood_id":85851779,
            "region_id":85688629,
            "venue_id":554936807
        }
    ],
    "wof:id":554936807,
    "wof:lastmodified":1461017277,
    "wof:name":"Bistro Bonne Nuit",
    "wof:parent_id":85851779,
    "wof:placetype":"venue",
    "wof:superseded_by":[],
    "wof:supersedes":[],
    "wof:tags":[
        "eating"
    ]
},
  "bbox": [
    -73.492086,
    41.148556,
    -73.492086,
    41.148556
],
  "geometry": {"coordinates":[-73.492086,41.148556],"type":"Point"}
}