{
  "id": 554935229,
  "type": "Feature",
  "properties": {
    "edtf:cessation":"uuuu",
    "edtf:inception":"uuuu",
    "geom:area":0.0,
    "geom:bbox":"-73.488022,41.149893,-73.488022,41.149893",
    "geom:latitude":41.149893,
    "geom:longitude":-73.488022,
    "iso:country":"US",
    "sg:address":"4 Cross St",
    "sg:city":"New Canaan",
    "sg:classifiers":[
        {
            "category":"Building & Trades",
            "subcategory":"Construction",
            "type":"Services"
        }
    ],
    "sg:owner":"simplegeo",
    "sg:phone":"+1 203 966 8000",
    "sg:postcode":"06840",
    "sg:province":"NY",
    "sg:tags":[
        "resurfacing",
        "laying",
        "refinishing",
        "floor"
    ],
    "src:geom":"simplegeo",
    "wof:belongsto":[
        85688629,
        85633793,
        85851779,
        102084283
    ],
    "wof:breaches":[],
    "wof:concordances":{
        "sg:id":"SG_1r5k7lPYuFvSBQgMjIdjQQ_41.149893_-73.488022@1294177022"
    },
    "wof:country":"US",
    "wof:geomhash":"78a649d2bb22f3253aabbabedabc4a45",
    "wof:hierarchy":[
        {
            "country_id":85633793,
            "county_id":102084283,
            "neighbourhood_id":85851779,
            "region_id":85688629,
            "venue_id":554935229
        }
    ],
    "wof:id":554935229,
    "wof:lastmodified":1461017042,
    "wof:name":"Hoffman Wood Floors",
    "wof:parent_id":85851779,
    "wof:placetype":"venue",
    "wof:superseded_by":[],
    "wof:supersedes":[],
    "wof:tags":[
        "resurfacing",
        "laying",
        "refinishing",
        "floor"
    ]
},
  "bbox": [
    -73.488022,
    41.149893,
    -73.488022,
    41.149893
],
  "geometry": {"coordinates":[-73.488022,41.149893],"type":"Point"}
}