{
  "id": 555347581,
  "type": "Feature",
  "properties": {
    "edtf:cessation":"uuuu",
    "edtf:inception":"uuuu",
    "geom:area":0.0,
    "geom:bbox":"-77.256516,42.587861,-77.256516,42.587861",
    "geom:latitude":42.587861,
    "geom:longitude":-77.256516,
    "iso:country":"US",
    "sg:address":"2186 Prattsburg Friend Rd",
    "sg:city":"Branchport",
    "sg:classifiers":[
        {
            "category":"Autos & Motor Vehicles",
            "subcategory":"Automobile Sales",
            "type":"Retail Goods"
        }
    ],
    "sg:owner":"simplegeo",
    "sg:phone":"+1 607 522 4187",
    "sg:postcode":"14418",
    "sg:province":"NY",
    "sg:tags":[
        "car",
        "dealer"
    ],
    "src:geom":"simplegeo",
    "wof:belongsto":[],
    "wof:breaches":[],
    "wof:concordances":{
        "sg:id":"SG_1GceNmFVP06x5SihBBUXIq_42.587861_-77.256516@1294177022"
    },
    "wof:country":"US",
    "wof:geomhash":"cdd4729523906201f974cbda18c0fd7c",
    "wof:hierarchy":[],
    "wof:id":555347581,
    "wof:lastmodified":1461027733,
    "wof:name":"Best Used Cars",
    "wof:parent_id":-1,
    "wof:placetype":"venue",
    "wof:superseded_by":[],
    "wof:supersedes":[],
    "wof:tags":[
        "car",
        "dealer"
    ]
},
  "bbox": [
    -77.256516,
    42.587861,
    -77.256516,
    42.587861
],
  "geometry": {"coordinates":[-77.256516,42.587861],"type":"Point"}
}