{
  "id": 572175383,
  "type": "Feature",
  "properties": {
    "edtf:cessation":"uuuu",
    "edtf:inception":"uuuu",
    "geom:area":0.0,
    "geom:bbox":"-73.977072,40.865665,-73.977072,40.865665",
    "geom:latitude":40.865665,
    "geom:longitude":-73.977072,
    "iso:country":"US",
    "sg:address":"762 Middle Country Rd",
    "sg:city":"Selden",
    "sg:classifiers":[
        {
            "category":"Personal",
            "subcategory":"Barber",
            "type":"Services"
        }
    ],
    "sg:owner":"simplegeo",
    "sg:phone":"+1 631 451 6824",
    "sg:postcode":"11784",
    "sg:province":"NY",
    "src:geom":"simplegeo",
    "wof:belongsto":[
        85830809,
        102191575,
        404477537,
        85633793,
        85975869,
        102086773,
        85688607
    ],
    "wof:breaches":[],
    "wof:concordances":{
        "sg:id":"SG_5BfW7MnQuJDFKt42HgVVVZ_40.865665_-73.977072@1303262380"
    },
    "wof:country":"US",
    "wof:geomhash":"ceec3c00f4e8066ed491dcba3f8fd9b2",
    "wof:hierarchy":[
        {
            "continent_id":102191575,
            "country_id":85633793,
            "county_id":102086773,
            "localadmin_id":404477537,
            "locality_id":85975869,
            "neighbourhood_id":85830809,
            "region_id":85688607,
            "venue_id":572175383
        }
    ],
    "wof:id":572175383,
    "wof:lastmodified":1461051579,
    "wof:name":"Old Fashioned Barber Shop",
    "wof:parent_id":85830809,
    "wof:placetype":"venue",
    "wof:superseded_by":[],
    "wof:supersedes":[],
    "wof:tags":[]
},
  "bbox": [
    -73.977072,
    40.865665,
    -73.977072,
    40.865665
],
  "geometry": {"coordinates":[-73.97707200000001,40.865665],"type":"Point"}
}