{
  "id": 554936393,
  "type": "Feature",
  "properties": {
    "edtf:cessation":"uuuu",
    "edtf:inception":"uuuu",
    "geom:area":0.0,
    "geom:bbox":"-74.096083,41.090839,-74.096083,41.090839",
    "geom:latitude":41.090839,
    "geom:longitude":-74.096083,
    "iso:country":"US",
    "sg:address":"6 Cobblestone Ln",
    "sg:city":"Monsey",
    "sg:classifiers":[
        {
            "category":"Professional",
            "subcategory":"Management & Consulting",
            "type":"Services"
        }
    ],
    "sg:owner":"simplegeo",
    "sg:phone":"+1 845 357 5215",
    "sg:postcode":"10952",
    "sg:province":"NY",
    "src:geom":"simplegeo",
    "wof:belongsto":[
        85832837,
        102191575,
        404523097,
        85633793,
        85978559,
        102082385,
        85688543
    ],
    "wof:breaches":[],
    "wof:concordances":{
        "sg:id":"SG_6yvvO7CP7N4VREvu6OREtI_41.090839_-74.096083@1294177022"
    },
    "wof:country":"US",
    "wof:geomhash":"d208145b1773ef6074b7167afe7b4fe6",
    "wof:hierarchy":[
        {
            "continent_id":102191575,
            "country_id":85633793,
            "county_id":102082385,
            "localadmin_id":404523097,
            "locality_id":85978559,
            "neighbourhood_id":85832837,
            "region_id":85688543,
            "venue_id":554936393
        }
    ],
    "wof:id":554936393,
    "wof:lastmodified":1461017214,
    "wof:name":"Stemar Management Inc",
    "wof:parent_id":85832837,
    "wof:placetype":"venue",
    "wof:superseded_by":[],
    "wof:supersedes":[],
    "wof:tags":[]
},
  "bbox": [
    -74.096083,
    41.090839,
    -74.096083,
    41.090839
],
  "geometry": {"coordinates":[-74.09608299999999,41.090839],"type":"Point"}
}