{
  "id": 555526911,
  "type": "Feature",
  "properties": {
    "edtf:cessation":"uuuu",
    "edtf:inception":"uuuu",
    "geom:area":0.0,
    "geom:bbox":"-73.790087,41.095909,-73.790087,41.095909",
    "geom:latitude":41.095909,
    "geom:longitude":-73.790087,
    "iso:country":"US",
    "sg:address":"117 Fairfax Ave",
    "sg:city":"Hawthorne",
    "sg:classifiers":[
        {
            "category":"Retail",
            "subcategory":"Auto Repair",
            "type":"Services"
        }
    ],
    "sg:owner":"simplegeo",
    "sg:phone":"+1 914 769 1572",
    "sg:postcode":"10532",
    "sg:province":"NY",
    "sg:tags":[
        "wrecker"
    ],
    "src:geom":"simplegeo",
    "wof:belongsto":[],
    "wof:breaches":[],
    "wof:concordances":{
        "sg:id":"SG_3LdzbyjeLNNUA4f6Uu1OHd_41.095909_-73.790087@1294177022"
    },
    "wof:country":"US",
    "wof:geomhash":"9db8af73ba0bc5529af81df6d948b72d",
    "wof:hierarchy":[],
    "wof:id":555526911,
    "wof:lastmodified":1461031999,
    "wof:name":"LA Manna Towing Svc",
    "wof:parent_id":-1,
    "wof:placetype":"venue",
    "wof:superseded_by":[],
    "wof:supersedes":[],
    "wof:tags":[
        "wrecker"
    ]
},
  "bbox": [
    -73.790087,
    41.095909,
    -73.790087,
    41.095909
],
  "geometry": {"coordinates":[-73.790087,41.095909],"type":"Point"}
}