{
  "id": 554935735,
  "type": "Feature",
  "properties": {
    "edtf:cessation":"uuuu",
    "edtf:inception":"uuuu",
    "geom:area":0.0,
    "geom:bbox":"-73.522877,41.186636,-73.522877,41.186636",
    "geom:latitude":41.186636,
    "geom:longitude":-73.522877,
    "iso:country":"US",
    "sg:address":"64 Lukes Wood Rd",
    "sg:city":"New Canaan",
    "sg:classifiers":[
        {
            "category":"Building & Trades",
            "subcategory":"Construction",
            "type":"Services"
        }
    ],
    "sg:owner":"simplegeo",
    "sg:phone":"+1 203 972 2752",
    "sg:postcode":"06840",
    "sg:province":"NY",
    "sg:tags":[
        "contractor"
    ],
    "src:geom":"simplegeo",
    "wof:belongsto":[],
    "wof:breaches":[],
    "wof:concordances":{
        "sg:id":"SG_4nbtO1Fy0rrjc13pdJvgX9_41.186636_-73.522877@1294177022"
    },
    "wof:country":"US",
    "wof:geomhash":"8e92b4a31b106986d62943631cabb20c",
    "wof:hierarchy":[],
    "wof:id":554935735,
    "wof:lastmodified":1461017112,
    "wof:name":"Davenport Contracting Inc",
    "wof:parent_id":-1,
    "wof:placetype":"venue",
    "wof:superseded_by":[],
    "wof:supersedes":[],
    "wof:tags":[
        "contractor"
    ]
},
  "bbox": [
    -73.522877,
    41.186636,
    -73.522877,
    41.186636
],
  "geometry": {"coordinates":[-73.52287699999999,41.186636],"type":"Point"}
}