{
  "id": 554937067,
  "type": "Feature",
  "properties": {
    "edtf:cessation":"uuuu",
    "edtf:inception":"uuuu",
    "geom:area":0.0,
    "geom:bbox":"-73.498813,41.119246,-73.498813,41.119246",
    "geom:latitude":41.119246,
    "geom:longitude":-73.498813,
    "iso:country":"US",
    "sg:address":"569 Old Stamford Rd",
    "sg:city":"New Canaan",
    "sg:classifiers":[
        {
            "category":"Home & Garden",
            "subcategory":"Household Appliances",
            "type":"Retail Goods"
        }
    ],
    "sg:owner":"simplegeo",
    "sg:phone":"+1 203 972 3335",
    "sg:postcode":"06840",
    "sg:province":"NY",
    "src:geom":"simplegeo",
    "wof:belongsto":[
        85688629,
        85633793,
        85851779,
        102084283
    ],
    "wof:breaches":[],
    "wof:concordances":{
        "sg:id":"SG_6w12jIMehIPHuCojr5BAxO_41.119246_-73.498813@1294177022"
    },
    "wof:country":"US",
    "wof:geomhash":"3cd8d014af4ce7fc71dc755834abcc15",
    "wof:hierarchy":[
        {
            "country_id":85633793,
            "county_id":102084283,
            "neighbourhood_id":85851779,
            "region_id":85688629,
            "venue_id":554937067
        }
    ],
    "wof:id":554937067,
    "wof:lastmodified":1461017312,
    "wof:name":"Action Appliance Svc",
    "wof:parent_id":85851779,
    "wof:placetype":"venue",
    "wof:superseded_by":[],
    "wof:supersedes":[],
    "wof:tags":[]
},
  "bbox": [
    -73.498813,
    41.119246,
    -73.498813,
    41.119246
],
  "geometry": {"coordinates":[-73.498813,41.119246],"type":"Point"}
}