{
  "id": 554934349,
  "type": "Feature",
  "properties": {
    "edtf:cessation":"uuuu",
    "edtf:inception":"uuuu",
    "geom:area":0.0,
    "geom:bbox":"-73.500754,41.1253,-73.500754,41.1253",
    "geom:latitude":41.1253,
    "geom:longitude":-73.500754,
    "iso:country":"US",
    "sg:address":"155 Weed St",
    "sg:city":"New Canaan",
    "sg:classifiers":[
        {
            "category":"Manufacturing",
            "subcategory":"Printing",
            "type":"Manufacturing & Wholesale Goods"
        }
    ],
    "sg:owner":"simplegeo",
    "sg:phone":"+1 203 966 3408",
    "sg:postcode":"06840",
    "sg:province":"NY",
    "sg:tags":[
        "publisher"
    ],
    "sg:website":"www.newcanaanpublishing.com",
    "src:geom":"simplegeo",
    "wof:belongsto":[
        85688629,
        85633793,
        85851779,
        102084283
    ],
    "wof:breaches":[],
    "wof:concordances":{
        "sg:id":"SG_4neNRZO2uDlSLNK2pyBLXo_41.125300_-73.500754@1294177022"
    },
    "wof:country":"US",
    "wof:geomhash":"c983660b734a91767ffb10e227ca8f52",
    "wof:hierarchy":[
        {
            "country_id":85633793,
            "county_id":102084283,
            "neighbourhood_id":85851779,
            "region_id":85688629,
            "venue_id":554934349
        }
    ],
    "wof:id":554934349,
    "wof:lastmodified":1461016929,
    "wof:name":"New Canaan Publishing Co",
    "wof:parent_id":85851779,
    "wof:placetype":"venue",
    "wof:superseded_by":[],
    "wof:supersedes":[],
    "wof:tags":[
        "publisher"
    ]
},
  "bbox": [
    -73.500754,
    41.1253,
    -73.500754,
    41.1253
],
  "geometry": {"coordinates":[-73.500754,41.1253],"type":"Point"}
}