{
  "id": 554936717,
  "type": "Feature",
  "properties": {
    "edtf:cessation":"uuuu",
    "edtf:inception":"uuuu",
    "geom:area":0.0,
    "geom:bbox":"-73.479519,41.122473,-73.479519,41.122473",
    "geom:latitude":41.122473,
    "geom:longitude":-73.479519,
    "iso:country":"US",
    "sg:address":"87 Gerdes Rd",
    "sg:city":"New Canaan",
    "sg:classifiers":[
        {
            "category":"Professional",
            "subcategory":"",
            "type":"Services"
        }
    ],
    "sg:owner":"simplegeo",
    "sg:phone":"+1   ",
    "sg:postcode":"06840",
    "sg:province":"NY",
    "src:geom":"simplegeo",
    "wof:belongsto":[
        85688629,
        85633793,
        85851779,
        102084283
    ],
    "wof:breaches":[],
    "wof:concordances":{
        "sg:id":"SG_0Qbqt4LiBDngdnmPIowKM8_41.122473_-73.479519@1294177022"
    },
    "wof:country":"US",
    "wof:geomhash":"1312445a327ee4902af030ad1795e0aa",
    "wof:hierarchy":[
        {
            "country_id":85633793,
            "county_id":102084283,
            "neighbourhood_id":85851779,
            "region_id":85688629,
            "venue_id":554936717
        }
    ],
    "wof:id":554936717,
    "wof:lastmodified":1461017265,
    "wof:name":"Gerdes Services LLC",
    "wof:parent_id":85851779,
    "wof:placetype":"venue",
    "wof:superseded_by":[],
    "wof:supersedes":[],
    "wof:tags":[]
},
  "bbox": [
    -73.479519,
    41.122473,
    -73.479519,
    41.122473
],
  "geometry": {"coordinates":[-73.479519,41.122473],"type":"Point"}
}