{
  "id": 554938583,
  "type": "Feature",
  "properties": {
    "edtf:cessation":"uuuu",
    "edtf:inception":"uuuu",
    "geom:area":0.0,
    "geom:bbox":"-73.491171,41.149499,-73.491171,41.149499",
    "geom:latitude":41.149499,
    "geom:longitude":-73.491171,
    "iso:country":"US",
    "sg:address":"39 Locust Ave",
    "sg:city":"New Canaan",
    "sg:classifiers":[
        {
            "category":"Banks & Credit Unions",
            "subcategory":"Investment Brokerage",
            "type":"Services"
        }
    ],
    "sg:owner":"simplegeo",
    "sg:phone":"+1 203 972 8291",
    "sg:postcode":"06840",
    "sg:province":"NY",
    "sg:tags":[
        "advisory",
        "financial"
    ],
    "sg:website":"www.gatewayasset.com",
    "src:geom":"simplegeo",
    "wof:belongsto":[
        85688629,
        85633793,
        85851779,
        102084283
    ],
    "wof:breaches":[],
    "wof:concordances":{
        "sg:id":"SG_5Ly0xsdBDdcqDlodvWUapw_41.149499_-73.491171@1294177022"
    },
    "wof:country":"US",
    "wof:geomhash":"86234fe154234586e3a6cef4ad6ee17c",
    "wof:hierarchy":[
        {
            "country_id":85633793,
            "county_id":102084283,
            "neighbourhood_id":85851779,
            "region_id":85688629,
            "venue_id":554938583
        }
    ],
    "wof:id":554938583,
    "wof:lastmodified":1461017489,
    "wof:name":"Gateway Asset Management Co",
    "wof:parent_id":85851779,
    "wof:placetype":"venue",
    "wof:superseded_by":[],
    "wof:supersedes":[],
    "wof:tags":[
        "advisory",
        "financial"
    ]
},
  "bbox": [
    -73.491171,
    41.149499,
    -73.491171,
    41.149499
],
  "geometry": {"coordinates":[-73.49117099999999,41.149499],"type":"Point"}
}