{
  "id": 554934401,
  "type": "Feature",
  "properties": {
    "edtf:cessation":"uuuu",
    "edtf:inception":"uuuu",
    "geom:area":0.0,
    "geom:bbox":"-73.492341,41.147611,-73.492341,41.147611",
    "geom:latitude":41.147611,
    "geom:longitude":-73.492341,
    "iso:country":"US",
    "sg:address":"33 East Ave",
    "sg:city":"New Canaan",
    "sg:classifiers":[
        {
            "category":"Shopping",
            "subcategory":"Musical Instruments",
            "type":"Retail Goods"
        }
    ],
    "sg:owner":"simplegeo",
    "sg:phone":"+1   ",
    "sg:postcode":"06840",
    "sg:province":"NY",
    "sg:tags":[
        "lesson"
    ],
    "src:geom":"simplegeo",
    "wof:belongsto":[
        85688629,
        85633793,
        85851779,
        102084283
    ],
    "wof:breaches":[],
    "wof:concordances":{
        "sg:id":"SG_09jjNgzFWbt77K47QI238N_41.147611_-73.492341@1294177022"
    },
    "wof:country":"US",
    "wof:geomhash":"3e3f61ed8c8015de10fa0cbea9ff3f9a",
    "wof:hierarchy":[
        {
            "country_id":85633793,
            "county_id":102084283,
            "neighbourhood_id":85851779,
            "region_id":85688629,
            "venue_id":554934401
        }
    ],
    "wof:id":554934401,
    "wof:lastmodified":1461016934,
    "wof:name":"Merit Teaching Studios",
    "wof:parent_id":85851779,
    "wof:placetype":"venue",
    "wof:superseded_by":[],
    "wof:supersedes":[],
    "wof:tags":[
        "lesson"
    ]
},
  "bbox": [
    -73.492341,
    41.147611,
    -73.492341,
    41.147611
],
  "geometry": {"coordinates":[-73.492341,41.147611],"type":"Point"}
}