{
  "id": 554934683,
  "type": "Feature",
  "properties": {
    "edtf:cessation":"uuuu",
    "edtf:inception":"uuuu",
    "geom:area":0.0,
    "geom:bbox":"-79.738095,42.120253,-79.738095,42.120253",
    "geom:latitude":42.120253,
    "geom:longitude":-79.738095,
    "iso:country":"US",
    "sg:address":"2823 State Hwy 426",
    "sg:city":"Findley Lake",
    "sg:classifiers":[
        {
            "category":"Organizations",
            "subcategory":"Professional Association",
            "type":"Services"
        }
    ],
    "sg:owner":"simplegeo",
    "sg:phone":"+1 716 769 7609",
    "sg:postcode":"14736",
    "sg:province":"NY",
    "sg:tags":[
        "chambers",
        "commerce"
    ],
    "src:geom":"simplegeo",
    "wof:belongsto":[
        85688481,
        85633793,
        85850957,
        102080955
    ],
    "wof:breaches":[],
    "wof:concordances":{
        "sg:id":"SG_6JYD46aCpQOqa01XTwZ3sB_42.120253_-79.738095@1294177022"
    },
    "wof:country":"US",
    "wof:geomhash":"f4304177713b3212a15de1234abbc179",
    "wof:hierarchy":[
        {
            "country_id":85633793,
            "county_id":102080955,
            "neighbourhood_id":85850957,
            "region_id":85688481,
            "venue_id":554934683
        }
    ],
    "wof:id":554934683,
    "wof:lastmodified":1461016971,
    "wof:name":"Findley Lake Area Chamber",
    "wof:parent_id":85850957,
    "wof:placetype":"venue",
    "wof:superseded_by":[],
    "wof:supersedes":[],
    "wof:tags":[
        "chambers",
        "commerce"
    ]
},
  "bbox": [
    -79.738095,
    42.120253,
    -79.738095,
    42.120253
],
  "geometry": {"coordinates":[-79.738095,42.120253],"type":"Point"}
}