{
  "id": 554940173,
  "type": "Feature",
  "properties": {
    "edtf:cessation":"uuuu",
    "edtf:inception":"uuuu",
    "geom:area":0.0,
    "geom:bbox":"-73.610122,41.183898,-73.610122,41.183898",
    "geom:latitude":41.183898,
    "geom:longitude":-73.610122,
    "iso:country":"US",
    "sg:address":"14 Great Hills Farm Rd",
    "sg:city":"Bedford",
    "sg:classifiers":[
        {
            "category":"Communications",
            "subcategory":"Film & Video Production",
            "type":"Services"
        }
    ],
    "sg:owner":"simplegeo",
    "sg:phone":"+1   ",
    "sg:postcode":"10506",
    "sg:province":"NY",
    "sg:tags":[
        "prod"
    ],
    "src:geom":"simplegeo",
    "wof:belongsto":[
        85688629,
        85633793,
        85930787,
        102084283,
        85838073
    ],
    "wof:breaches":[],
    "wof:concordances":{
        "sg:id":"SG_6HtjMiOhdttOfdS1wuYz8j_41.183898_-73.610122@1294177022"
    },
    "wof:country":"US",
    "wof:geomhash":"a06c1236ed1e01086b972ec71d904068",
    "wof:hierarchy":[
        {
            "country_id":85633793,
            "county_id":102084283,
            "locality_id":85930787,
            "neighbourhood_id":85838073,
            "region_id":85688629,
            "venue_id":554940173
        }
    ],
    "wof:id":554940173,
    "wof:lastmodified":1461017632,
    "wof:name":"Cambria Productions Inc",
    "wof:parent_id":85838073,
    "wof:placetype":"venue",
    "wof:superseded_by":[],
    "wof:supersedes":[],
    "wof:tags":[
        "prod"
    ]
},
  "bbox": [
    -73.610122,
    41.183898,
    -73.610122,
    41.183898
],
  "geometry": {"coordinates":[-73.610122,41.183898],"type":"Point"}
}