{
  "id": 554936219,
  "type": "Feature",
  "properties": {
    "edtf:cessation":"uuuu",
    "edtf:inception":"uuuu",
    "geom:area":0.0,
    "geom:bbox":"-73.478363,41.150572,-73.478363,41.150572",
    "geom:latitude":41.150572,
    "geom:longitude":-73.478363,
    "iso:country":"US",
    "sg:address":"113 Little Brook Rd",
    "sg:city":"New Canaan",
    "sg:classifiers":[
        {
            "category":"Communications",
            "subcategory":"Film & Video Production",
            "type":"Services"
        }
    ],
    "sg:owner":"simplegeo",
    "sg:phone":"+1   ",
    "sg:postcode":"06840",
    "sg:province":"NY",
    "sg:tags":[
        "motion"
    ],
    "src:geom":"simplegeo",
    "wof:belongsto":[
        85688629,
        85633793,
        85851779,
        102084283
    ],
    "wof:breaches":[],
    "wof:concordances":{
        "sg:id":"SG_1DqzCRFMrdWKZCZ9PaVZGU_41.150572_-73.478363@1294177022"
    },
    "wof:country":"US",
    "wof:geomhash":"8ad93ec8413f16d1a80653bdef42126a",
    "wof:hierarchy":[
        {
            "country_id":85633793,
            "county_id":102084283,
            "neighbourhood_id":85851779,
            "region_id":85688629,
            "venue_id":554936219
        }
    ],
    "wof:id":554936219,
    "wof:lastmodified":1461017185,
    "wof:name":"Leland R Smith Inc",
    "wof:parent_id":85851779,
    "wof:placetype":"venue",
    "wof:superseded_by":[],
    "wof:supersedes":[],
    "wof:tags":[
        "motion"
    ]
},
  "bbox": [
    -73.478363,
    41.150572,
    -73.478363,
    41.150572
],
  "geometry": {"coordinates":[-73.478363,41.150572],"type":"Point"}
}