{
  "id": 554939669,
  "type": "Feature",
  "properties": {
    "edtf:cessation":"uuuu",
    "edtf:inception":"uuuu",
    "geom:area":0.0,
    "geom:bbox":"-73.474109,41.126841,-73.474109,41.126841",
    "geom:latitude":41.126841,
    "geom:longitude":-73.474109,
    "iso:country":"US",
    "sg:address":"53 Nursery Rd",
    "sg:city":"New Canaan",
    "sg:classifiers":[
        {
            "category":"Professional",
            "subcategory":"Business Services",
            "type":"Services"
        }
    ],
    "sg:owner":"simplegeo",
    "sg:phone":"+1   ",
    "sg:postcode":"06840",
    "sg:province":"NY",
    "src:geom":"simplegeo",
    "wof:belongsto":[
        85688629,
        85633793,
        85851779,
        102084283
    ],
    "wof:breaches":[],
    "wof:concordances":{
        "sg:id":"SG_7d0KcFHCmsKjmqEMDNpK07_41.126841_-73.474109@1294177022"
    },
    "wof:country":"US",
    "wof:geomhash":"bd9c788958f612da99c7fda3800c92a5",
    "wof:hierarchy":[
        {
            "country_id":85633793,
            "county_id":102084283,
            "neighbourhood_id":85851779,
            "region_id":85688629,
            "venue_id":554939669
        }
    ],
    "wof:id":554939669,
    "wof:lastmodified":1461017585,
    "wof:name":"Dogwood Cottage Interiors",
    "wof:parent_id":85851779,
    "wof:placetype":"venue",
    "wof:superseded_by":[],
    "wof:supersedes":[],
    "wof:tags":[]
},
  "bbox": [
    -73.474109,
    41.126841,
    -73.474109,
    41.126841
],
  "geometry": {"coordinates":[-73.474109,41.126841],"type":"Point"}
}