{
  "id": 554939755,
  "type": "Feature",
  "properties": {
    "edtf:cessation":"uuuu",
    "edtf:inception":"uuuu",
    "geom:area":0.0,
    "geom:bbox":"-73.49319,41.14623,-73.49319,41.14623",
    "geom:latitude":41.14623,
    "geom:longitude":-73.49319,
    "iso:country":"US",
    "sg:address":"25 South Ave",
    "sg:city":"New Canaan",
    "sg:classifiers":[
        {
            "category":"Professional",
            "subcategory":"Lawyer & Legal Services",
            "type":"Services"
        }
    ],
    "sg:owner":"simplegeo",
    "sg:phone":"+1 203 966 9583",
    "sg:postcode":"06840",
    "sg:province":"NY",
    "sg:tags":[
        "attorney"
    ],
    "src:geom":"simplegeo",
    "wof:belongsto":[
        85688629,
        85633793,
        85851779,
        102084283
    ],
    "wof:breaches":[],
    "wof:concordances":{
        "sg:id":"SG_6Yb3XWJqhUtizyTOcPkw7f_41.146230_-73.493190@1294177022"
    },
    "wof:country":"US",
    "wof:geomhash":"2ca3ff12b47c5d2ff2aab4fca1bfcb59",
    "wof:hierarchy":[
        {
            "country_id":85633793,
            "county_id":102084283,
            "neighbourhood_id":85851779,
            "region_id":85688629,
            "venue_id":554939755
        }
    ],
    "wof:id":554939755,
    "wof:lastmodified":1461017592,
    "wof:name":"Hawthorne Ackerly & Dorrance",
    "wof:parent_id":85851779,
    "wof:placetype":"venue",
    "wof:superseded_by":[],
    "wof:supersedes":[],
    "wof:tags":[
        "attorney"
    ]
},
  "bbox": [
    -73.49319,
    41.14623,
    -73.49319,
    41.14623
],
  "geometry": {"coordinates":[-73.49319,41.14623],"type":"Point"}
}