{
  "id": 555206263,
  "type": "Feature",
  "properties": {
    "edtf:cessation":"uuuu",
    "edtf:inception":"uuuu",
    "geom:area":0.0,
    "geom:bbox":"-72.976355,40.875013,-72.976355,40.875013",
    "geom:latitude":40.875013,
    "geom:longitude":-72.976355,
    "iso:country":"US",
    "sg:address":"8 Middle Country Rd",
    "sg:city":"Coram",
    "sg:classifiers":[
        {
            "category":"Autos & Motor Vehicles",
            "subcategory":"Automobile Sales",
            "type":"Retail Goods"
        }
    ],
    "sg:owner":"simplegeo",
    "sg:phone":"+1   ",
    "sg:postcode":"11727",
    "sg:province":"NY",
    "sg:tags":[
        "used"
    ],
    "src:geom":"simplegeo",
    "wof:belongsto":[],
    "wof:breaches":[],
    "wof:concordances":{
        "sg:id":"SG_5j1jA3XjVxHnIqnClHFnUK_40.875013_-72.976355@1294177022"
    },
    "wof:country":"US",
    "wof:geomhash":"c9d2162a1ed28c5afede332794a3dc9e",
    "wof:hierarchy":[],
    "wof:id":555206263,
    "wof:lastmodified":1461024374,
    "wof:name":"Green Light Used Auto & Truck",
    "wof:parent_id":-1,
    "wof:placetype":"venue",
    "wof:superseded_by":[],
    "wof:supersedes":[],
    "wof:tags":[
        "used"
    ]
},
  "bbox": [
    -72.976355,
    40.875013,
    -72.976355,
    40.875013
],
  "geometry": {"coordinates":[-72.976355,40.875013],"type":"Point"}
}