{
  "id": 554938343,
  "type": "Feature",
  "properties": {
    "edtf:cessation":"uuuu",
    "edtf:inception":"uuuu",
    "geom:area":0.0,
    "geom:bbox":"-73.482164,41.117366,-73.482164,41.117366",
    "geom:latitude":41.117366,
    "geom:longitude":-73.482164,
    "iso:country":"US",
    "sg:address":"146 White Birch Rd",
    "sg:city":"New Canaan",
    "sg:classifiers":[
        {
            "category":"Professional",
            "subcategory":"Secretarial Services",
            "type":"Services"
        }
    ],
    "sg:owner":"simplegeo",
    "sg:phone":"+1   ",
    "sg:postcode":"06840",
    "sg:province":"NY",
    "sg:tags":[
        "credit",
        "reporting"
    ],
    "src:geom":"simplegeo",
    "wof:belongsto":[
        85688629,
        85633793,
        85851779,
        102084283
    ],
    "wof:breaches":[],
    "wof:concordances":{
        "sg:id":"SG_5SngXOzv9v71LCbUtjz8QK_41.117366_-73.482164@1294177022"
    },
    "wof:country":"US",
    "wof:geomhash":"63778af930b4a896cb5699356fbbee50",
    "wof:hierarchy":[
        {
            "country_id":85633793,
            "county_id":102084283,
            "neighbourhood_id":85851779,
            "region_id":85688629,
            "venue_id":554938343
        }
    ],
    "wof:id":554938343,
    "wof:lastmodified":1461017469,
    "wof:name":"Commercial Reporting Service",
    "wof:parent_id":85851779,
    "wof:placetype":"venue",
    "wof:superseded_by":[],
    "wof:supersedes":[],
    "wof:tags":[
        "credit",
        "reporting"
    ]
},
  "bbox": [
    -73.482164,
    41.117366,
    -73.482164,
    41.117366
],
  "geometry": {"coordinates":[-73.482164,41.117366],"type":"Point"}
}