{
  "id": 554937063,
  "type": "Feature",
  "properties": {
    "edtf:cessation":"uuuu",
    "edtf:inception":"uuuu",
    "geom:area":0.0,
    "geom:bbox":"-73.660655,41.01735,-73.660655,41.01735",
    "geom:latitude":41.01735,
    "geom:longitude":-73.660655,
    "iso:country":"US",
    "sg:address":"128 Hobart Ave",
    "sg:city":"Port Chester",
    "sg:classifiers":[
        {
            "category":"Building & Trades",
            "subcategory":"Construction",
            "type":"Services"
        }
    ],
    "sg:owner":"simplegeo",
    "sg:phone":"+1 914 937 5668",
    "sg:postcode":"10573",
    "sg:province":"NY",
    "sg:tags":[
        "house"
    ],
    "src:geom":"simplegeo",
    "wof:belongsto":[
        85885307,
        102191575,
        404495949,
        85633793,
        85930941,
        102084283,
        85688629,
        420530399,
        404523389,
        85978769,
        102082373,
        85688543,
        420555461,
        85930937
    ],
    "wof:breaches":[],
    "wof:concordances":{
        "sg:id":"SG_238tnCe1mnU7dZjUD0tOUj_41.017350_-73.660655@1294177022"
    },
    "wof:country":"US",
    "wof:geomhash":"6c55bc715381ec73242202fff10ca28a",
    "wof:hierarchy":[
        {
            "continent_id":102191575,
            "country_id":85633793,
            "county_id":102084283,
            "localadmin_id":404495949,
            "locality_id":85930941,
            "neighbourhood_id":85885307,
            "region_id":85688629,
            "venue_id":554937063
        },
        {
            "continent_id":102191575,
            "country_id":85633793,
            "county_id":102082373,
            "localadmin_id":404523389,
            "locality_id":85978769,
            "neighbourhood_id":420530399,
            "region_id":85688543,
            "venue_id":554937063
        },
        {
            "continent_id":102191575,
            "country_id":85633793,
            "county_id":102084283,
            "localadmin_id":404495949,
            "locality_id":85930937,
            "neighbourhood_id":420555461,
            "region_id":85688629,
            "venue_id":554937063
        }
    ],
    "wof:id":554937063,
    "wof:lastmodified":1461017312,
    "wof:name":"Franklin Renovation Inc",
    "wof:parent_id":-1,
    "wof:placetype":"venue",
    "wof:superseded_by":[],
    "wof:supersedes":[],
    "wof:tags":[
        "house"
    ]
},
  "bbox": [
    -73.660655,
    41.01735,
    -73.660655,
    41.01735
],
  "geometry": {"coordinates":[-73.66065500000001,41.01735],"type":"Point"}
}