{
  "id": 554937621,
  "type": "Feature",
  "properties": {
    "edtf:cessation":"uuuu",
    "edtf:inception":"uuuu",
    "geom:area":0.0,
    "geom:bbox":"-79.737746,42.255451,-79.737746,42.255451",
    "geom:latitude":42.255451,
    "geom:longitude":-79.737746,
    "iso:country":"US",
    "sg:address":"9776 W Main Rd",
    "sg:city":"Ripley",
    "sg:classifiers":[
        {
            "category":"Building & Trades",
            "subcategory":"Landscaping Services",
            "type":"Services"
        }
    ],
    "sg:owner":"simplegeo",
    "sg:phone":"+1 716 736 5426",
    "sg:postcode":"14775",
    "sg:province":"NY",
    "sg:tags":[
        "landscape",
        "contractor"
    ],
    "src:geom":"simplegeo",
    "wof:belongsto":[
        85688481,
        85633793,
        85850957,
        102080955
    ],
    "wof:breaches":[],
    "wof:concordances":{
        "sg:id":"SG_5bZclUnGicRT3fCHevFtWt_42.255451_-79.737746@1294177022"
    },
    "wof:country":"US",
    "wof:geomhash":"59012728092345d941a99a852cd7d6b5",
    "wof:hierarchy":[
        {
            "country_id":85633793,
            "county_id":102080955,
            "neighbourhood_id":85850957,
            "region_id":85688481,
            "venue_id":554937621
        }
    ],
    "wof:id":554937621,
    "wof:lastmodified":1461017394,
    "wof:name":"Garden Wizardry Landscaping",
    "wof:parent_id":85850957,
    "wof:placetype":"venue",
    "wof:superseded_by":[],
    "wof:supersedes":[],
    "wof:tags":[
        "landscape",
        "contractor"
    ]
},
  "bbox": [
    -79.737746,
    42.255451,
    -79.737746,
    42.255451
],
  "geometry": {"coordinates":[-79.737746,42.255451],"type":"Point"}
}