{
  "id": 554937449,
  "type": "Feature",
  "properties": {
    "edtf:cessation":"uuuu",
    "edtf:inception":"uuuu",
    "geom:area":0.0,
    "geom:bbox":"-73.491256,41.146355,-73.491256,41.146355",
    "geom:latitude":41.146355,
    "geom:longitude":-73.491256,
    "iso:country":"US",
    "sg:address":"107 Cherry St",
    "sg:city":"New Canaan",
    "sg:classifiers":[
        {
            "category":"Real Estate",
            "subcategory":"Real Estate Agent",
            "type":"Services"
        }
    ],
    "sg:owner":"simplegeo",
    "sg:phone":"+1 203 966 9733",
    "sg:postcode":"06840",
    "sg:province":"NY",
    "src:geom":"simplegeo",
    "wof:belongsto":[
        85688629,
        85633793,
        85851779,
        102084283
    ],
    "wof:breaches":[],
    "wof:concordances":{
        "sg:id":"SG_6HoqnZhre0OV1dAWq9qX6r_41.146355_-73.491256@1294177022"
    },
    "wof:country":"US",
    "wof:geomhash":"7c81e7bcd16e6deade55f8a86470bc10",
    "wof:hierarchy":[
        {
            "country_id":85633793,
            "county_id":102084283,
            "neighbourhood_id":85851779,
            "region_id":85688629,
            "venue_id":554937449
        }
    ],
    "wof:id":554937449,
    "wof:lastmodified":1461017374,
    "wof:name":"Cambridge Hanover",
    "wof:parent_id":85851779,
    "wof:placetype":"venue",
    "wof:superseded_by":[],
    "wof:supersedes":[],
    "wof:tags":[]
},
  "bbox": [
    -73.491256,
    41.146355,
    -73.491256,
    41.146355
],
  "geometry": {"coordinates":[-73.49125600000001,41.146355],"type":"Point"}
}