{
  "id": 554936097,
  "type": "Feature",
  "properties": {
    "edtf:cessation":"uuuu",
    "edtf:inception":"uuuu",
    "geom:area":0.0,
    "geom:bbox":"-73.292138,42.557364,-73.292138,42.557364",
    "geom:latitude":42.557364,
    "geom:longitude":-73.292138,
    "iso:country":"US",
    "sg:address":"1 Corey Rd",
    "sg:city":"Hancock",
    "sg:classifiers":[
        {
            "category":"Travel",
            "subcategory":"Hotels & Motels",
            "type":"Entertainment"
        }
    ],
    "sg:owner":"simplegeo",
    "sg:phone":"+1 413 738 8600",
    "sg:postcode":"01237",
    "sg:province":"NY",
    "sg:tags":[
        "resort"
    ],
    "src:geom":"simplegeo",
    "wof:belongsto":[],
    "wof:breaches":[],
    "wof:concordances":{
        "sg:id":"SG_0U9MTxeIr9bfsHD5CK60NC_42.557364_-73.292138@1294177022"
    },
    "wof:country":"US",
    "wof:geomhash":"bdb544b243a99058afc004f10962c698",
    "wof:hierarchy":[],
    "wof:id":554936097,
    "wof:lastmodified":1461017165,
    "wof:name":"Fairfield Bently Berkshire Brk",
    "wof:parent_id":-1,
    "wof:placetype":"venue",
    "wof:superseded_by":[],
    "wof:supersedes":[],
    "wof:tags":[
        "resort"
    ]
},
  "bbox": [
    -73.292138,
    42.557364,
    -73.292138,
    42.557364
],
  "geometry": {"coordinates":[-73.29213799999999,42.557364],"type":"Point"}
}