{
  "id": 555328723,
  "type": "Feature",
  "properties": {
    "edtf:cessation":"uuuu",
    "edtf:inception":"uuuu",
    "geom:area":0.0,
    "geom:bbox":"-73.449235,40.832207,-73.449235,40.832207",
    "geom:latitude":40.832207,
    "geom:longitude":-73.449235,
    "iso:country":"US",
    "sg:address":"6 Cold Spring Ln",
    "sg:city":"Huntington",
    "sg:classifiers":[
        {
            "category":"Utilities",
            "subcategory":"Telephone",
            "type":"Services"
        }
    ],
    "sg:owner":"simplegeo",
    "sg:phone":"+1 631 661 1112",
    "sg:postcode":"11743",
    "sg:province":"NY",
    "sg:tags":[
        "telecommunication"
    ],
    "src:geom":"simplegeo",
    "wof:belongsto":[],
    "wof:breaches":[],
    "wof:concordances":{
        "sg:id":"SG_76ONqSOjlUCHznH18po1nl_40.832207_-73.449235@1294177022"
    },
    "wof:country":"US",
    "wof:geomhash":"4aef875d38a31120d371760b505030de",
    "wof:hierarchy":[],
    "wof:id":555328723,
    "wof:lastmodified":1461027287,
    "wof:name":"Landlinecommunications Inc",
    "wof:parent_id":-1,
    "wof:placetype":"venue",
    "wof:superseded_by":[],
    "wof:supersedes":[],
    "wof:tags":[
        "telecommunication"
    ]
},
  "bbox": [
    -73.449235,
    40.832207,
    -73.449235,
    40.832207
],
  "geometry": {"coordinates":[-73.449235,40.832207],"type":"Point"}
}