{
  "id": 554937265,
  "type": "Feature",
  "properties": {
    "edtf:cessation":"uuuu",
    "edtf:inception":"uuuu",
    "geom:area":0.0,
    "geom:bbox":"-73.503768,41.144829,-73.503768,41.144829",
    "geom:latitude":41.144829,
    "geom:longitude":-73.503768,
    "iso:country":"US",
    "sg:address":"318 Elm St",
    "sg:city":"New Canaan",
    "sg:classifiers":[
        {
            "category":"Real Estate",
            "subcategory":"Real Estate Agent",
            "type":"Services"
        },
        {
            "category":"Real Estate",
            "subcategory":"Real Estate Operator",
            "type":"Services"
        }
    ],
    "sg:owner":"simplegeo",
    "sg:phone":"+1 203 966 4292",
    "sg:postcode":"06840",
    "sg:province":"NY",
    "sg:tags":[
        "condominium"
    ],
    "src:geom":"simplegeo",
    "wof:belongsto":[
        85688629,
        85633793,
        85851779,
        102084283
    ],
    "wof:breaches":[],
    "wof:concordances":{
        "sg:id":"SG_5EtMqQQiK93Ti7bs1W6Txr_41.144829_-73.503768@1294177022"
    },
    "wof:country":"US",
    "wof:geomhash":"283b07cc8c5dc0cb1b1c0d9d7dbf75af",
    "wof:hierarchy":[
        {
            "country_id":85633793,
            "county_id":102084283,
            "neighbourhood_id":85851779,
            "region_id":85688629,
            "venue_id":554937265
        }
    ],
    "wof:id":554937265,
    "wof:lastmodified":1461017343,
    "wof:name":"New Canaan Townhouse Condomini",
    "wof:parent_id":85851779,
    "wof:placetype":"venue",
    "wof:superseded_by":[],
    "wof:supersedes":[],
    "wof:tags":[
        "condominium"
    ]
},
  "bbox": [
    -73.503768,
    41.144829,
    -73.503768,
    41.144829
],
  "geometry": {"coordinates":[-73.50376799999999,41.144829],"type":"Point"}
}