{
  "id": 554936093,
  "type": "Feature",
  "properties": {
    "edtf:cessation":"uuuu",
    "edtf:inception":"uuuu",
    "geom:area":0.0,
    "geom:bbox":"-73.646506,41.149338,-73.646506,41.149338",
    "geom:latitude":41.149338,
    "geom:longitude":-73.646506,
    "iso:country":"US",
    "sg:address":"46 Bedford-Banksville Rd",
    "sg:city":"Bedford",
    "sg:classifiers":[
        {
            "category":"Restaurant",
            "subcategory":"",
            "type":"Food & Drink"
        }
    ],
    "sg:owner":"simplegeo",
    "sg:phone":"+1 914 234 2736",
    "sg:postcode":"10506",
    "sg:province":"NY",
    "src:geom":"simplegeo",
    "wof:belongsto":[
        85688629,
        85633793,
        85930787,
        102084283,
        85838073
    ],
    "wof:breaches":[],
    "wof:concordances":{
        "sg:id":"SG_3bGrW8IIkc1nZ5oCl4ey5H_41.149338_-73.646506@1294177022"
    },
    "wof:country":"US",
    "wof:geomhash":"0e2bb7dfac4fcc2b839bfdb4cabe9804",
    "wof:hierarchy":[
        {
            "country_id":85633793,
            "county_id":102084283,
            "locality_id":85930787,
            "neighbourhood_id":85838073,
            "region_id":85688629,
            "venue_id":554936093
        }
    ],
    "wof:id":554936093,
    "wof:lastmodified":1461017164,
    "wof:name":"Creme Cremaillere",
    "wof:parent_id":85838073,
    "wof:placetype":"venue",
    "wof:superseded_by":[],
    "wof:supersedes":[],
    "wof:tags":[]
},
  "bbox": [
    -73.646506,
    41.149338,
    -73.646506,
    41.149338
],
  "geometry": {"coordinates":[-73.646506,41.149338],"type":"Point"}
}