{
  "id": 554939259,
  "type": "Feature",
  "properties": {
    "edtf:cessation":"uuuu",
    "edtf:inception":"uuuu",
    "geom:area":0.0,
    "geom:bbox":"-73.483606,41.140502,-73.483606,41.140502",
    "geom:latitude":41.140502,
    "geom:longitude":-73.483606,
    "iso:country":"US",
    "sg:address":"377 Main St",
    "sg:city":"New Canaan",
    "sg:classifiers":[
        {
            "category":"Professional",
            "subcategory":"Business Services",
            "type":"Services"
        }
    ],
    "sg:owner":"simplegeo",
    "sg:phone":"+1   ",
    "sg:postcode":"06840",
    "sg:province":"NY",
    "src:geom":"simplegeo",
    "wof:belongsto":[
        85688629,
        85633793,
        85851779,
        102084283
    ],
    "wof:breaches":[],
    "wof:concordances":{
        "sg:id":"SG_7mcTmSDJEUJcCE3BdpXj23_41.140502_-73.483606@1294177022"
    },
    "wof:country":"US",
    "wof:geomhash":"ad029355073ada80f0eb7352131a704c",
    "wof:hierarchy":[
        {
            "country_id":85633793,
            "county_id":102084283,
            "neighbourhood_id":85851779,
            "region_id":85688629,
            "venue_id":554939259
        }
    ],
    "wof:id":554939259,
    "wof:lastmodified":1461017545,
    "wof:name":"ONeill Interiors",
    "wof:parent_id":85851779,
    "wof:placetype":"venue",
    "wof:superseded_by":[],
    "wof:supersedes":[],
    "wof:tags":[]
},
  "bbox": [
    -73.483606,
    41.140502,
    -73.483606,
    41.140502
],
  "geometry": {"coordinates":[-73.48360599999999,41.140502],"type":"Point"}
}