{
  "id": 554938757,
  "type": "Feature",
  "properties": {
    "edtf:cessation":"uuuu",
    "edtf:inception":"uuuu",
    "geom:area":0.0,
    "geom:bbox":"-73.499562,41.153904,-73.499562,41.153904",
    "geom:latitude":41.153904,
    "geom:longitude":-73.499562,
    "iso:country":"US",
    "sg:address":"139 Oenoke Ridge",
    "sg:city":"New Canaan",
    "sg:classifiers":[
        {
            "category":"Professional",
            "subcategory":"Business Services",
            "type":"Services"
        }
    ],
    "sg:owner":"simplegeo",
    "sg:phone":"+1   ",
    "sg:postcode":"06840",
    "sg:province":"NY",
    "sg:tags":[
        "interior",
        "design"
    ],
    "src:geom":"simplegeo",
    "wof:belongsto":[
        85688629,
        85633793,
        85851779,
        102084283
    ],
    "wof:breaches":[],
    "wof:concordances":{
        "sg:id":"SG_2vVf2GTb44Ik0QbWnr24dR_41.153904_-73.499562@1294177022"
    },
    "wof:country":"US",
    "wof:geomhash":"09d31e3b3a18c67a6db14f0dcec3f0ab",
    "wof:hierarchy":[
        {
            "country_id":85633793,
            "county_id":102084283,
            "neighbourhood_id":85851779,
            "region_id":85688629,
            "venue_id":554938757
        }
    ],
    "wof:id":554938757,
    "wof:lastmodified":1461017500,
    "wof:name":"Josephine Gray Interiors",
    "wof:parent_id":85851779,
    "wof:placetype":"venue",
    "wof:superseded_by":[],
    "wof:supersedes":[],
    "wof:tags":[
        "interior",
        "design"
    ]
},
  "bbox": [
    -73.499562,
    41.153904,
    -73.499562,
    41.153904
],
  "geometry": {"coordinates":[-73.499562,41.153904],"type":"Point"}
}