{
  "id": 554935231,
  "type": "Feature",
  "properties": {
    "edtf:cessation":"uuuu",
    "edtf:inception":"uuuu",
    "geom:area":0.0,
    "geom:bbox":"-73.618196,41.100595,-73.618196,41.100595",
    "geom:latitude":41.100595,
    "geom:longitude":-73.618196,
    "iso:country":"US",
    "sg:address":"17 Skyridge Rd",
    "sg:city":"Greenwich",
    "sg:classifiers":[
        {
            "category":"Professional",
            "subcategory":"Business Services",
            "type":"Services"
        }
    ],
    "sg:owner":"simplegeo",
    "sg:phone":"+1   ",
    "sg:postcode":"06831",
    "sg:province":"NY",
    "src:geom":"simplegeo",
    "wof:belongsto":[
        85688629,
        85633793,
        85844811,
        102084283
    ],
    "wof:breaches":[],
    "wof:concordances":{
        "sg:id":"SG_53pmIe394XslDQBNcq6syo_41.100595_-73.618196@1294177022"
    },
    "wof:country":"US",
    "wof:geomhash":"55956ce8303d39db011e5d0f5df45711",
    "wof:hierarchy":[
        {
            "country_id":85633793,
            "county_id":102084283,
            "neighbourhood_id":85844811,
            "region_id":85688629,
            "venue_id":554935231
        }
    ],
    "wof:id":554935231,
    "wof:lastmodified":1461017043,
    "wof:name":"Flying Colors Interiors",
    "wof:parent_id":85844811,
    "wof:placetype":"venue",
    "wof:superseded_by":[],
    "wof:supersedes":[],
    "wof:tags":[]
},
  "bbox": [
    -73.618196,
    41.100595,
    -73.618196,
    41.100595
],
  "geometry": {"coordinates":[-73.618196,41.100595],"type":"Point"}
}