{
  "id": 554936289,
  "type": "Feature",
  "properties": {
    "edtf:cessation":"uuuu",
    "edtf:inception":"uuuu",
    "geom:area":0.0,
    "geom:bbox":"-73.479115,41.149263,-73.479115,41.149263",
    "geom:latitude":41.149263,
    "geom:longitude":-73.479115,
    "iso:country":"US",
    "sg:address":"54 Little Brook Rd",
    "sg:city":"New Canaan",
    "sg:classifiers":[
        {
            "category":"Education",
            "subcategory":"School",
            "type":"Public Place"
        }
    ],
    "sg:owner":"simplegeo",
    "sg:phone":"+1 203 594 4200",
    "sg:postcode":"06840",
    "sg:province":"NY",
    "src:geom":"simplegeo",
    "wof:belongsto":[
        85688629,
        85633793,
        85851779,
        102084283
    ],
    "wof:breaches":[],
    "wof:concordances":{
        "sg:id":"SG_3tXwfwlwaHfVk8sgHNJKyH_41.149263_-73.479115@1294177022"
    },
    "wof:country":"US",
    "wof:geomhash":"275b0446342fa199e9263cfd42426607",
    "wof:hierarchy":[
        {
            "country_id":85633793,
            "county_id":102084283,
            "neighbourhood_id":85851779,
            "region_id":85688629,
            "venue_id":554936289
        }
    ],
    "wof:id":554936289,
    "wof:lastmodified":1461017194,
    "wof:name":"East School",
    "wof:parent_id":85851779,
    "wof:placetype":"venue",
    "wof:superseded_by":[],
    "wof:supersedes":[],
    "wof:tags":[]
},
  "bbox": [
    -73.479115,
    41.149263,
    -73.479115,
    41.149263
],
  "geometry": {"coordinates":[-73.47911499999999,41.149263],"type":"Point"}
}