{
  "id": 554934363,
  "type": "Feature",
  "properties": {
    "edtf:cessation":"uuuu",
    "edtf:inception":"uuuu",
    "geom:area":0.0,
    "geom:bbox":"-73.659577,41.013076,-73.659577,41.013076",
    "geom:latitude":41.013076,
    "geom:longitude":-73.659577,
    "iso:country":"US",
    "sg:address":"29 Putnam Ave",
    "sg:city":"Port Chester",
    "sg:classifiers":[
        {
            "category":"Restaurant",
            "subcategory":"",
            "type":"Food & Drink"
        }
    ],
    "sg:owner":"simplegeo",
    "sg:phone":"+1 914 937 1171",
    "sg:postcode":"10573",
    "sg:province":"NY",
    "sg:tags":[
        "caterer"
    ],
    "src:geom":"simplegeo",
    "wof:belongsto":[
        85885307,
        102191575,
        404495949,
        85633793,
        85930941,
        102084283,
        85688629
    ],
    "wof:breaches":[],
    "wof:concordances":{
        "sg:id":"SG_0jBl9KfIvAuxzyMAGSpUhx_41.013076_-73.659577@1294177022"
    },
    "wof:country":"US",
    "wof:geomhash":"028cf9771ca8682365f5df09b272cd83",
    "wof:hierarchy":[
        {
            "continent_id":102191575,
            "country_id":85633793,
            "county_id":102084283,
            "localadmin_id":404495949,
            "locality_id":85930941,
            "neighbourhood_id":85885307,
            "region_id":85688629,
            "venue_id":554934363
        }
    ],
    "wof:id":554934363,
    "wof:lastmodified":1461016930,
    "wof:name":"Lyon Park Deli",
    "wof:parent_id":85885307,
    "wof:placetype":"venue",
    "wof:superseded_by":[],
    "wof:supersedes":[],
    "wof:tags":[
        "caterer"
    ]
},
  "bbox": [
    -73.659577,
    41.013076,
    -73.659577,
    41.013076
],
  "geometry": {"coordinates":[-73.659577,41.013076],"type":"Point"}
}