{
  "id": 572171287,
  "type": "Feature",
  "properties": {
    "edtf:cessation":"uuuu",
    "edtf:inception":"uuuu",
    "geom:area":0.0,
    "geom:bbox":"-74.217642,40.607697,-74.217642,40.607697",
    "geom:latitude":40.607697,
    "geom:longitude":-74.217642,
    "iso:country":"US",
    "sg:address":"1525 Bath Ave",
    "sg:city":"Brooklyn",
    "sg:classifiers":[
        {
            "category":"Deli",
            "subcategory":"",
            "type":"Food & Drink"
        },
        {
            "category":"Food & Beverages",
            "subcategory":"Bakery",
            "type":"Retail Goods"
        }
    ],
    "sg:owner":"simplegeo",
    "sg:phone":"+1 718 232 2131",
    "sg:postcode":"11228",
    "sg:province":"NY",
    "sg:tags":[
        "sandwich"
    ],
    "src:geom":"simplegeo",
    "wof:belongsto":[],
    "wof:breaches":[],
    "wof:concordances":{
        "sg:id":"SG_6WUqgAXOzWpztX8oWAZBos_40.607697_-74.217642@1303262347"
    },
    "wof:country":"US",
    "wof:geomhash":"7a271873a91a8eb90d8f4290796b322a",
    "wof:hierarchy":[],
    "wof:id":572171287,
    "wof:lastmodified":1461051451,
    "wof:name":"Bath Avenue Deli Inc",
    "wof:parent_id":-1,
    "wof:placetype":"venue",
    "wof:superseded_by":[],
    "wof:supersedes":[],
    "wof:tags":[
        "sandwich"
    ]
},
  "bbox": [
    -74.217642,
    40.607697,
    -74.217642,
    40.607697
],
  "geometry": {"coordinates":[-74.217642,40.607697],"type":"Point"}
}