{
  "id": 554938361,
  "type": "Feature",
  "properties": {
    "edtf:cessation":"uuuu",
    "edtf:inception":"uuuu",
    "geom:area":0.0,
    "geom:bbox":"-73.453408,41.149406,-73.453408,41.149406",
    "geom:latitude":41.149406,
    "geom:longitude":-73.453408,
    "iso:country":"US",
    "sg:address":"157 Heather Dr",
    "sg:city":"New Canaan",
    "sg:classifiers":[
        {
            "category":"Real Estate",
            "subcategory":"Architect",
            "type":"Services"
        }
    ],
    "sg:owner":"simplegeo",
    "sg:phone":"+1 203 966 2203",
    "sg:postcode":"06840",
    "sg:province":"NY",
    "src:geom":"simplegeo",
    "wof:belongsto":[
        85688629,
        85633793,
        85848785,
        102084283
    ],
    "wof:breaches":[],
    "wof:concordances":{
        "sg:id":"SG_5HsrgjVGFK9fMM8X9tLE1O_41.149406_-73.453408@1294177022"
    },
    "wof:country":"US",
    "wof:geomhash":"01a21627ba0c145d3bf63354881d42ef",
    "wof:hierarchy":[
        {
            "country_id":85633793,
            "county_id":102084283,
            "neighbourhood_id":85848785,
            "region_id":85688629,
            "venue_id":554938361
        }
    ],
    "wof:id":554938361,
    "wof:lastmodified":1461017471,
    "wof:name":"Macintyre Associates",
    "wof:parent_id":85848785,
    "wof:placetype":"venue",
    "wof:superseded_by":[],
    "wof:supersedes":[],
    "wof:tags":[]
},
  "bbox": [
    -73.453408,
    41.149406,
    -73.453408,
    41.149406
],
  "geometry": {"coordinates":[-73.453408,41.149406],"type":"Point"}
}