{
  "id": 554934093,
  "type": "Feature",
  "properties": {
    "edtf:cessation":"uuuu",
    "edtf:inception":"uuuu",
    "geom:area":0.0,
    "geom:bbox":"-74.066629,41.092237,-74.066629,41.092237",
    "geom:latitude":41.092237,
    "geom:longitude":-74.066629,
    "iso:country":"US",
    "sg:address":"6 Carmen Ct",
    "sg:city":"Spring Valley",
    "sg:classifiers":[
        {
            "category":"Professional",
            "subcategory":"",
            "type":"Services"
        }
    ],
    "sg:owner":"simplegeo",
    "sg:phone":"+1 845 371 0833",
    "sg:postcode":"10977",
    "sg:province":"NY",
    "sg:tags":[
        "establishment"
    ],
    "src:geom":"simplegeo",
    "wof:belongsto":[
        85853261,
        102191575,
        404523097,
        85633793,
        85978555,
        102082385,
        85688543
    ],
    "wof:breaches":[],
    "wof:concordances":{
        "sg:id":"SG_6IEddJaxQUZhFRtU9Jh19l_41.092237_-74.066629@1294177022"
    },
    "wof:country":"US",
    "wof:geomhash":"865b6c60f9fb33a20dff04cfd62e4484",
    "wof:hierarchy":[
        {
            "continent_id":102191575,
            "country_id":85633793,
            "county_id":102082385,
            "localadmin_id":404523097,
            "locality_id":85978555,
            "neighbourhood_id":85853261,
            "region_id":85688543,
            "venue_id":554934093
        }
    ],
    "wof:id":554934093,
    "wof:lastmodified":1461016899,
    "wof:name":"Women's American ORT",
    "wof:parent_id":85853261,
    "wof:placetype":"venue",
    "wof:superseded_by":[],
    "wof:supersedes":[],
    "wof:tags":[
        "establishment"
    ]
},
  "bbox": [
    -74.066629,
    41.092237,
    -74.066629,
    41.092237
],
  "geometry": {"coordinates":[-74.06662900000001,41.092237],"type":"Point"}
}