{
  "id": 555046849,
  "type": "Feature",
  "properties": {
    "edtf:cessation":"uuuu",
    "edtf:inception":"uuuu",
    "geom:area":0.0,
    "geom:bbox":"-73.793222,43.147329,-73.793222,43.147329",
    "geom:latitude":43.147329,
    "geom:longitude":-73.793222,
    "iso:country":"US",
    "sg:address":"9 Brookstone Dr",
    "sg:city":"Greenfield Center",
    "sg:classifiers":[
        {
            "category":"Manufacturing",
            "subcategory":"Apparel",
            "type":"Manufacturing & Wholesale Goods"
        }
    ],
    "sg:owner":"simplegeo",
    "sg:phone":"+1   ",
    "sg:postcode":"12833",
    "sg:province":"NY",
    "src:geom":"simplegeo",
    "wof:belongsto":[],
    "wof:breaches":[],
    "wof:concordances":{
        "sg:id":"SG_1D9nEHk0lUXQYhd6CBfaIp_43.147329_-73.793222@1294177022"
    },
    "wof:country":"US",
    "wof:geomhash":"9175fcfa33544942f54ec465ec66030a",
    "wof:hierarchy":[],
    "wof:id":555046849,
    "wof:lastmodified":1461020563,
    "wof:name":"Moroski Support Systems",
    "wof:parent_id":420529835,
    "wof:placetype":"venue",
    "wof:superseded_by":[],
    "wof:supersedes":[],
    "wof:tags":[]
},
  "bbox": [
    -73.793222,
    43.147329,
    -73.793222,
    43.147329
],
  "geometry": {"coordinates":[-73.793222,43.147329],"type":"Point"}
}