{
  "id": 554939353,
  "type": "Feature",
  "properties": {
    "edtf:cessation":"uuuu",
    "edtf:inception":"uuuu",
    "geom:area":0.0,
    "geom:bbox":"-73.657865,41.033107,-73.657865,41.033107",
    "geom:latitude":41.033107,
    "geom:longitude":-73.657865,
    "iso:country":"US",
    "sg:address":"235 Weaver St",
    "sg:city":"Greenwich",
    "sg:classifiers":[
        {
            "category":"Retail",
            "subcategory":"Laundry & Dry Cleaning",
            "type":"Services"
        }
    ],
    "sg:owner":"simplegeo",
    "sg:phone":"+1 203 532 2957",
    "sg:postcode":"06831",
    "sg:province":"NY",
    "sg:tags":[
        "linen",
        "supply"
    ],
    "src:geom":"simplegeo",
    "wof:belongsto":[
        420555529,
        102191575,
        404495949,
        85633793,
        85930941,
        102084283,
        85688629
    ],
    "wof:breaches":[],
    "wof:concordances":{
        "sg:id":"SG_3C23Pm4r6LuumKpE1pDPKM_41.033107_-73.657865@1294177022"
    },
    "wof:country":"US",
    "wof:geomhash":"c201147960f695f596f0266ad12d2465",
    "wof:hierarchy":[
        {
            "continent_id":102191575,
            "country_id":85633793,
            "county_id":102084283,
            "localadmin_id":404495949,
            "locality_id":85930941,
            "neighbourhood_id":420555529,
            "region_id":85688629,
            "venue_id":554939353
        }
    ],
    "wof:id":554939353,
    "wof:lastmodified":1461017555,
    "wof:name":"Greenwich Linens",
    "wof:parent_id":420555529,
    "wof:placetype":"venue",
    "wof:superseded_by":[],
    "wof:supersedes":[],
    "wof:tags":[
        "linen",
        "supply"
    ]
},
  "bbox": [
    -73.657865,
    41.033107,
    -73.657865,
    41.033107
],
  "geometry": {"coordinates":[-73.657865,41.033107],"type":"Point"}
}