{
  "id": 554936833,
  "type": "Feature",
  "properties": {
    "edtf:cessation":"uuuu",
    "edtf:inception":"uuuu",
    "geom:area":0.0,
    "geom:bbox":"-73.986445,40.780533,-73.986445,40.780533",
    "geom:latitude":40.780533,
    "geom:longitude":-73.986445,
    "iso:country":"US",
    "sg:address":"338 W 72 St",
    "sg:city":"New York",
    "sg:classifiers":[
        {
            "category":"Health Services",
            "subcategory":"Doctor",
            "type":"Services"
        }
    ],
    "sg:owner":"simplegeo",
    "sg:phone":"+1 212 874 2772",
    "sg:postcode":"10023",
    "sg:province":"NY",
    "sg:tags":[
        "medical"
    ],
    "src:geom":"simplegeo",
    "wof:belongsto":[
        85869077,
        102191575,
        404478149,
        85633793,
        85975287,
        102080719,
        85688607
    ],
    "wof:breaches":[],
    "wof:concordances":{
        "sg:id":"SG_3C2EElBEWpNtI6EPvdDmRz_40.780533_-73.986445@1294177022"
    },
    "wof:country":"US",
    "wof:geomhash":"be4e17bd084e4d84d230b424814a694b",
    "wof:hierarchy":[
        {
            "continent_id":102191575,
            "country_id":85633793,
            "county_id":102080719,
            "localadmin_id":404478149,
            "locality_id":85975287,
            "neighbourhood_id":85869077,
            "region_id":85688607,
            "venue_id":554936833
        }
    ],
    "wof:id":554936833,
    "wof:lastmodified":1461017280,
    "wof:name":"Susan Tannenbaum Dr",
    "wof:parent_id":85869077,
    "wof:placetype":"venue",
    "wof:superseded_by":[],
    "wof:supersedes":[],
    "wof:tags":[
        "medical"
    ]
},
  "bbox": [
    -73.986445,
    40.780533,
    -73.986445,
    40.780533
],
  "geometry": {"coordinates":[-73.986445,40.780533],"type":"Point"}
}