{
  "id": 554941951,
  "type": "Feature",
  "properties": {
    "edtf:cessation":"uuuu",
    "edtf:inception":"uuuu",
    "geom:area":0.0,
    "geom:bbox":"-73.697019,41.112214,-73.697019,41.112214",
    "geom:latitude":41.112214,
    "geom:longitude":-73.697019,
    "iso:country":"US",
    "sg:address":"19 Steeple Chase Rd",
    "sg:city":"Greenwich",
    "sg:classifiers":[
        {
            "category":"Professional",
            "subcategory":"Management & Consulting",
            "type":"Services"
        }
    ],
    "sg:owner":"simplegeo",
    "sg:phone":"+1 203 622 1211",
    "sg:postcode":"06831",
    "sg:province":"NY",
    "sg:tags":[
        "marketing",
        "consultant"
    ],
    "src:geom":"simplegeo",
    "wof:belongsto":[
        85688629,
        85633793,
        85837667,
        102084283
    ],
    "wof:breaches":[],
    "wof:concordances":{
        "sg:id":"SG_3ojZIONZicWVQ3am0J7XEe_41.112214_-73.697019@1294177022"
    },
    "wof:country":"US",
    "wof:geomhash":"5f5ec73881d52c20263859b7d6f34e5d",
    "wof:hierarchy":[
        {
            "country_id":85633793,
            "county_id":102084283,
            "neighbourhood_id":85837667,
            "region_id":85688629,
            "venue_id":554941951
        }
    ],
    "wof:id":554941951,
    "wof:lastmodified":1461017824,
    "wof:name":"John J Meakem Jr",
    "wof:parent_id":85837667,
    "wof:placetype":"venue",
    "wof:superseded_by":[],
    "wof:supersedes":[],
    "wof:tags":[
        "marketing",
        "consultant"
    ]
},
  "bbox": [
    -73.697019,
    41.112214,
    -73.697019,
    41.112214
],
  "geometry": {"coordinates":[-73.697019,41.112214],"type":"Point"}
}