{
  "id": 554941405,
  "type": "Feature",
  "properties": {
    "edtf:cessation":"uuuu",
    "edtf:inception":"uuuu",
    "geom:area":0.0,
    "geom:bbox":"-73.488879,41.149468,-73.488879,41.149468",
    "geom:latitude":41.149468,
    "geom:longitude":-73.488879,
    "iso:country":"US",
    "sg:address":"26 Cross St",
    "sg:city":"New Canaan",
    "sg:classifiers":[
        {
            "category":"Personal",
            "subcategory":"Beauty Salon",
            "type":"Services"
        }
    ],
    "sg:owner":"simplegeo",
    "sg:phone":"+1 203 966 9900",
    "sg:postcode":"06840",
    "sg:province":"NY",
    "sg:tags":[
        "manicuring"
    ],
    "src:geom":"simplegeo",
    "wof:belongsto":[
        85688629,
        85633793,
        85851779,
        102084283
    ],
    "wof:breaches":[],
    "wof:concordances":{
        "sg:id":"SG_3iz6Nsa1hcduvOkaVHWvw8_41.149468_-73.488879@1294177022"
    },
    "wof:country":"US",
    "wof:geomhash":"9e52ca2dfca36f9f88b02e868214ebc2",
    "wof:hierarchy":[
        {
            "country_id":85633793,
            "county_id":102084283,
            "neighbourhood_id":85851779,
            "region_id":85688629,
            "venue_id":554941405
        }
    ],
    "wof:id":554941405,
    "wof:lastmodified":1461017745,
    "wof:name":"Lily Salon & Spa",
    "wof:parent_id":85851779,
    "wof:placetype":"venue",
    "wof:superseded_by":[],
    "wof:supersedes":[],
    "wof:tags":[
        "manicuring"
    ]
},
  "bbox": [
    -73.488879,
    41.149468,
    -73.488879,
    41.149468
],
  "geometry": {"coordinates":[-73.488879,41.149468],"type":"Point"}
}