{
  "id": 554936727,
  "type": "Feature",
  "properties": {
    "edtf:cessation":"uuuu",
    "edtf:inception":"uuuu",
    "geom:area":0.0,
    "geom:bbox":"-79.733249,42.03436,-79.733249,42.03436",
    "geom:latitude":42.03436,
    "geom:longitude":-79.733249,
    "iso:country":"US",
    "sg:address":"820 Marvin Rd",
    "sg:city":"Clymer",
    "sg:classifiers":[
        {
            "category":"Insurance",
            "subcategory":"Insurance Agent",
            "type":"Services"
        }
    ],
    "sg:owner":"simplegeo",
    "sg:phone":"+1 716 355 4199",
    "sg:postcode":"14724",
    "sg:province":"NY",
    "src:geom":"simplegeo",
    "wof:belongsto":[
        85688481,
        85633793,
        85850957,
        102080955
    ],
    "wof:breaches":[],
    "wof:concordances":{
        "sg:id":"SG_3DVP2gUA1SDj5i1mFj6i7B_42.034360_-79.733249@1294177022"
    },
    "wof:country":"US",
    "wof:geomhash":"61bc0c56a29feb65faa30c8a702e90ca",
    "wof:hierarchy":[
        {
            "country_id":85633793,
            "county_id":102080955,
            "neighbourhood_id":85850957,
            "region_id":85688481,
            "venue_id":554936727
        }
    ],
    "wof:id":554936727,
    "wof:lastmodified":1461017267,
    "wof:name":"Dennis Rater",
    "wof:parent_id":85850957,
    "wof:placetype":"venue",
    "wof:superseded_by":[],
    "wof:supersedes":[],
    "wof:tags":[]
},
  "bbox": [
    -79.733249,
    42.03436,
    -79.733249,
    42.03436
],
  "geometry": {"coordinates":[-79.733249,42.03436],"type":"Point"}
}