{
  "id": 554940425,
  "type": "Feature",
  "properties": {
    "edtf:cessation":"uuuu",
    "edtf:inception":"uuuu",
    "geom:area":0.0,
    "geom:bbox":"-73.493709,41.146923,-73.493709,41.146923",
    "geom:latitude":41.146923,
    "geom:longitude":-73.493709,
    "iso:country":"US",
    "sg:address":"145 Elm St",
    "sg:city":"New Canaan",
    "sg:classifiers":[
        {
            "category":"Shopping",
            "subcategory":"Shoes",
            "type":"Retail Goods"
        }
    ],
    "sg:owner":"simplegeo",
    "sg:phone":"+1 203 972 1800",
    "sg:postcode":"06840",
    "sg:province":"NY",
    "src:geom":"simplegeo",
    "wof:belongsto":[
        85688629,
        85633793,
        85851779,
        102084283
    ],
    "wof:breaches":[],
    "wof:concordances":{
        "sg:id":"SG_2glJvMO05I1yrwUO0ejukV_41.146923_-73.493709@1294177022"
    },
    "wof:country":"US",
    "wof:geomhash":"3e46f3edd7e7f76982ff05f4e8227d35",
    "wof:hierarchy":[
        {
            "country_id":85633793,
            "county_id":102084283,
            "neighbourhood_id":85851779,
            "region_id":85688629,
            "venue_id":554940425
        }
    ],
    "wof:id":554940425,
    "wof:lastmodified":1461017652,
    "wof:name":"Plaza Too",
    "wof:parent_id":85851779,
    "wof:placetype":"venue",
    "wof:superseded_by":[],
    "wof:supersedes":[],
    "wof:tags":[]
},
  "bbox": [
    -73.493709,
    41.146923,
    -73.493709,
    41.146923
],
  "geometry": {"coordinates":[-73.493709,41.146923],"type":"Point"}
}