{
  "id": 554937287,
  "type": "Feature",
  "properties": {
    "edtf:cessation":"uuuu",
    "edtf:inception":"uuuu",
    "geom:area":0.0,
    "geom:bbox":"-73.229289,42.536975,-73.229289,42.536975",
    "geom:latitude":42.536975,
    "geom:longitude":-73.229289,
    "iso:country":"US",
    "sg:address":"599 US Hwy 7",
    "sg:city":"New Ashford",
    "sg:classifiers":[
        {
            "category":"Home & Garden",
            "subcategory":"Furniture",
            "type":"Retail Goods"
        }
    ],
    "sg:owner":"simplegeo",
    "sg:phone":"+1 413 458 5702",
    "sg:postcode":"01237",
    "sg:province":"NY",
    "sg:tags":[
        "top",
        "counter"
    ],
    "src:geom":"simplegeo",
    "wof:belongsto":[
        85688645,
        85633793,
        85829509,
        102084369
    ],
    "wof:breaches":[],
    "wof:concordances":{
        "sg:id":"SG_5beGb1FdsSkGLH16iFln0t_42.536975_-73.229289@1294177022"
    },
    "wof:country":"US",
    "wof:geomhash":"be8519721e60f50d50ca84347072faf5",
    "wof:hierarchy":[
        {
            "country_id":85633793,
            "county_id":102084369,
            "neighbourhood_id":85829509,
            "region_id":85688645,
            "venue_id":554937287
        }
    ],
    "wof:id":554937287,
    "wof:lastmodified":1461017346,
    "wof:name":"Berkshire Solid Surfaces",
    "wof:parent_id":85829509,
    "wof:placetype":"venue",
    "wof:superseded_by":[],
    "wof:supersedes":[],
    "wof:tags":[
        "top",
        "counter"
    ]
},
  "bbox": [
    -73.229289,
    42.536975,
    -73.229289,
    42.536975
],
  "geometry": {"coordinates":[-73.22928899999999,42.536975],"type":"Point"}
}