{
  "id": 554941675,
  "type": "Feature",
  "properties": {
    "edtf:cessation":"uuuu",
    "edtf:inception":"uuuu",
    "geom:area":0.0,
    "geom:bbox":"-73.496318,41.146291,-73.496318,41.146291",
    "geom:latitude":41.146291,
    "geom:longitude":-73.496318,
    "iso:country":"US",
    "sg:address":"244 Elm St",
    "sg:city":"New Canaan",
    "sg:classifiers":[
        {
            "category":"Insurance",
            "subcategory":"Insurance Agent",
            "type":"Services"
        }
    ],
    "sg:owner":"simplegeo",
    "sg:phone":"+1 203 972 0589",
    "sg:postcode":"06840",
    "sg:province":"NY",
    "src:geom":"simplegeo",
    "wof:belongsto":[
        85688629,
        85633793,
        85851779,
        102084283
    ],
    "wof:breaches":[],
    "wof:concordances":{
        "sg:id":"SG_2lOMsX63jNmiUdZaBliVoE_41.146291_-73.496318@1294177022"
    },
    "wof:country":"US",
    "wof:geomhash":"cfa2926a3fff3c90f9f79526e5d9e050",
    "wof:hierarchy":[
        {
            "country_id":85633793,
            "county_id":102084283,
            "neighbourhood_id":85851779,
            "region_id":85688629,
            "venue_id":554941675
        }
    ],
    "wof:id":554941675,
    "wof:lastmodified":1461017787,
    "wof:name":"Assoc Marketing Plans",
    "wof:parent_id":85851779,
    "wof:placetype":"venue",
    "wof:superseded_by":[],
    "wof:supersedes":[],
    "wof:tags":[]
},
  "bbox": [
    -73.496318,
    41.146291,
    -73.496318,
    41.146291
],
  "geometry": {"coordinates":[-73.496318,41.146291],"type":"Point"}
}