{
  "id": 554936493,
  "type": "Feature",
  "properties": {
    "edtf:cessation":"uuuu",
    "edtf:inception":"uuuu",
    "geom:area":0.0,
    "geom:bbox":"-73.600544,41.161297,-73.600544,41.161297",
    "geom:latitude":41.161297,
    "geom:longitude":-73.600544,
    "iso:country":"US",
    "sg:address":"2 White Birch Rd",
    "sg:city":"Pound Ridge",
    "sg:classifiers":[
        {
            "category":"Banks & Credit Unions",
            "subcategory":"Investment Brokerage",
            "type":"Services"
        }
    ],
    "sg:owner":"simplegeo",
    "sg:phone":"+1 914 764 4365",
    "sg:postcode":"10576",
    "sg:province":"NY",
    "sg:tags":[
        "security"
    ],
    "src:geom":"simplegeo",
    "wof:belongsto":[
        85688629,
        85633793,
        85930787,
        102084283,
        85838073
    ],
    "wof:breaches":[],
    "wof:concordances":{
        "sg:id":"SG_6A3inoBBJCmEoSP9GFpJpg_41.161297_-73.600544@1294177022"
    },
    "wof:country":"US",
    "wof:geomhash":"070dd7cf795ca8db2ee336abb5715098",
    "wof:hierarchy":[
        {
            "country_id":85633793,
            "county_id":102084283,
            "locality_id":85930787,
            "neighbourhood_id":85838073,
            "region_id":85688629,
            "venue_id":554936493
        }
    ],
    "wof:id":554936493,
    "wof:lastmodified":1461017232,
    "wof:name":"M Quattro Securities Inc",
    "wof:parent_id":85838073,
    "wof:placetype":"venue",
    "wof:superseded_by":[],
    "wof:supersedes":[],
    "wof:tags":[
        "security"
    ]
},
  "bbox": [
    -73.600544,
    41.161297,
    -73.600544,
    41.161297
],
  "geometry": {"coordinates":[-73.600544,41.161297],"type":"Point"}
}