{
  "id": 554941661,
  "type": "Feature",
  "properties": {
    "edtf:cessation":"uuuu",
    "edtf:inception":"uuuu",
    "geom:area":0.0,
    "geom:bbox":"-73.692727,41.10506,-73.692727,41.10506",
    "geom:latitude":41.10506,
    "geom:longitude":-73.692727,
    "iso:country":"US",
    "sg:address":"615 Riversville Rd",
    "sg:city":"Greenwich",
    "sg:classifiers":[
        {
            "category":"Organizations",
            "subcategory":"Religious Organization",
            "type":"Services"
        }
    ],
    "sg:owner":"simplegeo",
    "sg:phone":"+1   ",
    "sg:postcode":"06831",
    "sg:province":"NY",
    "src:geom":"simplegeo",
    "wof:belongsto":[
        85688629,
        85633793,
        85837667,
        102084283
    ],
    "wof:breaches":[],
    "wof:concordances":{
        "sg:id":"SG_3IchmylpDV55kUMDjOOX2H_41.105060_-73.692727@1294177022"
    },
    "wof:country":"US",
    "wof:geomhash":"6a174d8c8976d2f4e8ce35a87437a5e5",
    "wof:hierarchy":[
        {
            "country_id":85633793,
            "county_id":102084283,
            "neighbourhood_id":85837667,
            "region_id":85688629,
            "venue_id":554941661
        }
    ],
    "wof:id":554941661,
    "wof:lastmodified":1461017785,
    "wof:name":"Baptist Thomas",
    "wof:parent_id":85837667,
    "wof:placetype":"venue",
    "wof:superseded_by":[],
    "wof:supersedes":[],
    "wof:tags":[]
},
  "bbox": [
    -73.692727,
    41.10506,
    -73.692727,
    41.10506
],
  "geometry": {"coordinates":[-73.692727,41.10506],"type":"Point"}
}