{
  "id": 554936793,
  "type": "Feature",
  "properties": {
    "edtf:cessation":"uuuu",
    "edtf:inception":"uuuu",
    "geom:area":0.0,
    "geom:bbox":"-73.535733,44.088068,-73.535733,44.088068",
    "geom:latitude":44.088068,
    "geom:longitude":-73.535733,
    "iso:country":"US",
    "sg:address":"45 Co Hwy 6",
    "sg:city":"Lake Placid",
    "sg:classifiers":[
        {
            "category":"Food & Beverages",
            "subcategory":"Groceries & Convenience Stores",
            "type":"Retail Goods"
        }
    ],
    "sg:owner":"simplegeo",
    "sg:phone":"+1 518 523 9627",
    "sg:postcode":"12998",
    "sg:province":"NY",
    "sg:tags":[
        "grocer"
    ],
    "src:geom":"simplegeo",
    "wof:belongsto":[
        85688763,
        85633793,
        85857981,
        102080765
    ],
    "wof:breaches":[],
    "wof:concordances":{
        "sg:id":"SG_5dzpBa4gLFauXVI0fCGUed_44.088068_-73.535733@1294177022"
    },
    "wof:country":"US",
    "wof:geomhash":"d53033f91e3dac49f6ef7e4f4027f384",
    "wof:hierarchy":[
        {
            "country_id":85633793,
            "county_id":102080765,
            "neighbourhood_id":85857981,
            "region_id":85688763,
            "venue_id":554936793
        }
    ],
    "wof:id":554936793,
    "wof:lastmodified":1461017275,
    "wof:name":"Tops Friendly Market",
    "wof:parent_id":85857981,
    "wof:placetype":"venue",
    "wof:superseded_by":[],
    "wof:supersedes":[],
    "wof:tags":[
        "grocer"
    ]
},
  "bbox": [
    -73.535733,
    44.088068,
    -73.535733,
    44.088068
],
  "geometry": {"coordinates":[-73.53573299999999,44.088068],"type":"Point"}
}