{
  "id": 554940383,
  "type": "Feature",
  "properties": {
    "edtf:cessation":"uuuu",
    "edtf:inception":"uuuu",
    "geom:area":0.0,
    "geom:bbox":"-73.480666,41.151749,-73.480666,41.151749",
    "geom:latitude":41.151749,
    "geom:longitude":-73.480666,
    "iso:country":"US",
    "sg:address":"75 Beacon Hill Rd",
    "sg:city":"New Canaan",
    "sg:classifiers":[
        {
            "category":"Real Estate",
            "subcategory":"Real Estate Agent",
            "type":"Services"
        }
    ],
    "sg:owner":"simplegeo",
    "sg:phone":"+1 203 966 5162",
    "sg:postcode":"06840",
    "sg:province":"NY",
    "src:geom":"simplegeo",
    "wof:belongsto":[
        85688629,
        85633793,
        85851779,
        102084283
    ],
    "wof:breaches":[],
    "wof:concordances":{
        "sg:id":"SG_0CAaLjm6Ao6RbxuZ4OjkGY_41.151749_-73.480666@1294177022"
    },
    "wof:country":"US",
    "wof:geomhash":"22d6cc35fa122f2023bdb3b7372d3a3f",
    "wof:hierarchy":[
        {
            "country_id":85633793,
            "county_id":102084283,
            "neighbourhood_id":85851779,
            "region_id":85688629,
            "venue_id":554940383
        }
    ],
    "wof:id":554940383,
    "wof:lastmodified":1461017650,
    "wof:name":"Rlj Sales & Maintenance",
    "wof:parent_id":85851779,
    "wof:placetype":"venue",
    "wof:superseded_by":[],
    "wof:supersedes":[],
    "wof:tags":[]
},
  "bbox": [
    -73.480666,
    41.151749,
    -73.480666,
    41.151749
],
  "geometry": {"coordinates":[-73.480666,41.151749],"type":"Point"}
}