{
  "id": 554934659,
  "type": "Feature",
  "properties": {
    "edtf:cessation":"uuuu",
    "edtf:inception":"uuuu",
    "geom:area":0.0,
    "geom:bbox":"-73.656789,41.014333,-73.656789,41.014333",
    "geom:latitude":41.014333,
    "geom:longitude":-73.656789,
    "iso:country":"US",
    "sg:address":"11 Riverdale Ave",
    "sg:city":"Port Chester",
    "sg:classifiers":[
        {
            "category":"Professional",
            "subcategory":"",
            "type":"Services"
        }
    ],
    "sg:owner":"simplegeo",
    "sg:phone":"+1 914 937 5000",
    "sg:postcode":"10573",
    "sg:province":"NY",
    "sg:tags":[
        "establishment"
    ],
    "src:geom":"simplegeo",
    "wof:belongsto":[
        85885307,
        102191575,
        404495949,
        85633793,
        85930941,
        102084283,
        85688629,
        420555461,
        85930937
    ],
    "wof:breaches":[],
    "wof:concordances":{
        "sg:id":"SG_5XegPWVa7ybssN8E9Sd71E_41.014333_-73.656789@1294177022"
    },
    "wof:country":"US",
    "wof:geomhash":"421be788eb1d2c4506f9f658cb59d3d6",
    "wof:hierarchy":[
        {
            "continent_id":102191575,
            "country_id":85633793,
            "county_id":102084283,
            "localadmin_id":404495949,
            "locality_id":85930941,
            "neighbourhood_id":85885307,
            "region_id":85688629,
            "venue_id":554934659
        },
        {
            "continent_id":102191575,
            "country_id":85633793,
            "county_id":102084283,
            "localadmin_id":404495949,
            "locality_id":85930937,
            "neighbourhood_id":420555461,
            "region_id":85688629,
            "venue_id":554934659
        }
    ],
    "wof:id":554934659,
    "wof:lastmodified":1461016969,
    "wof:name":"C S Goodfriend & Co",
    "wof:parent_id":-1,
    "wof:placetype":"venue",
    "wof:superseded_by":[],
    "wof:supersedes":[],
    "wof:tags":[
        "establishment"
    ]
},
  "bbox": [
    -73.656789,
    41.014333,
    -73.656789,
    41.014333
],
  "geometry": {"coordinates":[-73.656789,41.014333],"type":"Point"}
}