{
  "id": 554938715,
  "type": "Feature",
  "properties": {
    "edtf:cessation":"uuuu",
    "edtf:inception":"uuuu",
    "geom:area":0.0,
    "geom:bbox":"-73.626495,41.190379,-73.626495,41.190379",
    "geom:latitude":41.190379,
    "geom:longitude":-73.626495,
    "iso:country":"US",
    "sg:address":"7 Thornbrook Ln",
    "sg:city":"Bedford",
    "sg:classifiers":[
        {
            "category":"Professional",
            "subcategory":"",
            "type":"Services"
        },
        {
            "category":"Building & Trades",
            "subcategory":"Construction",
            "type":"Services"
        }
    ],
    "sg:owner":"simplegeo",
    "sg:phone":"+1 914 234 8220",
    "sg:postcode":"10506",
    "sg:province":"NY",
    "sg:tags":[
        "house",
        "establishment"
    ],
    "src:geom":"simplegeo",
    "wof:belongsto":[
        85688629,
        85633793,
        85930787,
        102084283,
        85838073
    ],
    "wof:breaches":[],
    "wof:concordances":{
        "sg:id":"SG_72DQPZfuAojkADaiE2AvKp_41.190379_-73.626495@1294177022"
    },
    "wof:country":"US",
    "wof:geomhash":"c7ba42b22cb4ac3987377f43c1a19c79",
    "wof:hierarchy":[
        {
            "country_id":85633793,
            "county_id":102084283,
            "locality_id":85930787,
            "neighbourhood_id":85838073,
            "region_id":85688629,
            "venue_id":554938715
        }
    ],
    "wof:id":554938715,
    "wof:lastmodified":1461017498,
    "wof:name":"Thornbrook Development LLC",
    "wof:parent_id":85838073,
    "wof:placetype":"venue",
    "wof:superseded_by":[],
    "wof:supersedes":[],
    "wof:tags":[
        "house",
        "establishment"
    ]
},
  "bbox": [
    -73.626495,
    41.190379,
    -73.626495,
    41.190379
],
  "geometry": {"coordinates":[-73.62649500000001,41.190379],"type":"Point"}
}