{
  "id": 554937195,
  "type": "Feature",
  "properties": {
    "edtf:cessation":"uuuu",
    "edtf:inception":"uuuu",
    "geom:area":0.0,
    "geom:bbox":"-79.723257,42.049239,-79.723257,42.049239",
    "geom:latitude":42.049239,
    "geom:longitude":-79.723257,
    "iso:country":"US",
    "sg:address":"1290 State Hwy 426",
    "sg:city":"Clymer",
    "sg:classifiers":[
        {
            "category":"Shopping",
            "subcategory":"Used Merchandise",
            "type":"Retail Goods"
        }
    ],
    "sg:owner":"simplegeo",
    "sg:phone":"+1 716 355 9902",
    "sg:postcode":"14724",
    "sg:province":"NY",
    "sg:tags":[
        "antique"
    ],
    "src:geom":"simplegeo",
    "wof:belongsto":[
        85688481,
        85633793,
        85850957,
        102080955
    ],
    "wof:breaches":[],
    "wof:concordances":{
        "sg:id":"SG_1ssS3Jv9N2OhJ141yDpsKo_42.049239_-79.723257@1294177022"
    },
    "wof:country":"US",
    "wof:geomhash":"69c80a194151a547537e35318d578c8e",
    "wof:hierarchy":[
        {
            "country_id":85633793,
            "county_id":102080955,
            "neighbourhood_id":85850957,
            "region_id":85688481,
            "venue_id":554937195
        }
    ],
    "wof:id":554937195,
    "wof:lastmodified":1461017335,
    "wof:name":"Williams Blue Lantern",
    "wof:parent_id":85850957,
    "wof:placetype":"venue",
    "wof:superseded_by":[],
    "wof:supersedes":[],
    "wof:tags":[
        "antique"
    ]
},
  "bbox": [
    -79.723257,
    42.049239,
    -79.723257,
    42.049239
],
  "geometry": {"coordinates":[-79.723257,42.049239],"type":"Point"}
}