{
  "id": 555198735,
  "type": "Feature",
  "properties": {
    "edtf:cessation":"uuuu",
    "edtf:inception":"uuuu",
    "geom:area":0.0,
    "geom:bbox":"-73.912054,41.231444,-73.912054,41.231444",
    "geom:latitude":41.231444,
    "geom:longitude":-73.912054,
    "iso:country":"US",
    "sg:address":"419 Albany Post Rd",
    "sg:city":"Croton On Hudson",
    "sg:classifiers":[
        {
            "category":"Personal",
            "subcategory":"Beauty Salon",
            "type":"Services"
        }
    ],
    "sg:owner":"simplegeo",
    "sg:phone":"+1 914 271 6100",
    "sg:postcode":"10520",
    "sg:province":"NY",
    "src:geom":"simplegeo",
    "wof:belongsto":[],
    "wof:breaches":[],
    "wof:concordances":{
        "sg:id":"SG_2vPGa08CGzY880CuXbXveo_41.231444_-73.912054@1294177022"
    },
    "wof:country":"US",
    "wof:geomhash":"04e336ffa345205d656dad2e137ae2ee",
    "wof:hierarchy":[],
    "wof:id":555198735,
    "wof:lastmodified":1461024210,
    "wof:name":"Just Imagine U Salon",
    "wof:parent_id":420530377,
    "wof:placetype":"venue",
    "wof:superseded_by":[],
    "wof:supersedes":[],
    "wof:tags":[]
},
  "bbox": [
    -73.912054,
    41.231444,
    -73.912054,
    41.231444
],
  "geometry": {"coordinates":[-73.912054,41.231444],"type":"Point"}
}