{
  "id": 554936907,
  "type": "Feature",
  "properties": {
    "edtf:cessation":"uuuu",
    "edtf:inception":"uuuu",
    "geom:area":0.0,
    "geom:bbox":"-74.074961,41.075804,-74.074961,41.075804",
    "geom:latitude":41.075804,
    "geom:longitude":-74.074961,
    "iso:country":"US",
    "sg:address":"5 Jacqueline Rd",
    "sg:city":"Monsey",
    "sg:classifiers":[
        {
            "category":"Professional",
            "subcategory":"",
            "type":"Services"
        }
    ],
    "sg:owner":"simplegeo",
    "sg:phone":"+1 845 352 4911",
    "sg:postcode":"10952",
    "sg:province":"NY",
    "sg:tags":[
        "writer"
    ],
    "src:geom":"simplegeo",
    "wof:belongsto":[
        85853261,
        102191575,
        404523097,
        85633793,
        85978555,
        102082385,
        85688543
    ],
    "wof:breaches":[],
    "wof:concordances":{
        "sg:id":"SG_4KLsOLe7cA4Nh3m1Jz5EaN_41.075804_-74.074961@1294177022"
    },
    "wof:country":"US",
    "wof:geomhash":"b476f64b4dd3f0106432c09181e64c93",
    "wof:hierarchy":[
        {
            "continent_id":102191575,
            "country_id":85633793,
            "county_id":102082385,
            "localadmin_id":404523097,
            "locality_id":85978555,
            "neighbourhood_id":85853261,
            "region_id":85688543,
            "venue_id":554936907
        }
    ],
    "wof:id":554936907,
    "wof:lastmodified":1461017290,
    "wof:name":"Feldberg Communications",
    "wof:parent_id":85853261,
    "wof:placetype":"venue",
    "wof:superseded_by":[],
    "wof:supersedes":[],
    "wof:tags":[
        "writer"
    ]
},
  "bbox": [
    -74.074961,
    41.075804,
    -74.074961,
    41.075804
],
  "geometry": {"coordinates":[-74.074961,41.075804],"type":"Point"}
}