{
  "id": 554941597,
  "type": "Feature",
  "properties": {
    "edtf:cessation":"uuuu",
    "edtf:inception":"uuuu",
    "geom:area":0.0,
    "geom:bbox":"-73.490528,41.144547,-73.490528,41.144547",
    "geom:latitude":41.144547,
    "geom:longitude":-73.490528,
    "iso:country":"US",
    "sg:address":"185 Main St",
    "sg:city":"New Canaan",
    "sg:classifiers":[
        {
            "category":"Retail",
            "subcategory":"Auto Repair",
            "type":"Services"
        }
    ],
    "sg:owner":"simplegeo",
    "sg:phone":"+1 203 966 2609",
    "sg:postcode":"06840",
    "sg:province":"NY",
    "sg:tags":[
        "repairing",
        "automobile",
        "gasoline",
        "automotive",
        "general"
    ],
    "src:geom":"simplegeo",
    "wof:belongsto":[
        85688629,
        85633793,
        85851779,
        102084283
    ],
    "wof:breaches":[],
    "wof:concordances":{
        "sg:id":"SG_6C61vZKed7aO5Gm4YfU7JU_41.144547_-73.490528@1294177022"
    },
    "wof:country":"US",
    "wof:geomhash":"7a94f6c2172ad17d883dc91831334555",
    "wof:hierarchy":[
        {
            "country_id":85633793,
            "county_id":102084283,
            "neighbourhood_id":85851779,
            "region_id":85688629,
            "venue_id":554941597
        }
    ],
    "wof:id":554941597,
    "wof:lastmodified":1461017775,
    "wof:name":"C & H Automotive & Towing",
    "wof:parent_id":85851779,
    "wof:placetype":"venue",
    "wof:superseded_by":[],
    "wof:supersedes":[],
    "wof:tags":[
        "repairing",
        "automobile",
        "gasoline",
        "automotive",
        "general"
    ]
},
  "bbox": [
    -73.490528,
    41.144547,
    -73.490528,
    41.144547
],
  "geometry": {"coordinates":[-73.490528,41.144547],"type":"Point"}
}