{
  "id": 554936241,
  "type": "Feature",
  "properties": {
    "edtf:cessation":"uuuu",
    "edtf:inception":"uuuu",
    "geom:area":0.0,
    "geom:bbox":"-73.673368,41.047802,-73.673368,41.047802",
    "geom:latitude":41.047802,
    "geom:longitude":-73.673368,
    "iso:country":"US",
    "sg:address":"73 Stonehedge Dr S",
    "sg:city":"Greenwich",
    "sg:classifiers":[
        {
            "category":"Building & Trades",
            "subcategory":"Construction",
            "type":"Services"
        }
    ],
    "sg:owner":"simplegeo",
    "sg:phone":"+1 203 532 2853",
    "sg:postcode":"06831",
    "sg:province":"NY",
    "sg:tags":[
        "painter"
    ],
    "src:geom":"simplegeo",
    "wof:belongsto":[
        420555461,
        102191575,
        404495949,
        85633793,
        85930937,
        102084283,
        85688629
    ],
    "wof:breaches":[],
    "wof:concordances":{
        "sg:id":"SG_4SrVyi6aqXoQfy3EFYTtwK_41.047802_-73.673368@1294177022"
    },
    "wof:country":"US",
    "wof:geomhash":"228a1e9aea18cfc90d58455dc00c5bc4",
    "wof:hierarchy":[
        {
            "continent_id":102191575,
            "country_id":85633793,
            "county_id":102084283,
            "localadmin_id":404495949,
            "locality_id":85930937,
            "neighbourhood_id":420555461,
            "region_id":85688629,
            "venue_id":554936241
        }
    ],
    "wof:id":554936241,
    "wof:lastmodified":1461017188,
    "wof:name":"KAK Interior Inc",
    "wof:parent_id":420555461,
    "wof:placetype":"venue",
    "wof:superseded_by":[],
    "wof:supersedes":[],
    "wof:tags":[
        "painter"
    ]
},
  "bbox": [
    -73.673368,
    41.047802,
    -73.673368,
    41.047802
],
  "geometry": {"coordinates":[-73.673368,41.047802],"type":"Point"}
}