{
  "id": 554936159,
  "type": "Feature",
  "properties": {
    "edtf:cessation":"uuuu",
    "edtf:inception":"uuuu",
    "geom:area":0.0,
    "geom:bbox":"-73.495973,41.165992,-73.495973,41.165992",
    "geom:latitude":41.165992,
    "geom:longitude":-73.495973,
    "iso:country":"US",
    "sg:address":"72 Norholt Dr",
    "sg:city":"New Canaan",
    "sg:classifiers":[
        {
            "category":"Banks & Credit Unions",
            "subcategory":"Investment Brokerage",
            "type":"Services"
        }
    ],
    "sg:owner":"simplegeo",
    "sg:phone":"+1 203 966 3415",
    "sg:postcode":"06840",
    "sg:province":"NY",
    "sg:tags":[
        "advisory"
    ],
    "src:geom":"simplegeo",
    "wof:belongsto":[],
    "wof:breaches":[],
    "wof:concordances":{
        "sg:id":"SG_2uHTKvpC5thuU7pMxPHgiM_41.165992_-73.495973@1294177022"
    },
    "wof:country":"US",
    "wof:geomhash":"f41f807308b17787617ce308d5b4dee3",
    "wof:hierarchy":[],
    "wof:id":554936159,
    "wof:lastmodified":1461017173,
    "wof:name":"Indigo Asset Management Inc",
    "wof:parent_id":-1,
    "wof:placetype":"venue",
    "wof:superseded_by":[],
    "wof:supersedes":[],
    "wof:tags":[
        "advisory"
    ]
},
  "bbox": [
    -73.495973,
    41.165992,
    -73.495973,
    41.165992
],
  "geometry": {"coordinates":[-73.49597300000001,41.165992],"type":"Point"}
}