{
  "id": 571685003,
  "type": "Feature",
  "properties": {
    "edtf:cessation":"uuuu",
    "edtf:inception":"uuuu",
    "geom:area":0.0,
    "geom:bbox":"-74.029774,41.105414,-74.029774,41.105414",
    "geom:latitude":41.105414,
    "geom:longitude":-74.029774,
    "iso:country":"US",
    "sg:address":"160 Spring Valley Market Pl",
    "sg:city":"Spring Valley",
    "sg:classifiers":[
        {
            "category":"Restaurant",
            "subcategory":"",
            "type":"Food & Drink"
        }
    ],
    "sg:menulink":"http://www.allmenus.com/ny/clarkstown/170063-burger-king/menu/",
    "sg:owner":"simplegeo",
    "sg:phone":"+1 845 352 8853",
    "sg:postcode":"10977",
    "sg:province":"NY",
    "sg:tags":[
        "burger",
        "american"
    ],
    "src:geom":"simplegeo",
    "wof:belongsto":[
        85838845,
        102191575,
        404523091,
        85633793,
        85979991,
        102082385,
        85688543
    ],
    "wof:breaches":[],
    "wof:concordances":{
        "sg:id":"SG_2NH3VMW1fCI2VsPASZD5mB_41.105414_-74.029774@1299784598"
    },
    "wof:country":"US",
    "wof:geomhash":"7175a49e35197345af56ca0ce616756c",
    "wof:hierarchy":[
        {
            "continent_id":102191575,
            "country_id":85633793,
            "county_id":102082385,
            "localadmin_id":404523091,
            "locality_id":85979991,
            "neighbourhood_id":85838845,
            "region_id":85688543,
            "venue_id":571685003
        }
    ],
    "wof:id":571685003,
    "wof:lastmodified":1461041240,
    "wof:name":"Burger King",
    "wof:parent_id":85838845,
    "wof:placetype":"venue",
    "wof:superseded_by":[],
    "wof:supersedes":[],
    "wof:tags":[
        "burger",
        "american"
    ]
},
  "bbox": [
    -74.029774,
    41.105414,
    -74.029774,
    41.105414
],
  "geometry": {"coordinates":[-74.029774,41.105414],"type":"Point"}
}