{
  "id": 554941897,
  "type": "Feature",
  "properties": {
    "edtf:cessation":"uuuu",
    "edtf:inception":"uuuu",
    "geom:area":0.0,
    "geom:bbox":"-73.49914,41.136424,-73.49914,41.136424",
    "geom:latitude":41.136424,
    "geom:longitude":-73.49914,
    "iso:country":"US",
    "sg:address":"134 Marshall Ridge Rd",
    "sg:city":"New Canaan",
    "sg:classifiers":[
        {
            "category":"Professional",
            "subcategory":"Business Services",
            "type":"Services"
        }
    ],
    "sg:owner":"simplegeo",
    "sg:phone":"+1   ",
    "sg:postcode":"06840",
    "sg:province":"NY",
    "src:geom":"simplegeo",
    "wof:belongsto":[
        85688629,
        85633793,
        85851779,
        102084283
    ],
    "wof:breaches":[],
    "wof:concordances":{
        "sg:id":"SG_6Q1lryYzwrFnZVM3RNizJ5_41.136424_-73.499140@1294177022"
    },
    "wof:country":"US",
    "wof:geomhash":"acfc2ba4792c7ff10b48d7a842ca2b51",
    "wof:hierarchy":[
        {
            "country_id":85633793,
            "county_id":102084283,
            "neighbourhood_id":85851779,
            "region_id":85688629,
            "venue_id":554941897
        }
    ],
    "wof:id":554941897,
    "wof:lastmodified":1461017819,
    "wof:name":"Mary W Zara LLC",
    "wof:parent_id":85851779,
    "wof:placetype":"venue",
    "wof:superseded_by":[],
    "wof:supersedes":[],
    "wof:tags":[]
},
  "bbox": [
    -73.49914,
    41.136424,
    -73.49914,
    41.136424
],
  "geometry": {"coordinates":[-73.49914,41.136424],"type":"Point"}
}