{
  "id": 554935433,
  "type": "Feature",
  "properties": {
    "edtf:cessation":"uuuu",
    "edtf:inception":"uuuu",
    "geom:area":0.0,
    "geom:bbox":"-73.508326,41.130251,-73.508326,41.130251",
    "geom:latitude":41.130251,
    "geom:longitude":-73.508326,
    "iso:country":"US",
    "sg:address":"68 Indian Waters Dr",
    "sg:city":"New Canaan",
    "sg:classifiers":[
        {
            "category":"Health Services",
            "subcategory":"Doctor",
            "type":"Services"
        }
    ],
    "sg:owner":"simplegeo",
    "sg:phone":"+1   ",
    "sg:postcode":"06840",
    "sg:province":"NY",
    "sg:tags":[
        "medical"
    ],
    "src:geom":"simplegeo",
    "wof:belongsto":[
        85688629,
        85633793,
        85851779,
        102084283
    ],
    "wof:breaches":[],
    "wof:concordances":{
        "sg:id":"SG_1iI66kFcxT2jbX7WA0iPUI_41.130251_-73.508326@1294177022"
    },
    "wof:country":"US",
    "wof:geomhash":"ad1130f45536b053f5838c8e52f8abd9",
    "wof:hierarchy":[
        {
            "country_id":85633793,
            "county_id":102084283,
            "neighbourhood_id":85851779,
            "region_id":85688629,
            "venue_id":554935433
        }
    ],
    "wof:id":554935433,
    "wof:lastmodified":1461017069,
    "wof:name":"Jacob T Chachkes MD PC",
    "wof:parent_id":85851779,
    "wof:placetype":"venue",
    "wof:superseded_by":[],
    "wof:supersedes":[],
    "wof:tags":[
        "medical"
    ]
},
  "bbox": [
    -73.508326,
    41.130251,
    -73.508326,
    41.130251
],
  "geometry": {"coordinates":[-73.508326,41.130251],"type":"Point"}
}