{
  "id": 554934217,
  "type": "Feature",
  "properties": {
    "edtf:cessation":"uuuu",
    "edtf:inception":"uuuu",
    "geom:area":0.0,
    "geom:bbox":"-73.498991,41.115915,-73.498991,41.115915",
    "geom:latitude":41.115915,
    "geom:longitude":-73.498991,
    "iso:country":"US",
    "sg:address":"312 Talmadge Hill Rd",
    "sg:city":"New Canaan",
    "sg:classifiers":[
        {
            "category":"Building & Trades",
            "subcategory":"Construction",
            "type":"Services"
        }
    ],
    "sg:owner":"simplegeo",
    "sg:phone":"+1 203 966 7180",
    "sg:postcode":"06840",
    "sg:province":"NY",
    "sg:tags":[
        "new",
        "general",
        "remodeling",
        "for",
        "contractor"
    ],
    "src:geom":"simplegeo",
    "wof:belongsto":[
        85688629,
        85633793,
        85851779,
        102084283
    ],
    "wof:breaches":[],
    "wof:concordances":{
        "sg:id":"SG_3O4UcSuMSdR5nmTejsHdJ1_41.115915_-73.498991@1294177022"
    },
    "wof:country":"US",
    "wof:geomhash":"b52b3405ff3169e8380c4c92802828dc",
    "wof:hierarchy":[
        {
            "country_id":85633793,
            "county_id":102084283,
            "neighbourhood_id":85851779,
            "region_id":85688629,
            "venue_id":554934217
        }
    ],
    "wof:id":554934217,
    "wof:lastmodified":1461016913,
    "wof:name":"Erin Builders Inc",
    "wof:parent_id":85851779,
    "wof:placetype":"venue",
    "wof:superseded_by":[],
    "wof:supersedes":[],
    "wof:tags":[
        "new",
        "general",
        "remodeling",
        "for",
        "contractor"
    ]
},
  "bbox": [
    -73.498991,
    41.115915,
    -73.498991,
    41.115915
],
  "geometry": {"coordinates":[-73.498991,41.115915],"type":"Point"}
}