{
  "id": 554934317,
  "type": "Feature",
  "properties": {
    "edtf:cessation":"uuuu",
    "edtf:inception":"uuuu",
    "geom:area":0.0,
    "geom:bbox":"-73.493889,41.149065,-73.493889,41.149065",
    "geom:latitude":41.149065,
    "geom:longitude":-73.493889,
    "iso:country":"US",
    "sg:address":"12 Husted Ln",
    "sg:city":"New Canaan",
    "sg:classifiers":[
        {
            "category":"Professional",
            "subcategory":"Advertising",
            "type":"Services"
        }
    ],
    "sg:owner":"simplegeo",
    "sg:phone":"+1   ",
    "sg:postcode":"06840",
    "sg:province":"NY",
    "src:geom":"simplegeo",
    "wof:belongsto":[
        85688629,
        85633793,
        85851779,
        102084283
    ],
    "wof:breaches":[],
    "wof:concordances":{
        "sg:id":"SG_3PI1KYf0KyQ17ZFmxam6z5_41.149065_-73.493889@1294177022"
    },
    "wof:country":"US",
    "wof:geomhash":"d097984cddff3d3a0f1e139a90e35fe8",
    "wof:hierarchy":[
        {
            "country_id":85633793,
            "county_id":102084283,
            "neighbourhood_id":85851779,
            "region_id":85688629,
            "venue_id":554934317
        }
    ],
    "wof:id":554934317,
    "wof:lastmodified":1461016926,
    "wof:name":"Ad Concepts",
    "wof:parent_id":85851779,
    "wof:placetype":"venue",
    "wof:superseded_by":[],
    "wof:supersedes":[],
    "wof:tags":[]
},
  "bbox": [
    -73.493889,
    41.149065,
    -73.493889,
    41.149065
],
  "geometry": {"coordinates":[-73.493889,41.149065],"type":"Point"}
}