{
  "id": 554934693,
  "type": "Feature",
  "properties": {
    "edtf:cessation":"uuuu",
    "edtf:inception":"uuuu",
    "geom:area":0.0,
    "geom:bbox":"-74.05705,41.084023,-74.05705,41.084023",
    "geom:latitude":41.084023,
    "geom:longitude":-74.05705,
    "iso:country":"US",
    "sg:address":"811 Chestnut Ridge Rd",
    "sg:city":"Spring Valley",
    "sg:classifiers":[
        {
            "category":"Personal",
            "subcategory":"Beauty Salon",
            "type":"Services"
        }
    ],
    "sg:owner":"simplegeo",
    "sg:phone":"+1 845 371 6886",
    "sg:postcode":"10977",
    "sg:province":"NY",
    "sg:tags":[
        "manicuring"
    ],
    "src:geom":"simplegeo",
    "wof:belongsto":[
        85853261,
        102191575,
        404523097,
        85633793,
        85978555,
        102082385,
        85688543
    ],
    "wof:breaches":[],
    "wof:concordances":{
        "sg:id":"SG_2s0pwdeRBeN01l3dgH8tcY_41.084023_-74.057050@1294177022"
    },
    "wof:country":"US",
    "wof:geomhash":"a578147ad6e4c8e568a2f6c3719527b0",
    "wof:hierarchy":[
        {
            "continent_id":102191575,
            "country_id":85633793,
            "county_id":102082385,
            "localadmin_id":404523097,
            "locality_id":85978555,
            "neighbourhood_id":85853261,
            "region_id":85688543,
            "venue_id":554934693
        }
    ],
    "wof:id":554934693,
    "wof:lastmodified":1461016972,
    "wof:name":"Princess New Spa",
    "wof:parent_id":85853261,
    "wof:placetype":"venue",
    "wof:superseded_by":[],
    "wof:supersedes":[],
    "wof:tags":[
        "manicuring"
    ]
},
  "bbox": [
    -74.05705,
    41.084023,
    -74.05705,
    41.084023
],
  "geometry": {"coordinates":[-74.05705,41.084023],"type":"Point"}
}