{
  "id": 554935561,
  "type": "Feature",
  "properties": {
    "edtf:cessation":"uuuu",
    "edtf:inception":"uuuu",
    "geom:area":0.0,
    "geom:bbox":"-73.228491,42.52959,-73.228491,42.52959",
    "geom:latitude":42.52959,
    "geom:longitude":-73.228491,
    "iso:country":"US",
    "sg:address":"271 US Hwy 7",
    "sg:city":"New Ashford",
    "sg:classifiers":[
        {
            "category":"Real Estate",
            "subcategory":"Real Estate Agent",
            "type":"Services"
        }
    ],
    "sg:owner":"simplegeo",
    "sg:phone":"+1 413 458 3664",
    "sg:postcode":"01237",
    "sg:province":"NY",
    "src:geom":"simplegeo",
    "wof:belongsto":[
        85688645,
        85633793,
        85829509,
        102084369
    ],
    "wof:breaches":[],
    "wof:concordances":{
        "sg:id":"SG_79F24qIdMMmvJvaAxEJzPo_42.529590_-73.228491@1294177022"
    },
    "wof:country":"US",
    "wof:geomhash":"3676537b76b65efeccc6a36563b0c428",
    "wof:hierarchy":[
        {
            "country_id":85633793,
            "county_id":102084369,
            "neighbourhood_id":85829509,
            "region_id":85688645,
            "venue_id":554935561
        }
    ],
    "wof:id":554935561,
    "wof:lastmodified":1461017089,
    "wof:name":"J W Kelly Enterprises Inc",
    "wof:parent_id":85829509,
    "wof:placetype":"venue",
    "wof:superseded_by":[],
    "wof:supersedes":[],
    "wof:tags":[]
},
  "bbox": [
    -73.228491,
    42.52959,
    -73.228491,
    42.52959
],
  "geometry": {"coordinates":[-73.22849100000001,42.52959],"type":"Point"}
}