{
  "id": 555017055,
  "type": "Feature",
  "properties": {
    "edtf:cessation":"uuuu",
    "edtf:inception":"uuuu",
    "geom:area":0.0,
    "geom:bbox":"-75.328187,42.729146,-75.328187,42.729146",
    "geom:latitude":42.729146,
    "geom:longitude":-75.328187,
    "iso:country":"US",
    "sg:address":"198 Co Rd 41",
    "sg:city":"New Berlin",
    "sg:classifiers":[
        {
            "category":"Autos & Motor Vehicles",
            "subcategory":"Auto Supplies",
            "type":"Retail Goods"
        }
    ],
    "sg:owner":"simplegeo",
    "sg:phone":"+1   ",
    "sg:postcode":"13411",
    "sg:province":"NY",
    "src:geom":"simplegeo",
    "wof:belongsto":[],
    "wof:breaches":[],
    "wof:concordances":{
        "sg:id":"SG_5fxDliELcVPMSAs4BcVdH6_42.729146_-75.328187@1294177022"
    },
    "wof:country":"US",
    "wof:geomhash":"3dc6fe084eb475912fbfd3822e655d9a",
    "wof:hierarchy":[],
    "wof:id":555017055,
    "wof:lastmodified":1461019859,
    "wof:name":"Bills Truck & Salvage",
    "wof:parent_id":420528299,
    "wof:placetype":"venue",
    "wof:superseded_by":[],
    "wof:supersedes":[],
    "wof:tags":[]
},
  "bbox": [
    -75.328187,
    42.729146,
    -75.328187,
    42.729146
],
  "geometry": {"coordinates":[-75.328187,42.729146],"type":"Point"}
}