{
  "id": 554937719,
  "type": "Feature",
  "properties": {
    "edtf:cessation":"uuuu",
    "edtf:inception":"uuuu",
    "geom:area":0.0,
    "geom:bbox":"-73.656813,41.00857,-73.656813,41.00857",
    "geom:latitude":41.00857,
    "geom:longitude":-73.656813,
    "iso:country":"US",
    "sg:address":"464 N Main St",
    "sg:city":"Port Chester",
    "sg:classifiers":[
        {
            "category":"Wholesale",
            "subcategory":"Electrical",
            "type":"Manufacturing & Wholesale Goods"
        }
    ],
    "sg:owner":"simplegeo",
    "sg:phone":"+1 914 944 4750",
    "sg:postcode":"10573",
    "sg:province":"NY",
    "sg:tags":[
        "fire",
        "equipment",
        "protection"
    ],
    "src:geom":"simplegeo",
    "wof:belongsto":[
        85808713,
        102191575,
        404523389,
        85633793,
        85978705,
        102082373,
        85688543,
        85885307,
        404495949,
        85930941,
        102084283,
        85688629
    ],
    "wof:breaches":[],
    "wof:concordances":{
        "sg:id":"SG_5HuYEtrPXO0sVsVkS66nyp_41.008570_-73.656813@1294177022"
    },
    "wof:country":"US",
    "wof:geomhash":"493fb1a7f7d89cb46c896bbc2059d606",
    "wof:hierarchy":[
        {
            "continent_id":102191575,
            "country_id":85633793,
            "county_id":102082373,
            "localadmin_id":404523389,
            "locality_id":85978705,
            "neighbourhood_id":85808713,
            "region_id":85688543,
            "venue_id":554937719
        },
        {
            "continent_id":102191575,
            "country_id":85633793,
            "county_id":102084283,
            "localadmin_id":404495949,
            "locality_id":85930941,
            "neighbourhood_id":85885307,
            "region_id":85688629,
            "venue_id":554937719
        }
    ],
    "wof:id":554937719,
    "wof:lastmodified":1461017409,
    "wof:name":"Dri-Chem Fire Extinguisher",
    "wof:parent_id":-1,
    "wof:placetype":"venue",
    "wof:superseded_by":[],
    "wof:supersedes":[],
    "wof:tags":[
        "fire",
        "equipment",
        "protection"
    ]
},
  "bbox": [
    -73.656813,
    41.00857,
    -73.656813,
    41.00857
],
  "geometry": {"coordinates":[-73.656813,41.00857],"type":"Point"}
}