{
  "id": 554937685,
  "type": "Feature",
  "properties": {
    "edtf:cessation":"uuuu",
    "edtf:inception":"uuuu",
    "geom:area":0.0,
    "geom:bbox":"-73.463714,41.160429,-73.463714,41.160429",
    "geom:latitude":41.160429,
    "geom:longitude":-73.463714,
    "iso:country":"US",
    "sg:address":"253 Valley Rd",
    "sg:city":"New Canaan",
    "sg:classifiers":[
        {
            "category":"Banks & Credit Unions",
            "subcategory":"Financial Services",
            "type":"Services"
        }
    ],
    "sg:owner":"simplegeo",
    "sg:phone":"+1 203 972 8471",
    "sg:postcode":"06840",
    "sg:province":"NY",
    "sg:tags":[
        "investor"
    ],
    "src:geom":"simplegeo",
    "wof:belongsto":[],
    "wof:breaches":[],
    "wof:concordances":{
        "sg:id":"SG_1WR1mb9ql3dt2MqwK8oblS_41.160429_-73.463714@1294177022"
    },
    "wof:country":"US",
    "wof:geomhash":"22b53093961733b91f71a68b041df602",
    "wof:hierarchy":[],
    "wof:id":554937685,
    "wof:lastmodified":1461017404,
    "wof:name":"Lara Capital Inc",
    "wof:parent_id":-1,
    "wof:placetype":"venue",
    "wof:superseded_by":[],
    "wof:supersedes":[],
    "wof:tags":[
        "investor"
    ]
},
  "bbox": [
    -73.463714,
    41.160429,
    -73.463714,
    41.160429
],
  "geometry": {"coordinates":[-73.463714,41.160429],"type":"Point"}
}