{
  "id": 554937555,
  "type": "Feature",
  "properties": {
    "edtf:cessation":"uuuu",
    "edtf:inception":"uuuu",
    "geom:area":0.0,
    "geom:bbox":"-73.503418,41.134635,-73.503418,41.134635",
    "geom:latitude":41.134635,
    "geom:longitude":-73.503418,
    "iso:country":"US",
    "sg:address":"65 Ash Tree Ln",
    "sg:city":"New Canaan",
    "sg:classifiers":[
        {
            "category":"Professional",
            "subcategory":"Business Services",
            "type":"Services"
        }
    ],
    "sg:owner":"simplegeo",
    "sg:phone":"+1   ",
    "sg:postcode":"06840",
    "sg:province":"NY",
    "src:geom":"simplegeo",
    "wof:belongsto":[
        85688629,
        85633793,
        85851779,
        102084283
    ],
    "wof:breaches":[],
    "wof:concordances":{
        "sg:id":"SG_4kbXcIKSVRuRAPRBIYEhz5_41.134635_-73.503418@1294177022"
    },
    "wof:country":"US",
    "wof:geomhash":"11d704af211c23ed0ebd2b9ea7809648",
    "wof:hierarchy":[
        {
            "country_id":85633793,
            "county_id":102084283,
            "neighbourhood_id":85851779,
            "region_id":85688629,
            "venue_id":554937555
        }
    ],
    "wof:id":554937555,
    "wof:lastmodified":1461017387,
    "wof:name":"Ash Tree Group LLC",
    "wof:parent_id":85851779,
    "wof:placetype":"venue",
    "wof:superseded_by":[],
    "wof:supersedes":[],
    "wof:tags":[]
},
  "bbox": [
    -73.503418,
    41.134635,
    -73.503418,
    41.134635
],
  "geometry": {"coordinates":[-73.503418,41.134635],"type":"Point"}
}