{
  "id": 571595215,
  "type": "Feature",
  "properties": {
    "edtf:cessation":"uuuu",
    "edtf:inception":"uuuu",
    "geom:area":0.0,
    "geom:bbox":"-74.006599,40.7463,-74.006599,40.7463",
    "geom:latitude":40.7463,
    "geom:longitude":-74.006599,
    "iso:country":"US",
    "sg:address":"529 W 20th St",
    "sg:city":"New York",
    "sg:classifiers":[
        {
            "category":"Shopping",
            "subcategory":"",
            "type":"Retail Goods"
        }
    ],
    "sg:owner":"simplegeo",
    "sg:phone":"+1 212 366 6939",
    "sg:postcode":"10011",
    "sg:province":"NY",
    "sg:tags":[
        "art",
        "gallery"
    ],
    "src:geom":"simplegeo",
    "wof:belongsto":[
        85810589,
        102191575,
        85633793,
        85977539,
        421205771,
        102081863,
        85688543
    ],
    "wof:breaches":[],
    "wof:concordances":{
        "sg:id":"SG_1RXDk3SUENGcSDAdClwsah_40.746625_-74.007428@1293134755"
    },
    "wof:country":"US",
    "wof:geomhash":"4c76762a3690c388cecb9c09d3425345",
    "wof:hierarchy":[
        {
            "borough_id":421205771,
            "continent_id":102191575,
            "country_id":85633793,
            "county_id":102081863,
            "locality_id":85977539,
            "neighbourhood_id":85810589,
            "region_id":85688543,
            "venue_id":571595215
        }
    ],
    "wof:id":571595215,
    "wof:lastmodified":1461039239,
    "wof:name":"Bitforms",
    "wof:parent_id":85810589,
    "wof:placetype":"venue",
    "wof:superseded_by":[],
    "wof:supersedes":[],
    "wof:tags":[
        "art",
        "gallery"
    ]
},
  "bbox": [
    -74.006599,
    40.7463,
    -74.006599,
    40.7463
],
  "geometry": {"coordinates":[-74.00659899999999,40.7463],"type":"Point"}
}