{
  "id": 554935429,
  "type": "Feature",
  "properties": {
    "edtf:cessation":"uuuu",
    "edtf:inception":"uuuu",
    "geom:area":0.0,
    "geom:bbox":"-73.487153,41.176596,-73.487153,41.176596",
    "geom:latitude":41.176596,
    "geom:longitude":-73.487153,
    "iso:country":"US",
    "sg:address":"287 Laurel Rd",
    "sg:city":"New Canaan",
    "sg:classifiers":[
        {
            "category":"Real Estate",
            "subcategory":"Real Estate Agent",
            "type":"Services"
        }
    ],
    "sg:owner":"simplegeo",
    "sg:phone":"+1 203 972 0658",
    "sg:postcode":"06840",
    "sg:province":"NY",
    "src:geom":"simplegeo",
    "wof:belongsto":[],
    "wof:breaches":[],
    "wof:concordances":{
        "sg:id":"SG_3yXOQJJSgFF88YqgBsFaFy_41.176596_-73.487153@1294177022"
    },
    "wof:country":"US",
    "wof:geomhash":"9a4b9fe2a1ba58475ba51a8d7838d6c7",
    "wof:hierarchy":[],
    "wof:id":554935429,
    "wof:lastmodified":1461017068,
    "wof:name":"Sheehy Realty LLC",
    "wof:parent_id":-1,
    "wof:placetype":"venue",
    "wof:superseded_by":[],
    "wof:supersedes":[],
    "wof:tags":[]
},
  "bbox": [
    -73.487153,
    41.176596,
    -73.487153,
    41.176596
],
  "geometry": {"coordinates":[-73.48715300000001,41.176596],"type":"Point"}
}