{
  "id": 572170771,
  "type": "Feature",
  "properties": {
    "edtf:cessation":"uuuu",
    "edtf:inception":"uuuu",
    "geom:area":0.0,
    "geom:bbox":"-74.908715,40.642629,-74.908715,40.642629",
    "geom:latitude":40.642629,
    "geom:longitude":-74.908715,
    "iso:country":"US",
    "sg:address":"4715 8th Ave",
    "sg:city":"Brooklyn",
    "sg:classifiers":[
        {
            "category":"Professional",
            "subcategory":"Lawyer & Legal Services",
            "type":"Services"
        }
    ],
    "sg:owner":"simplegeo",
    "sg:phone":"+1 718 633 3373",
    "sg:postcode":"11220",
    "sg:province":"NY",
    "src:geom":"simplegeo",
    "wof:belongsto":[
        85823651,
        102191575,
        404478159,
        85633793,
        85975699,
        102085997,
        85688607
    ],
    "wof:breaches":[],
    "wof:concordances":{
        "sg:id":"SG_2H5x6YowGiaK0C5YycgGzY_40.642629_-74.908715@1303262344"
    },
    "wof:country":"US",
    "wof:geomhash":"17e1faa9bfde4fa421bf65d63bc15f81",
    "wof:hierarchy":[
        {
            "continent_id":102191575,
            "country_id":85633793,
            "county_id":102085997,
            "localadmin_id":404478159,
            "locality_id":85975699,
            "neighbourhood_id":85823651,
            "region_id":85688607,
            "venue_id":572170771
        }
    ],
    "wof:id":572170771,
    "wof:lastmodified":1461051432,
    "wof:name":"Wertheimer Lawrence J",
    "wof:parent_id":85823651,
    "wof:placetype":"venue",
    "wof:superseded_by":[],
    "wof:supersedes":[],
    "wof:tags":[]
},
  "bbox": [
    -74.908715,
    40.642629,
    -74.908715,
    40.642629
],
  "geometry": {"coordinates":[-74.908715,40.642629],"type":"Point"}
}