{
  "id": 554934667,
  "type": "Feature",
  "properties": {
    "edtf:cessation":"uuuu",
    "edtf:inception":"uuuu",
    "geom:area":0.0,
    "geom:bbox":"-73.701365,41.066749,-73.701365,41.066749",
    "geom:latitude":41.066749,
    "geom:longitude":-73.701365,
    "iso:country":"US",
    "sg:address":"8 Hangar Rd",
    "sg:city":"White Plains",
    "sg:classifiers":[
        {
            "category":"Airport",
            "subcategory":"",
            "type":"Transportation"
        }
    ],
    "sg:owner":"simplegeo",
    "sg:phone":"+1   ",
    "sg:postcode":"10604",
    "sg:province":"NY",
    "sg:tags":[
        "aircraft",
        "maintains",
        "corporate"
    ],
    "src:geom":"simplegeo",
    "wof:belongsto":[
        85845073,
        102191575,
        404523361,
        85633793,
        85978735,
        102082373,
        85688543
    ],
    "wof:breaches":[],
    "wof:concordances":{
        "sg:id":"SG_09Uu2QXVJag1D85QuR97CR_41.066749_-73.701365@1294177022"
    },
    "wof:country":"US",
    "wof:geomhash":"a7f6b79ae9bbc20a0f754dbb06a2126c",
    "wof:hierarchy":[
        {
            "continent_id":102191575,
            "country_id":85633793,
            "county_id":102082373,
            "localadmin_id":404523361,
            "locality_id":85978735,
            "neighbourhood_id":85845073,
            "region_id":85688543,
            "venue_id":554934667
        }
    ],
    "wof:id":554934667,
    "wof:lastmodified":1461016969,
    "wof:name":"Xerox",
    "wof:parent_id":85845073,
    "wof:placetype":"venue",
    "wof:superseded_by":[],
    "wof:supersedes":[],
    "wof:tags":[
        "aircraft",
        "maintains",
        "corporate"
    ]
},
  "bbox": [
    -73.701365,
    41.066749,
    -73.701365,
    41.066749
],
  "geometry": {"coordinates":[-73.701365,41.066749],"type":"Point"}
}