{
  "id": 572171279,
  "type": "Feature",
  "properties": {
    "edtf:cessation":"uuuu",
    "edtf:inception":"uuuu",
    "geom:area":0.0,
    "geom:bbox":"-74.233497,40.619743,-74.233497,40.619743",
    "geom:latitude":40.619743,
    "geom:longitude":-74.233497,
    "iso:country":"US",
    "sg:address":"7610 13th Ave",
    "sg:city":"Brooklyn",
    "sg:classifiers":[
        {
            "category":"Retail",
            "subcategory":"Auto Rental",
            "type":"Services"
        }
    ],
    "sg:owner":"simplegeo",
    "sg:phone":"+1 718 680 2277",
    "sg:postcode":"11228",
    "sg:province":"NY",
    "sg:tags":[
        "car"
    ],
    "sg:website":"www.empireautoleasing.com",
    "src:geom":"simplegeo",
    "wof:belongsto":[
        85804971,
        102191575,
        404478503,
        85633793,
        85975837,
        102085995,
        85688607
    ],
    "wof:breaches":[],
    "wof:concordances":{
        "sg:id":"SG_0huDbbAzorHZ90QgwS1NH3_40.619743_-74.233497@1303262347"
    },
    "wof:country":"US",
    "wof:geomhash":"c16e05ac6f5786cdeb95ade602642899",
    "wof:hierarchy":[
        {
            "continent_id":102191575,
            "country_id":85633793,
            "county_id":102085995,
            "localadmin_id":404478503,
            "locality_id":85975837,
            "neighbourhood_id":85804971,
            "region_id":85688607,
            "venue_id":572171279
        }
    ],
    "wof:id":572171279,
    "wof:lastmodified":1461051451,
    "wof:name":"Empire Auto Leasing",
    "wof:parent_id":85804971,
    "wof:placetype":"venue",
    "wof:superseded_by":[],
    "wof:supersedes":[],
    "wof:tags":[
        "car"
    ]
},
  "bbox": [
    -74.233497,
    40.619743,
    -74.233497,
    40.619743
],
  "geometry": {"coordinates":[-74.233497,40.619743],"type":"Point"}
}