{
  "id": 572175683,
  "type": "Feature",
  "properties": {
    "edtf:cessation":"uuuu",
    "edtf:inception":"uuuu",
    "geom:area":0.0,
    "geom:bbox":"-72.484305,41.365052,-72.484305,41.365052",
    "geom:latitude":41.365052,
    "geom:longitude":-72.484305,
    "iso:country":"US",
    "sg:address":"320 Depot Ln Unit 8",
    "sg:city":"Cutchogue",
    "sg:classifiers":[
        {
            "category":"Sports & Exercise",
            "subcategory":"Gym",
            "type":"Entertainment"
        }
    ],
    "sg:owner":"simplegeo",
    "sg:phone":"+1 631 734 4042",
    "sg:postcode":"11935",
    "sg:province":"NY",
    "src:geom":"simplegeo",
    "wof:belongsto":[
        85688629,
        85633793,
        85842637,
        102086211
    ],
    "wof:breaches":[],
    "wof:concordances":{
        "sg:id":"SG_6aZlxWnmRAUmynwtYkSORb_41.365052_-72.484305@1303262383"
    },
    "wof:country":"US",
    "wof:geomhash":"512f86b50bb00ca0920b176f7eea4c1a",
    "wof:hierarchy":[
        {
            "country_id":85633793,
            "county_id":102086211,
            "neighbourhood_id":85842637,
            "region_id":85688629,
            "venue_id":572175683
        }
    ],
    "wof:id":572175683,
    "wof:lastmodified":1461051589,
    "wof:name":"Synchronicity At Village Commons",
    "wof:parent_id":85842637,
    "wof:placetype":"venue",
    "wof:superseded_by":[],
    "wof:supersedes":[],
    "wof:tags":[]
},
  "bbox": [
    -72.484305,
    41.365052,
    -72.484305,
    41.365052
],
  "geometry": {"coordinates":[-72.48430500000001,41.365052],"type":"Point"}
}