{
  "id": 572170269,
  "type": "Feature",
  "properties": {
    "edtf:cessation":"uuuu",
    "edtf:inception":"uuuu",
    "geom:area":0.0,
    "geom:bbox":"-74.307223,40.627919,-74.307223,40.627919",
    "geom:latitude":40.627919,
    "geom:longitude":-74.307223,
    "iso:country":"US",
    "sg:address":"7701 5th Ave",
    "sg:city":"Brooklyn",
    "sg:classifiers":[
        {
            "category":"Food & Beverages",
            "subcategory":"Groceries & Convenience Stores",
            "type":"Retail Goods"
        }
    ],
    "sg:owner":"simplegeo",
    "sg:phone":"+1 718 748 3240",
    "sg:postcode":"11209",
    "sg:province":"NY",
    "src:geom":"simplegeo",
    "wof:belongsto":[],
    "wof:breaches":[],
    "wof:concordances":{
        "sg:id":"SG_4ndSZZaBGcZrHAD3Y0D6R1_40.627919_-74.307223@1303262339"
    },
    "wof:country":"US",
    "wof:geomhash":"efd5929e06d87dbb736529ccac25b2d0",
    "wof:hierarchy":[],
    "wof:id":572170269,
    "wof:lastmodified":1461051415,
    "wof:name":"El Asteca Corp",
    "wof:parent_id":-1,
    "wof:placetype":"venue",
    "wof:superseded_by":[],
    "wof:supersedes":[],
    "wof:tags":[]
},
  "bbox": [
    -74.307223,
    40.627919,
    -74.307223,
    40.627919
],
  "geometry": {"coordinates":[-74.30722299999999,40.627919],"type":"Point"}
}