{
  "id": 554937845,
  "type": "Feature",
  "properties": {
    "edtf:cessation":"uuuu",
    "edtf:inception":"uuuu",
    "geom:area":0.0,
    "geom:bbox":"-73.234254,42.537428,-73.234254,42.537428",
    "geom:latitude":42.537428,
    "geom:longitude":-73.234254,
    "iso:country":"US",
    "sg:address":"39 Victoria Ln",
    "sg:city":"Lanesboro",
    "sg:classifiers":[
        {
            "category":"Professional",
            "subcategory":"Management & Consulting",
            "type":"Services"
        }
    ],
    "sg:owner":"simplegeo",
    "sg:phone":"+1 413 448 2625",
    "sg:postcode":"01237",
    "sg:province":"NY",
    "sg:tags":[
        "break",
        "coffee",
        "supply"
    ],
    "src:geom":"simplegeo",
    "wof:belongsto":[
        85688645,
        85633793,
        85829509,
        102084369
    ],
    "wof:breaches":[],
    "wof:concordances":{
        "sg:id":"SG_1H19D2CKplfrfjU7mPVHR9_42.537428_-73.234254@1294177022"
    },
    "wof:country":"US",
    "wof:geomhash":"80c768a2b4d735e0e7db476e8c511335",
    "wof:hierarchy":[
        {
            "country_id":85633793,
            "county_id":102084369,
            "neighbourhood_id":85829509,
            "region_id":85688645,
            "venue_id":554937845
        }
    ],
    "wof:id":554937845,
    "wof:lastmodified":1461017422,
    "wof:name":"Rainbow Distributing Co",
    "wof:parent_id":85829509,
    "wof:placetype":"venue",
    "wof:superseded_by":[],
    "wof:supersedes":[],
    "wof:tags":[
        "break",
        "coffee",
        "supply"
    ]
},
  "bbox": [
    -73.234254,
    42.537428,
    -73.234254,
    42.537428
],
  "geometry": {"coordinates":[-73.23425400000001,42.537428],"type":"Point"}
}