{
  "id": 554935981,
  "type": "Feature",
  "properties": {
    "edtf:cessation":"uuuu",
    "edtf:inception":"uuuu",
    "geom:area":0.0,
    "geom:bbox":"-73.701335,41.066729,-73.701335,41.066729",
    "geom:latitude":41.066729,
    "geom:longitude":-73.701335,
    "iso:country":"US",
    "sg:address":"6 Hangar Rd",
    "sg:city":"White Plains",
    "sg:classifiers":[
        {
            "category":"Government",
            "subcategory":"Office",
            "type":"Public Place"
        }
    ],
    "sg:owner":"simplegeo",
    "sg:phone":"+1 914 995 9415",
    "sg:postcode":"10604",
    "sg:province":"NY",
    "sg:tags":[
        "administrative",
        "program",
        "health"
    ],
    "src:geom":"simplegeo",
    "wof:belongsto":[
        85845073,
        102191575,
        404523361,
        85633793,
        85978735,
        102082373,
        85688543
    ],
    "wof:breaches":[],
    "wof:concordances":{
        "sg:id":"SG_2hxrmyTlFrNdlPNzFL7237_41.066729_-73.701335@1294177022"
    },
    "wof:country":"US",
    "wof:geomhash":"ea96eb9ad2e645b72f57d33414bba50c",
    "wof:hierarchy":[
        {
            "continent_id":102191575,
            "country_id":85633793,
            "county_id":102082373,
            "localadmin_id":404523361,
            "locality_id":85978735,
            "neighbourhood_id":85845073,
            "region_id":85688543,
            "venue_id":554935981
        }
    ],
    "wof:id":554935981,
    "wof:lastmodified":1461017146,
    "wof:name":"Community Mental Health",
    "wof:parent_id":85845073,
    "wof:placetype":"venue",
    "wof:superseded_by":[],
    "wof:supersedes":[],
    "wof:tags":[
        "administrative",
        "program",
        "health"
    ]
},
  "bbox": [
    -73.701335,
    41.066729,
    -73.701335,
    41.066729
],
  "geometry": {"coordinates":[-73.701335,41.066729],"type":"Point"}
}