{
  "id": 572078789,
  "type": "Feature",
  "properties": {
    "edtf:cessation":"uuuu",
    "edtf:inception":"uuuu",
    "geom:area":0.0,
    "geom:bbox":"-73.738297,41.183998,-73.738297,41.183998",
    "geom:latitude":41.183998,
    "geom:longitude":-73.738297,
    "iso:country":"US",
    "sg:address":"551 Bedford Rd",
    "sg:city":"Mount Kisco",
    "sg:classifiers":[
        {
            "category":"Shopping",
            "subcategory":"Computers & Home Electronics",
            "type":"Retail Goods"
        }
    ],
    "sg:owner":"simplegeo",
    "sg:phone":"+1 914 242 8881",
    "sg:postcode":"10549",
    "sg:province":"NY",
    "src:geom":"simplegeo",
    "wof:belongsto":[],
    "wof:breaches":[],
    "wof:concordances":{
        "sg:id":"SG_2yKgYcyNH3vWfK1LK9qx6p_41.183998_-73.738297@1303262326"
    },
    "wof:country":"US",
    "wof:geomhash":"0e94d3397fee0189e8726f964d6aefcd",
    "wof:hierarchy":[],
    "wof:id":572078789,
    "wof:lastmodified":1461049457,
    "wof:name":"Entertainment Technology Inc",
    "wof:parent_id":-1,
    "wof:placetype":"venue",
    "wof:superseded_by":[],
    "wof:supersedes":[],
    "wof:tags":[]
},
  "bbox": [
    -73.738297,
    41.183998,
    -73.738297,
    41.183998
],
  "geometry": {"coordinates":[-73.738297,41.183998],"type":"Point"}
}