{
  "id": 572170969,
  "type": "Feature",
  "properties": {
    "edtf:cessation":"uuuu",
    "edtf:inception":"uuuu",
    "geom:area":0.0,
    "geom:bbox":"-74.231069,40.634223,-74.231069,40.634223",
    "geom:latitude":40.634223,
    "geom:longitude":-74.231069,
    "iso:country":"US",
    "sg:address":"445 Bay Ridge Ave",
    "sg:city":"Brooklyn",
    "sg:classifiers":[
        {
            "category":"Retail",
            "subcategory":"Auto Repair",
            "type":"Services"
        }
    ],
    "sg:owner":"simplegeo",
    "sg:phone":"+1 718 851 5090",
    "sg:postcode":"11220",
    "sg:province":"NY",
    "src:geom":"simplegeo",
    "wof:belongsto":[
        85804971,
        102191575,
        404478503,
        85633793,
        85975837,
        102085995,
        85688607
    ],
    "wof:breaches":[],
    "wof:concordances":{
        "sg:id":"SG_6qj6gGzqmuSNrz3WXjWM3S_40.634223_-74.231069@1303262344"
    },
    "wof:country":"US",
    "wof:geomhash":"bf3c81cb5f87c2cb888ebefd99342173",
    "wof:hierarchy":[
        {
            "continent_id":102191575,
            "country_id":85633793,
            "county_id":102085995,
            "localadmin_id":404478503,
            "locality_id":85975837,
            "neighbourhood_id":85804971,
            "region_id":85688607,
            "venue_id":572170969
        }
    ],
    "wof:id":572170969,
    "wof:lastmodified":1461051437,
    "wof:name":"24 hours 7 Days Towing and Lockout Service",
    "wof:parent_id":85804971,
    "wof:placetype":"venue",
    "wof:superseded_by":[],
    "wof:supersedes":[],
    "wof:tags":[]
},
  "bbox": [
    -74.231069,
    40.634223,
    -74.231069,
    40.634223
],
  "geometry": {"coordinates":[-74.23106900000001,40.634223],"type":"Point"}
}