{
  "id": 572170435,
  "type": "Feature",
  "properties": {
    "edtf:cessation":"uuuu",
    "edtf:inception":"uuuu",
    "geom:area":0.0,
    "geom:bbox":"-74.261194,40.605528,-74.261194,40.605528",
    "geom:latitude":40.605528,
    "geom:longitude":-74.261194,
    "iso:country":"US",
    "sg:address":"8758 17th Ave",
    "sg:city":"Brooklyn",
    "sg:classifiers":[
        {
            "category":"Organizations",
            "subcategory":"Religious Organization",
            "type":"Services"
        }
    ],
    "sg:owner":"simplegeo",
    "sg:phone":"+1 718 837 2468",
    "sg:postcode":"11214",
    "sg:province":"NY",
    "src:geom":"simplegeo",
    "wof:belongsto":[],
    "wof:breaches":[],
    "wof:concordances":{
        "sg:id":"SG_6rvM08XqPvv3XRj3EkFKfX_40.605528_-74.261194@1303262341"
    },
    "wof:country":"US",
    "wof:geomhash":"1e63f58d714f836830bba6ce73129efe",
    "wof:hierarchy":[],
    "wof:id":572170435,
    "wof:lastmodified":1461051421,
    "wof:name":"Iglesis De Evangelizacion Misioeras Jc De Ev Inc",
    "wof:parent_id":-1,
    "wof:placetype":"venue",
    "wof:superseded_by":[],
    "wof:supersedes":[],
    "wof:tags":[]
},
  "bbox": [
    -74.261194,
    40.605528,
    -74.261194,
    40.605528
],
  "geometry": {"coordinates":[-74.261194,40.605528],"type":"Point"}
}