{
  "id": 554934599,
  "type": "Feature",
  "properties": {
    "edtf:cessation":"uuuu",
    "edtf:inception":"uuuu",
    "geom:area":0.0,
    "geom:bbox":"-73.483795,41.146545,-73.483795,41.146545",
    "geom:latitude":41.146545,
    "geom:longitude":-73.483795,
    "iso:country":"US",
    "sg:address":"57 Millport Ave",
    "sg:city":"New Canaan",
    "sg:classifiers":[
        {
            "category":"Organizations",
            "subcategory":"Community Association",
            "type":"Services"
        }
    ],
    "sg:owner":"simplegeo",
    "sg:phone":"+1   ",
    "sg:postcode":"06840",
    "sg:province":"NY",
    "src:geom":"simplegeo",
    "wof:belongsto":[
        85688629,
        85633793,
        85851779,
        102084283
    ],
    "wof:breaches":[],
    "wof:concordances":{
        "sg:id":"SG_6ePIc1grAn0F6RtNwZISbe_41.146545_-73.483795@1294177022"
    },
    "wof:country":"US",
    "wof:geomhash":"fefe7995a0889dae387c8ffb2c0c2c9f",
    "wof:hierarchy":[
        {
            "country_id":85633793,
            "county_id":102084283,
            "neighbourhood_id":85851779,
            "region_id":85688629,
            "venue_id":554934599
        }
    ],
    "wof:id":554934599,
    "wof:lastmodified":1461016962,
    "wof:name":"Toughlove International",
    "wof:parent_id":85851779,
    "wof:placetype":"venue",
    "wof:superseded_by":[],
    "wof:supersedes":[],
    "wof:tags":[]
},
  "bbox": [
    -73.483795,
    41.146545,
    -73.483795,
    41.146545
],
  "geometry": {"coordinates":[-73.483795,41.146545],"type":"Point"}
}