{
  "id": 572171029,
  "type": "Feature",
  "properties": {
    "edtf:cessation":"uuuu",
    "edtf:inception":"uuuu",
    "geom:area":0.0,
    "geom:bbox":"-74.325794,40.638933,-74.325794,40.638933",
    "geom:latitude":40.638933,
    "geom:longitude":-74.325794,
    "iso:country":"US",
    "sg:address":"5611 7th Ave",
    "sg:city":"Brooklyn",
    "sg:classifiers":[
        {
            "category":"Health Services",
            "subcategory":"Dentist",
            "type":"Services"
        }
    ],
    "sg:owner":"simplegeo",
    "sg:phone":"+1 718 439 5001",
    "sg:postcode":"11220",
    "sg:province":"NY",
    "sg:website":"www.janeyangdentalpc.com",
    "src:geom":"simplegeo",
    "wof:belongsto":[
        85892559,
        102191575,
        404478409,
        85633793,
        85975827,
        102085995,
        85688607
    ],
    "wof:breaches":[],
    "wof:concordances":{
        "sg:id":"SG_0qhzKcEdKEMLj8Y7lm23u8_40.638933_-74.325794@1303262344"
    },
    "wof:country":"US",
    "wof:geomhash":"ead947338284dc760834a83fbd6feb53",
    "wof:hierarchy":[
        {
            "continent_id":102191575,
            "country_id":85633793,
            "county_id":102085995,
            "localadmin_id":404478409,
            "locality_id":85975827,
            "neighbourhood_id":85892559,
            "region_id":85688607,
            "venue_id":572171029
        }
    ],
    "wof:id":572171029,
    "wof:lastmodified":1461051438,
    "wof:name":"Jane Yang Dental Pc",
    "wof:parent_id":85892559,
    "wof:placetype":"venue",
    "wof:superseded_by":[],
    "wof:supersedes":[],
    "wof:tags":[]
},
  "bbox": [
    -74.325794,
    40.638933,
    -74.325794,
    40.638933
],
  "geometry": {"coordinates":[-74.325794,40.638933],"type":"Point"}
}