{
  "id": 554936587,
  "type": "Feature",
  "properties": {
    "edtf:cessation":"uuuu",
    "edtf:inception":"uuuu",
    "geom:area":0.0,
    "geom:bbox":"-73.479877,41.185873,-73.479877,41.185873",
    "geom:latitude":41.185873,
    "geom:longitude":-73.479877,
    "iso:country":"US",
    "sg:address":"74 Fox Run Rd",
    "sg:city":"New Canaan",
    "sg:classifiers":[
        {
            "category":"Restaurant",
            "subcategory":"",
            "type":"Food & Drink"
        }
    ],
    "sg:owner":"simplegeo",
    "sg:phone":"+1 203 966 2005",
    "sg:postcode":"06840",
    "sg:province":"NY",
    "sg:tags":[
        "caterer"
    ],
    "src:geom":"simplegeo",
    "wof:belongsto":[],
    "wof:breaches":[],
    "wof:concordances":{
        "sg:id":"SG_6wqcKfKboSIWQ65LTi240J_41.185873_-73.479877@1294177022"
    },
    "wof:country":"US",
    "wof:geomhash":"b1e68ac29f4923cd6efb5f985be47a61",
    "wof:hierarchy":[],
    "wof:id":554936587,
    "wof:lastmodified":1461017243,
    "wof:name":"Catered By Chris",
    "wof:parent_id":-1,
    "wof:placetype":"venue",
    "wof:superseded_by":[],
    "wof:supersedes":[],
    "wof:tags":[
        "caterer"
    ]
},
  "bbox": [
    -73.479877,
    41.185873,
    -73.479877,
    41.185873
],
  "geometry": {"coordinates":[-73.479877,41.185873],"type":"Point"}
}