{
  "id": 572170927,
  "type": "Feature",
  "properties": {
    "edtf:cessation":"uuuu",
    "edtf:inception":"uuuu",
    "geom:area":0.0,
    "geom:bbox":"-74.134686,40.647333,-74.134686,40.647333",
    "geom:latitude":40.647333,
    "geom:longitude":-74.134686,
    "iso:country":"US",
    "sg:address":"4823 4th Ave",
    "sg:city":"Brooklyn",
    "sg:classifiers":[
        {
            "category":"Community Center",
            "subcategory":"",
            "type":"Public Place"
        }
    ],
    "sg:owner":"simplegeo",
    "sg:phone":"+1 718 765 0100",
    "sg:postcode":"11220",
    "sg:province":"NY",
    "sg:tags":[
        "medical"
    ],
    "src:geom":"simplegeo",
    "wof:belongsto":[
        85805819,
        102191575,
        404478127,
        85633793,
        85975307,
        102080719,
        85688607
    ],
    "wof:breaches":[],
    "wof:concordances":{
        "sg:id":"SG_717To27PBmmSgtPW4XsqkZ_40.647333_-74.134686@1303262344"
    },
    "wof:country":"US",
    "wof:geomhash":"b8a574bdfd32f209ba1631e47d30aba0",
    "wof:hierarchy":[
        {
            "continent_id":102191575,
            "country_id":85633793,
            "county_id":102080719,
            "localadmin_id":404478127,
            "locality_id":85975307,
            "neighbourhood_id":85805819,
            "region_id":85688607,
            "venue_id":572170927
        }
    ],
    "wof:id":572170927,
    "wof:lastmodified":1461051436,
    "wof:name":"Total Health Medical Center",
    "wof:parent_id":85805819,
    "wof:placetype":"venue",
    "wof:superseded_by":[],
    "wof:supersedes":[],
    "wof:tags":[
        "medical"
    ]
},
  "bbox": [
    -74.134686,
    40.647333,
    -74.134686,
    40.647333
],
  "geometry": {"coordinates":[-74.134686,40.647333],"type":"Point"}
}