{
  "id": 554936929,
  "type": "Feature",
  "properties": {
    "edtf:cessation":"uuuu",
    "edtf:inception":"uuuu",
    "geom:area":0.0,
    "geom:bbox":"-73.66099,41.011386,-73.66099,41.011386",
    "geom:latitude":41.011386,
    "geom:longitude":-73.66099,
    "iso:country":"US",
    "sg:address":"234 Mortimer St",
    "sg:city":"Port Chester",
    "sg:classifiers":[
        {
            "category":"Professional",
            "subcategory":"Management & Consulting",
            "type":"Services"
        }
    ],
    "sg:owner":"simplegeo",
    "sg:phone":"+1 914 937 2266",
    "sg:postcode":"10573",
    "sg:province":"NY",
    "sg:tags":[
        "newspaper",
        "delivery"
    ],
    "src:geom":"simplegeo",
    "wof:belongsto":[
        85885307,
        102191575,
        404495949,
        85633793,
        85930941,
        102084283,
        85688629,
        420530431,
        404523389,
        85978705,
        102082373,
        85688543
    ],
    "wof:breaches":[],
    "wof:concordances":{
        "sg:id":"SG_0t1AEfXKY8gVHdRvW4PPnV_41.011386_-73.660990@1294177022"
    },
    "wof:country":"US",
    "wof:geomhash":"133f3b37d13ca2ab2c0c3e70b8c5ca79",
    "wof:hierarchy":[
        {
            "continent_id":102191575,
            "country_id":85633793,
            "county_id":102084283,
            "localadmin_id":404495949,
            "locality_id":85930941,
            "neighbourhood_id":85885307,
            "region_id":85688629,
            "venue_id":554936929
        },
        {
            "continent_id":102191575,
            "country_id":85633793,
            "county_id":102082373,
            "localadmin_id":404523389,
            "locality_id":85978705,
            "neighbourhood_id":420530431,
            "region_id":85688543,
            "venue_id":554936929
        }
    ],
    "wof:id":554936929,
    "wof:lastmodified":1461017294,
    "wof:name":"Home Newspaper Svc Inc",
    "wof:parent_id":-1,
    "wof:placetype":"venue",
    "wof:superseded_by":[],
    "wof:supersedes":[],
    "wof:tags":[
        "newspaper",
        "delivery"
    ]
},
  "bbox": [
    -73.66099,
    41.011386,
    -73.66099,
    41.011386
],
  "geometry": {"coordinates":[-73.66099,41.011386],"type":"Point"}
}