{
  "id": 554935119,
  "type": "Feature",
  "properties": {
    "edtf:cessation":"uuuu",
    "edtf:inception":"uuuu",
    "geom:area":0.0,
    "geom:bbox":"-73.526472,41.143116,-73.526472,41.143116",
    "geom:latitude":41.143116,
    "geom:longitude":-73.526472,
    "iso:country":"US",
    "sg:address":"75 Arrow Head Trl",
    "sg:city":"New Canaan",
    "sg:classifiers":[
        {
            "category":"Real Estate",
            "subcategory":"Real Estate Operator",
            "type":"Services"
        }
    ],
    "sg:owner":"simplegeo",
    "sg:phone":"+1 203 972 5705",
    "sg:postcode":"06840",
    "sg:province":"NY",
    "sg:tags":[
        "building",
        "nonresidential"
    ],
    "src:geom":"simplegeo",
    "wof:belongsto":[
        85688629,
        85633793,
        85842701,
        102084283
    ],
    "wof:breaches":[],
    "wof:concordances":{
        "sg:id":"SG_3vhz7RBCk7ln3Wq1Dfg0VV_41.143116_-73.526472@1294177022"
    },
    "wof:country":"US",
    "wof:geomhash":"df3d1c67aa20f070a76bbe594540fd22",
    "wof:hierarchy":[
        {
            "country_id":85633793,
            "county_id":102084283,
            "neighbourhood_id":85842701,
            "region_id":85688629,
            "venue_id":554935119
        }
    ],
    "wof:id":554935119,
    "wof:lastmodified":1461017026,
    "wof:name":"Arrowhead Properties LLC",
    "wof:parent_id":85842701,
    "wof:placetype":"venue",
    "wof:superseded_by":[],
    "wof:supersedes":[],
    "wof:tags":[
        "building",
        "nonresidential"
    ]
},
  "bbox": [
    -73.526472,
    41.143116,
    -73.526472,
    41.143116
],
  "geometry": {"coordinates":[-73.526472,41.143116],"type":"Point"}
}