{
  "id": 554934941,
  "type": "Feature",
  "properties": {
    "edtf:cessation":"uuuu",
    "edtf:inception":"uuuu",
    "geom:area":0.0,
    "geom:bbox":"-73.495531,41.157045,-73.495531,41.157045",
    "geom:latitude":41.157045,
    "geom:longitude":-73.495531,
    "iso:country":"US",
    "sg:address":"75 Parade Hill Rd",
    "sg:city":"New Canaan",
    "sg:classifiers":[
        {
            "category":"Government",
            "subcategory":"Court House",
            "type":"Public Place"
        }
    ],
    "sg:owner":"simplegeo",
    "sg:phone":"+1 203 966 9897",
    "sg:postcode":"06840",
    "sg:province":"NY",
    "sg:tags":[
        "justice",
        "peace"
    ],
    "src:geom":"simplegeo",
    "wof:belongsto":[],
    "wof:breaches":[],
    "wof:concordances":{
        "sg:id":"SG_79R1SqNca5jI5iYGCnmQlh_41.157045_-73.495531@1294177022"
    },
    "wof:country":"US",
    "wof:geomhash":"a9fd5a724c2a5df5657912ddabcff0ee",
    "wof:hierarchy":[],
    "wof:id":554934941,
    "wof:lastmodified":1461017002,
    "wof:name":"Sydney Greenberg",
    "wof:parent_id":-1,
    "wof:placetype":"venue",
    "wof:superseded_by":[],
    "wof:supersedes":[],
    "wof:tags":[
        "justice",
        "peace"
    ]
},
  "bbox": [
    -73.495531,
    41.157045,
    -73.495531,
    41.157045
],
  "geometry": {"coordinates":[-73.495531,41.157045],"type":"Point"}
}