{
  "id": 571596223,
  "type": "Feature",
  "properties": {
    "edtf:cessation":"uuuu",
    "edtf:inception":"uuuu",
    "geom:area":0.0,
    "geom:bbox":"-72.711098,40.826,-72.711098,40.826",
    "geom:latitude":40.826,
    "geom:longitude":-72.711098,
    "iso:country":"US",
    "sg:address":"90 Drew Dr",
    "sg:city":"Eastport",
    "sg:classifiers":[
        {
            "category":"Building & Trades",
            "subcategory":"Plumbing",
            "type":"Services"
        }
    ],
    "sg:owner":"simplegeo",
    "sg:phone":"+1 631 325 2271",
    "sg:postcode":"11941",
    "sg:province":"NY",
    "sg:tags":[
        "plumber",
        "contractor"
    ],
    "src:geom":"simplegeo",
    "wof:belongsto":[],
    "wof:breaches":[],
    "wof:concordances":{
        "sg:id":"SG_1UkOeeSE4XvnsiufpSYqIL_40.826176_-72.711162@1293134755"
    },
    "wof:country":"US",
    "wof:geomhash":"eb79e0783706be67e1e1d3035ca5405b",
    "wof:hierarchy":[],
    "wof:id":571596223,
    "wof:lastmodified":1461039268,
    "wof:name":"Tryad Plumbing & Heating",
    "wof:parent_id":-1,
    "wof:placetype":"venue",
    "wof:superseded_by":[],
    "wof:supersedes":[],
    "wof:tags":[
        "plumber",
        "contractor"
    ]
},
  "bbox": [
    -72.711098,
    40.826,
    -72.711098,
    40.826
],
  "geometry": {"coordinates":[-72.71109800000001,40.826],"type":"Point"}
}