{
  "id": 554934085,
  "type": "Feature",
  "properties": {
    "edtf:cessation":"uuuu",
    "edtf:inception":"uuuu",
    "geom:area":0.0,
    "geom:bbox":"-73.480553,41.129268,-73.480553,41.129268",
    "geom:latitude":41.129268,
    "geom:longitude":-73.480553,
    "iso:country":"US",
    "sg:address":"64 Butler Ln",
    "sg:city":"New Canaan",
    "sg:classifiers":[
        {
            "category":"Professional",
            "subcategory":"Management & Consulting",
            "type":"Services"
        }
    ],
    "sg:owner":"simplegeo",
    "sg:phone":"+1   ",
    "sg:postcode":"06840",
    "sg:province":"NY",
    "src:geom":"simplegeo",
    "wof:belongsto":[
        85688629,
        85633793,
        85851779,
        102084283
    ],
    "wof:breaches":[],
    "wof:concordances":{
        "sg:id":"SG_6VHYI1lHcv2MwjBRCkqZpr_41.129268_-73.480553@1294177022"
    },
    "wof:country":"US",
    "wof:geomhash":"844b5c5559c590a97ed2db0a978d80b9",
    "wof:hierarchy":[
        {
            "country_id":85633793,
            "county_id":102084283,
            "neighbourhood_id":85851779,
            "region_id":85688629,
            "venue_id":554934085
        }
    ],
    "wof:id":554934085,
    "wof:lastmodified":1461016898,
    "wof:name":"Ammonite Capital Partners LP",
    "wof:parent_id":85851779,
    "wof:placetype":"venue",
    "wof:superseded_by":[],
    "wof:supersedes":[],
    "wof:tags":[]
},
  "bbox": [
    -73.480553,
    41.129268,
    -73.480553,
    41.129268
],
  "geometry": {"coordinates":[-73.480553,41.129268],"type":"Point"}
}