{
  "id": 554937949,
  "type": "Feature",
  "properties": {
    "edtf:cessation":"uuuu",
    "edtf:inception":"uuuu",
    "geom:area":0.0,
    "geom:bbox":"-73.237532,42.501885,-73.237532,42.501885",
    "geom:latitude":42.501885,
    "geom:longitude":-73.237532,
    "iso:country":"US",
    "sg:address":"545 S Main St",
    "sg:city":"Lanesboro",
    "sg:classifiers":[
        {
            "category":"Government",
            "subcategory":"Post Office",
            "type":"Public Place"
        }
    ],
    "sg:owner":"simplegeo",
    "sg:phone":"+1 413 499 0850",
    "sg:postcode":"01237",
    "sg:province":"NY",
    "sg:website":"www.usps.com",
    "src:geom":"simplegeo",
    "wof:belongsto":[
        85688645,
        85633793,
        85829509,
        102084369
    ],
    "wof:breaches":[],
    "wof:concordances":{
        "sg:id":"SG_2n5wdL4XnmEyDNyTbWlYOd_42.501885_-73.237532@1294177022"
    },
    "wof:country":"US",
    "wof:geomhash":"46fcac682dccbad4eed061aecd77d69e",
    "wof:hierarchy":[
        {
            "country_id":85633793,
            "county_id":102084369,
            "neighbourhood_id":85829509,
            "region_id":85688645,
            "venue_id":554937949
        }
    ],
    "wof:id":554937949,
    "wof:lastmodified":1461017432,
    "wof:name":"US Post Office",
    "wof:parent_id":85829509,
    "wof:placetype":"venue",
    "wof:superseded_by":[],
    "wof:supersedes":[],
    "wof:tags":[]
},
  "bbox": [
    -73.237532,
    42.501885,
    -73.237532,
    42.501885
],
  "geometry": {"coordinates":[-73.237532,42.501885],"type":"Point"}
}