{
  "id": 554935511,
  "type": "Feature",
  "properties": {
    "edtf:cessation":"uuuu",
    "edtf:inception":"uuuu",
    "geom:area":0.0,
    "geom:bbox":"-79.73363,42.11933,-79.73363,42.11933",
    "geom:latitude":42.11933,
    "geom:longitude":-79.73363,
    "iso:country":"US",
    "sg:address":"10386 Main St",
    "sg:city":"Findley Lake",
    "sg:classifiers":[
        {
            "category":"Shopping",
            "subcategory":"Gifts & Souvenirs",
            "type":"Retail Goods"
        }
    ],
    "sg:owner":"simplegeo",
    "sg:phone":"+1 716 769 7700",
    "sg:postcode":"14736",
    "sg:province":"NY",
    "sg:tags":[
        "shop"
    ],
    "src:geom":"simplegeo",
    "wof:belongsto":[
        85688481,
        85633793,
        85850957,
        102080955
    ],
    "wof:breaches":[],
    "wof:concordances":{
        "sg:id":"SG_6Yj7aKKWvXq5moeHMUHdAV_42.119330_-79.733630@1294177022"
    },
    "wof:country":"US",
    "wof:geomhash":"bfcdd645afc10a0344c45b4f2e451777",
    "wof:hierarchy":[
        {
            "country_id":85633793,
            "county_id":102080955,
            "neighbourhood_id":85850957,
            "region_id":85688481,
            "venue_id":554935511
        }
    ],
    "wof:id":554935511,
    "wof:lastmodified":1461017083,
    "wof:name":"Morgen & Co",
    "wof:parent_id":85850957,
    "wof:placetype":"venue",
    "wof:superseded_by":[],
    "wof:supersedes":[],
    "wof:tags":[
        "shop"
    ]
},
  "bbox": [
    -79.73363,
    42.11933,
    -79.73363,
    42.11933
],
  "geometry": {"coordinates":[-79.73363000000001,42.11933],"type":"Point"}
}