{
  "id": 555448051,
  "type": "Feature",
  "properties": {
    "edtf:cessation":"uuuu",
    "edtf:inception":"uuuu",
    "geom:area":0.0,
    "geom:bbox":"-79.037854,42.639796,-79.037854,42.639796",
    "geom:latitude":42.639796,
    "geom:longitude":-79.037854,
    "iso:country":"US",
    "sg:address":"11 Franklyn Dr",
    "sg:city":"Angola",
    "sg:classifiers":[
        {
            "category":"Shopping",
            "subcategory":"",
            "type":"Retail Goods"
        }
    ],
    "sg:owner":"simplegeo",
    "sg:phone":"+1   ",
    "sg:postcode":"14006",
    "sg:province":"NY",
    "sg:tags":[
        "merchandise"
    ],
    "src:geom":"simplegeo",
    "wof:belongsto":[],
    "wof:breaches":[],
    "wof:concordances":{
        "sg:id":"SG_2QRpdHarEe3QcpHp0JxIjD_42.639796_-79.037854@1294177022"
    },
    "wof:country":"US",
    "wof:geomhash":"bd4481f23aeaea5f88775b65c5afc728",
    "wof:hierarchy":[],
    "wof:id":555448051,
    "wof:lastmodified":1461030069,
    "wof:name":"Dough Litefuls",
    "wof:parent_id":420528621,
    "wof:placetype":"venue",
    "wof:superseded_by":[],
    "wof:supersedes":[],
    "wof:tags":[
        "merchandise"
    ]
},
  "bbox": [
    -79.037854,
    42.639796,
    -79.037854,
    42.639796
],
  "geometry": {"coordinates":[-79.037854,42.639796],"type":"Point"}
}