{
  "id": 554937263,
  "type": "Feature",
  "properties": {
    "edtf:cessation":"uuuu",
    "edtf:inception":"uuuu",
    "geom:area":0.0,
    "geom:bbox":"-73.498011,41.146049,-73.498011,41.146049",
    "geom:latitude":41.146049,
    "geom:longitude":-73.498011,
    "iso:country":"US",
    "sg:address":"215 Elm St",
    "sg:city":"New Canaan",
    "sg:classifiers":[
        {
            "category":"Retail",
            "subcategory":"Laundry & Dry Cleaning",
            "type":"Services"
        }
    ],
    "sg:owner":"simplegeo",
    "sg:phone":"+1 203 966 3962",
    "sg:postcode":"06840",
    "sg:province":"NY",
    "sg:tags":[
        "cleaners"
    ],
    "src:geom":"simplegeo",
    "wof:belongsto":[
        85688629,
        85633793,
        85851779,
        102084283
    ],
    "wof:breaches":[],
    "wof:concordances":{
        "sg:id":"SG_6cihywYg4uwvZ35bk18blV_41.146049_-73.498011@1294177022"
    },
    "wof:country":"US",
    "wof:geomhash":"5bf3460fd439a33fce62ae7ceeae1901",
    "wof:hierarchy":[
        {
            "country_id":85633793,
            "county_id":102084283,
            "neighbourhood_id":85851779,
            "region_id":85688629,
            "venue_id":554937263
        }
    ],
    "wof:id":554937263,
    "wof:lastmodified":1461017342,
    "wof:name":"Sandas",
    "wof:parent_id":85851779,
    "wof:placetype":"venue",
    "wof:superseded_by":[],
    "wof:supersedes":[],
    "wof:tags":[
        "cleaners"
    ]
},
  "bbox": [
    -73.498011,
    41.146049,
    -73.498011,
    41.146049
],
  "geometry": {"coordinates":[-73.49801100000001,41.146049],"type":"Point"}
}