{
  "id": 554934345,
  "type": "Feature",
  "properties": {
    "edtf:cessation":"uuuu",
    "edtf:inception":"uuuu",
    "geom:area":0.0,
    "geom:bbox":"-79.753124,42.269351,-79.753124,42.269351",
    "geom:latitude":42.269351,
    "geom:longitude":-79.753124,
    "iso:country":"US",
    "sg:address":"10645 W Lake Rd",
    "sg:city":"Ripley",
    "sg:classifiers":[
        {
            "category":"Farming",
            "subcategory":"Vineyard",
            "type":"Manufacturing & Wholesale Goods"
        }
    ],
    "sg:owner":"simplegeo",
    "sg:phone":"+1 716 736 7682",
    "sg:postcode":"14775",
    "sg:province":"NY",
    "sg:tags":[
        "grape"
    ],
    "src:geom":"simplegeo",
    "wof:belongsto":[
        85688481,
        85633793,
        85850957,
        102080955
    ],
    "wof:breaches":[],
    "wof:concordances":{
        "sg:id":"SG_3Jm6rFL85lqsfWuIVdaTlZ_42.269351_-79.753124@1294177022"
    },
    "wof:country":"US",
    "wof:geomhash":"8e402801dcca3e011d20218e845bea6a",
    "wof:hierarchy":[
        {
            "country_id":85633793,
            "county_id":102080955,
            "neighbourhood_id":85850957,
            "region_id":85688481,
            "venue_id":554934345
        }
    ],
    "wof:id":554934345,
    "wof:lastmodified":1461016929,
    "wof:name":"William A Ducey",
    "wof:parent_id":85850957,
    "wof:placetype":"venue",
    "wof:superseded_by":[],
    "wof:supersedes":[],
    "wof:tags":[
        "grape"
    ]
},
  "bbox": [
    -79.753124,
    42.269351,
    -79.753124,
    42.269351
],
  "geometry": {"coordinates":[-79.753124,42.269351],"type":"Point"}
}