{
  "id": 571668845,
  "type": "Feature",
  "properties": {
    "edtf:cessation":"uuuu",
    "edtf:inception":"uuuu",
    "geom:area":0.0,
    "geom:bbox":"-74.022479,41.52034,-74.022479,41.52034",
    "geom:latitude":41.52034,
    "geom:longitude":-74.022479,
    "iso:country":"US",
    "sg:address":"8 N Plank Rd",
    "sg:city":"Newburgh",
    "sg:classifiers":[],
    "sg:owner":"simplegeo",
    "sg:phone":"+1 845 565 2871",
    "sg:postcode":"12550",
    "sg:province":"NY",
    "sg:tags":[
        "oil",
        "gasoline"
    ],
    "src:geom":"simplegeo",
    "wof:belongsto":[],
    "wof:breaches":[],
    "wof:concordances":{
        "sg:id":"SG_7Z8tGwiNMhFihEl3b9bajF_41.520340_-74.022479@1294177022"
    },
    "wof:country":"US",
    "wof:geomhash":"4817939e7fc67ebd6920d7a2012a52b5",
    "wof:hierarchy":[],
    "wof:id":571668845,
    "wof:lastmodified":1461040908,
    "wof:name":"Elite Gas Three Inc",
    "wof:parent_id":-1,
    "wof:placetype":"venue",
    "wof:superseded_by":[],
    "wof:supersedes":[],
    "wof:tags":[
        "oil",
        "gasoline"
    ]
},
  "bbox": [
    -74.022479,
    41.52034,
    -74.022479,
    41.52034
],
  "geometry": {"coordinates":[-74.022479,41.52034],"type":"Point"}
}