{
  "id": 554937679,
  "type": "Feature",
  "properties": {
    "edtf:cessation":"uuuu",
    "edtf:inception":"uuuu",
    "geom:area":0.0,
    "geom:bbox":"-73.493287,41.114506,-73.493287,41.114506",
    "geom:latitude":41.114506,
    "geom:longitude":-73.493287,
    "iso:country":"US",
    "sg:address":"71 Talmadge Hill Rd",
    "sg:city":"New Canaan",
    "sg:classifiers":[
        {
            "category":"Professional",
            "subcategory":"Computer Services",
            "type":"Services"
        }
    ],
    "sg:owner":"simplegeo",
    "sg:phone":"+1   ",
    "sg:postcode":"06840",
    "sg:province":"NY",
    "sg:tags":[
        "related"
    ],
    "src:geom":"simplegeo",
    "wof:belongsto":[
        85688629,
        85633793,
        85851779,
        102084283
    ],
    "wof:breaches":[],
    "wof:concordances":{
        "sg:id":"SG_3Bqexk67OaKXIkCWB2FNJX_41.114506_-73.493287@1294177022"
    },
    "wof:country":"US",
    "wof:geomhash":"be5c9d0378efa15c99e083a297b8d5ab",
    "wof:hierarchy":[
        {
            "country_id":85633793,
            "county_id":102084283,
            "neighbourhood_id":85851779,
            "region_id":85688629,
            "venue_id":554937679
        }
    ],
    "wof:id":554937679,
    "wof:lastmodified":1461017404,
    "wof:name":"Alstan Assoc Inc",
    "wof:parent_id":85851779,
    "wof:placetype":"venue",
    "wof:superseded_by":[],
    "wof:supersedes":[],
    "wof:tags":[
        "related"
    ]
},
  "bbox": [
    -73.493287,
    41.114506,
    -73.493287,
    41.114506
],
  "geometry": {"coordinates":[-73.493287,41.114506],"type":"Point"}
}