{
  "id": 554941491,
  "type": "Feature",
  "properties": {
    "edtf:cessation":"uuuu",
    "edtf:inception":"uuuu",
    "geom:area":0.0,
    "geom:bbox":"-74.113768,41.095225,-74.113768,41.095225",
    "geom:latitude":41.095225,
    "geom:longitude":-74.113768,
    "iso:country":"US",
    "sg:address":"3 Potter Ln",
    "sg:city":"Suffern",
    "sg:classifiers":[
        {
            "category":"Insurance",
            "subcategory":"Hazard Insurance",
            "type":"Services"
        }
    ],
    "sg:owner":"simplegeo",
    "sg:phone":"+1 845 357 7621",
    "sg:postcode":"10901",
    "sg:province":"NY",
    "sg:tags":[
        "carrier"
    ],
    "src:geom":"simplegeo",
    "wof:belongsto":[
        85832837,
        102191575,
        404523097,
        85633793,
        85978559,
        102082385,
        85688543
    ],
    "wof:breaches":[],
    "wof:concordances":{
        "sg:id":"SG_0PflTNmaKpaqE5SQ9IIu1x_41.095225_-74.113768@1294177022"
    },
    "wof:country":"US",
    "wof:geomhash":"56f839c5d9b79c1f975b233e0bc17424",
    "wof:hierarchy":[
        {
            "continent_id":102191575,
            "country_id":85633793,
            "county_id":102082385,
            "localadmin_id":404523097,
            "locality_id":85978559,
            "neighbourhood_id":85832837,
            "region_id":85688543,
            "venue_id":554941491
        }
    ],
    "wof:id":554941491,
    "wof:lastmodified":1461017764,
    "wof:name":"Xmarx Inc",
    "wof:parent_id":85832837,
    "wof:placetype":"venue",
    "wof:superseded_by":[],
    "wof:supersedes":[],
    "wof:tags":[
        "carrier"
    ]
},
  "bbox": [
    -74.113768,
    41.095225,
    -74.113768,
    41.095225
],
  "geometry": {"coordinates":[-74.11376799999999,41.095225],"type":"Point"}
}