{
  "id": 554940939,
  "type": "Feature",
  "properties": {
    "edtf:cessation":"uuuu",
    "edtf:inception":"uuuu",
    "geom:area":0.0,
    "geom:bbox":"-74.146241,41.106175,-74.146241,41.106175",
    "geom:latitude":41.106175,
    "geom:longitude":-74.146241,
    "iso:country":"US",
    "sg:address":"10 Interstate St",
    "sg:city":"Suffern",
    "sg:classifiers":[
        {
            "category":"Real Estate",
            "subcategory":"Real Estate Agent",
            "type":"Services"
        }
    ],
    "sg:owner":"simplegeo",
    "sg:phone":"+1 845 357 6305",
    "sg:postcode":"10901",
    "sg:province":"NY",
    "src:geom":"simplegeo",
    "wof:belongsto":[
        85855885,
        102191575,
        404523097,
        85633793,
        85978523,
        102082385,
        85688543
    ],
    "wof:breaches":[],
    "wof:concordances":{
        "sg:id":"SG_020BWaOpLg40lLUGJXDJcK_41.106175_-74.146241@1294177022"
    },
    "wof:country":"US",
    "wof:geomhash":"5cd39a999ccab3b9be4801049cec12a4",
    "wof:hierarchy":[
        {
            "continent_id":102191575,
            "country_id":85633793,
            "county_id":102082385,
            "localadmin_id":404523097,
            "locality_id":85978523,
            "neighbourhood_id":85855885,
            "region_id":85688543,
            "venue_id":554940939
        }
    ],
    "wof:id":554940939,
    "wof:lastmodified":1461017691,
    "wof:name":"Zucatti Realty Corp",
    "wof:parent_id":85855885,
    "wof:placetype":"venue",
    "wof:superseded_by":[],
    "wof:supersedes":[],
    "wof:tags":[]
},
  "bbox": [
    -74.146241,
    41.106175,
    -74.146241,
    41.106175
],
  "geometry": {"coordinates":[-74.146241,41.106175],"type":"Point"}
}