{
  "id": 554941127,
  "type": "Feature",
  "properties": {
    "edtf:cessation":"uuuu",
    "edtf:inception":"uuuu",
    "geom:area":0.0,
    "geom:bbox":"-73.649564,41.036476,-73.649564,41.036476",
    "geom:latitude":41.036476,
    "geom:longitude":-73.649564,
    "iso:country":"US",
    "sg:address":"106 Glenville Rd",
    "sg:city":"Greenwich",
    "sg:classifiers":[
        {
            "category":"Professional",
            "subcategory":"",
            "type":"Services"
        }
    ],
    "sg:owner":"simplegeo",
    "sg:phone":"+1 203 661 9282",
    "sg:postcode":"06831",
    "sg:province":"NY",
    "src:geom":"simplegeo",
    "wof:belongsto":[
        420555529,
        102191575,
        404495949,
        85633793,
        85930941,
        102084283,
        85688629
    ],
    "wof:breaches":[],
    "wof:concordances":{
        "sg:id":"SG_4yvhqPV3aOlBX7llyWqWZd_41.036476_-73.649564@1294177022"
    },
    "wof:country":"US",
    "wof:geomhash":"eda3785ca462f8048793cc6f8db78d75",
    "wof:hierarchy":[
        {
            "continent_id":102191575,
            "country_id":85633793,
            "county_id":102084283,
            "localadmin_id":404495949,
            "locality_id":85930941,
            "neighbourhood_id":420555529,
            "region_id":85688629,
            "venue_id":554941127
        }
    ],
    "wof:id":554941127,
    "wof:lastmodified":1461017713,
    "wof:name":"Isabelle R Leeds",
    "wof:parent_id":420555529,
    "wof:placetype":"venue",
    "wof:superseded_by":[],
    "wof:supersedes":[],
    "wof:tags":[]
},
  "bbox": [
    -73.649564,
    41.036476,
    -73.649564,
    41.036476
],
  "geometry": {"coordinates":[-73.649564,41.036476],"type":"Point"}
}