{
  "id": 555207365,
  "type": "Feature",
  "properties": {
    "edtf:cessation":"uuuu",
    "edtf:inception":"uuuu",
    "geom:area":0.0,
    "geom:bbox":"-73.782939,41.140177,-73.782939,41.140177",
    "geom:latitude":41.140177,
    "geom:longitude":-73.782939,
    "iso:country":"US",
    "sg:address":"22 Clark St",
    "sg:city":"Pleasantville",
    "sg:classifiers":[
        {
            "category":"Real Estate",
            "subcategory":"Real Estate Operator",
            "type":"Services"
        }
    ],
    "sg:owner":"simplegeo",
    "sg:phone":"+1 914 747 4240",
    "sg:postcode":"10570",
    "sg:province":"NY",
    "sg:tags":[
        "building",
        "nonresidential"
    ],
    "src:geom":"simplegeo",
    "wof:belongsto":[],
    "wof:breaches":[],
    "wof:concordances":{
        "sg:id":"SG_5RmCyYbTnW3wpvuVVHu355_41.140177_-73.782939@1294177022"
    },
    "wof:country":"US",
    "wof:geomhash":"174001ad829d0997efda06e2414ac5ae",
    "wof:hierarchy":[],
    "wof:id":555207365,
    "wof:lastmodified":1461024397,
    "wof:name":"437 Faile Street Realty Corp",
    "wof:parent_id":-1,
    "wof:placetype":"venue",
    "wof:superseded_by":[],
    "wof:supersedes":[],
    "wof:tags":[
        "building",
        "nonresidential"
    ]
},
  "bbox": [
    -73.782939,
    41.140177,
    -73.782939,
    41.140177
],
  "geometry": {"coordinates":[-73.782939,41.140177],"type":"Point"}
}