{
  "id": 554939995,
  "type": "Feature",
  "properties": {
    "edtf:cessation":"uuuu",
    "edtf:inception":"uuuu",
    "geom:area":0.0,
    "geom:bbox":"-73.650448,41.100772,-73.650448,41.100772",
    "geom:latitude":41.100772,
    "geom:longitude":-73.650448,
    "iso:country":"US",
    "sg:address":"881 Lake Ave",
    "sg:city":"Greenwich",
    "sg:classifiers":[
        {
            "category":"Real Estate",
            "subcategory":"Real Estate Operator",
            "type":"Services"
        }
    ],
    "sg:owner":"simplegeo",
    "sg:phone":"+1 203 861 4129",
    "sg:postcode":"06831",
    "sg:province":"NY",
    "sg:tags":[
        "building",
        "nonresidential"
    ],
    "src:geom":"simplegeo",
    "wof:belongsto":[
        85688629,
        85633793,
        85850923,
        102084283
    ],
    "wof:breaches":[],
    "wof:concordances":{
        "sg:id":"SG_6AWQf3aGgKJCjqcTNXszvp_41.100772_-73.650448@1294177022"
    },
    "wof:country":"US",
    "wof:geomhash":"a29472f6cf11f0e8354e7c2d3550482c",
    "wof:hierarchy":[
        {
            "country_id":85633793,
            "county_id":102084283,
            "neighbourhood_id":85850923,
            "region_id":85688629,
            "venue_id":554939995
        }
    ],
    "wof:id":554939995,
    "wof:lastmodified":1461017614,
    "wof:name":"Greenwich Lake Ave Properties",
    "wof:parent_id":85850923,
    "wof:placetype":"venue",
    "wof:superseded_by":[],
    "wof:supersedes":[],
    "wof:tags":[
        "building",
        "nonresidential"
    ]
},
  "bbox": [
    -73.650448,
    41.100772,
    -73.650448,
    41.100772
],
  "geometry": {"coordinates":[-73.650448,41.100772],"type":"Point"}
}