{
  "id": 554934453,
  "type": "Feature",
  "properties": {
    "edtf:cessation":"uuuu",
    "edtf:inception":"uuuu",
    "geom:area":0.0,
    "geom:bbox":"-73.496318,41.146291,-73.496318,41.146291",
    "geom:latitude":41.146291,
    "geom:longitude":-73.496318,
    "iso:country":"US",
    "sg:address":"244 Elm St",
    "sg:city":"New Canaan",
    "sg:classifiers":[
        {
            "category":"Professional",
            "subcategory":"Lawyer & Legal Services",
            "type":"Services"
        }
    ],
    "sg:owner":"simplegeo",
    "sg:phone":"+1 203 966 4336",
    "sg:postcode":"06840",
    "sg:province":"NY",
    "sg:tags":[
        "attorney"
    ],
    "src:geom":"simplegeo",
    "wof:belongsto":[
        85688629,
        85633793,
        85851779,
        102084283
    ],
    "wof:breaches":[],
    "wof:concordances":{
        "sg:id":"SG_27PLuHyCEuPkgDuK9kurS4_41.146291_-73.496318@1294177022"
    },
    "wof:country":"US",
    "wof:geomhash":"cfa2926a3fff3c90f9f79526e5d9e050",
    "wof:hierarchy":[
        {
            "country_id":85633793,
            "county_id":102084283,
            "neighbourhood_id":85851779,
            "region_id":85688629,
            "venue_id":554934453
        }
    ],
    "wof:id":554934453,
    "wof:lastmodified":1461016942,
    "wof:name":"Walter A Stewart Jr",
    "wof:parent_id":85851779,
    "wof:placetype":"venue",
    "wof:superseded_by":[],
    "wof:supersedes":[],
    "wof:tags":[
        "attorney"
    ]
},
  "bbox": [
    -73.496318,
    41.146291,
    -73.496318,
    41.146291
],
  "geometry": {"coordinates":[-73.496318,41.146291],"type":"Point"}
}