{
  "id": 554934743,
  "type": "Feature",
  "properties": {
    "edtf:cessation":"uuuu",
    "edtf:inception":"uuuu",
    "geom:area":0.0,
    "geom:bbox":"-73.474839,41.125347,-73.474839,41.125347",
    "geom:latitude":41.125347,
    "geom:longitude":-73.474839,
    "iso:country":"US",
    "sg:address":"26 Shagbark Dr",
    "sg:city":"New Canaan",
    "sg:classifiers":[
        {
            "category":"Professional",
            "subcategory":"Management & Consulting",
            "type":"Services"
        }
    ],
    "sg:owner":"simplegeo",
    "sg:phone":"+1   ",
    "sg:postcode":"06840",
    "sg:province":"NY",
    "sg:tags":[
        "advisory",
        "financial"
    ],
    "src:geom":"simplegeo",
    "wof:belongsto":[
        85688629,
        85633793,
        85851779,
        102084283
    ],
    "wof:breaches":[],
    "wof:concordances":{
        "sg:id":"SG_5SXDhOcodEm0lkJgwqF6me_41.125347_-73.474839@1294177022"
    },
    "wof:country":"US",
    "wof:geomhash":"de4095ee2e443bce7ba3e77fb8927136",
    "wof:hierarchy":[
        {
            "country_id":85633793,
            "county_id":102084283,
            "neighbourhood_id":85851779,
            "region_id":85688629,
            "venue_id":554934743
        }
    ],
    "wof:id":554934743,
    "wof:lastmodified":1461016979,
    "wof:name":"Canaan Financial Group LLC",
    "wof:parent_id":85851779,
    "wof:placetype":"venue",
    "wof:superseded_by":[],
    "wof:supersedes":[],
    "wof:tags":[
        "advisory",
        "financial"
    ]
},
  "bbox": [
    -73.474839,
    41.125347,
    -73.474839,
    41.125347
],
  "geometry": {"coordinates":[-73.474839,41.125347],"type":"Point"}
}