{
  "id": 554935067,
  "type": "Feature",
  "properties": {
    "edtf:cessation":"uuuu",
    "edtf:inception":"uuuu",
    "geom:area":0.0,
    "geom:bbox":"-77.309125,41.986838,-77.309125,41.986838",
    "geom:latitude":41.986838,
    "geom:longitude":-77.309125,
    "iso:country":"US",
    "sg:address":"309 E Main St",
    "sg:city":"Elkland",
    "sg:classifiers":[
        {
            "category":"Organizations",
            "subcategory":"Religious Organization",
            "type":"Services"
        }
    ],
    "sg:owner":"simplegeo",
    "sg:phone":"+1 814 258 5932",
    "sg:postcode":"16920",
    "sg:province":"NY",
    "sg:tags":[
        "church"
    ],
    "src:geom":"simplegeo",
    "wof:belongsto":[
        85688481,
        85633793,
        101717081,
        102080937,
        85807903
    ],
    "wof:breaches":[],
    "wof:concordances":{
        "sg:id":"SG_7dx2N1jtzZjKMVzWQAWIJa_41.986838_-77.309125@1294177022"
    },
    "wof:country":"US",
    "wof:geomhash":"d428f51fd5916f3ff955dd525780ddbe",
    "wof:hierarchy":[
        {
            "country_id":85633793,
            "county_id":102080937,
            "locality_id":101717081,
            "neighbourhood_id":85807903,
            "region_id":85688481,
            "venue_id":554935067
        }
    ],
    "wof:id":554935067,
    "wof:lastmodified":1461017019,
    "wof:name":"Wesley Chapel",
    "wof:parent_id":85807903,
    "wof:placetype":"venue",
    "wof:superseded_by":[],
    "wof:supersedes":[],
    "wof:tags":[
        "church"
    ]
},
  "bbox": [
    -77.309125,
    41.986838,
    -77.309125,
    41.986838
],
  "geometry": {"coordinates":[-77.30912499999999,41.986838],"type":"Point"}
}