{
  "id": 554937339,
  "type": "Feature",
  "properties": {
    "edtf:cessation":"uuuu",
    "edtf:inception":"uuuu",
    "geom:area":0.0,
    "geom:bbox":"-73.467173,44.04729,-73.467173,44.04729",
    "geom:latitude":44.04729,
    "geom:longitude":-73.467173,
    "iso:country":"US",
    "sg:address":"91 Broad St",
    "sg:city":"Port Henry",
    "sg:classifiers":[
        {
            "category":"Shopping",
            "subcategory":"Hobbies, Toys, & Games",
            "type":"Retail Goods"
        }
    ],
    "sg:owner":"simplegeo",
    "sg:phone":"+1 518 546 3420",
    "sg:postcode":"12974",
    "sg:province":"NY",
    "sg:tags":[
        "product",
        "ceramic"
    ],
    "src:geom":"simplegeo",
    "wof:belongsto":[
        85688763,
        85633793,
        85857981,
        102080765
    ],
    "wof:breaches":[],
    "wof:concordances":{
        "sg:id":"SG_2nWz10lqgBB3jERpgwC88i_44.047290_-73.467173@1294177022"
    },
    "wof:country":"US",
    "wof:geomhash":"1077e010209922dac40653d8ddf2cce8",
    "wof:hierarchy":[
        {
            "country_id":85633793,
            "county_id":102080765,
            "neighbourhood_id":85857981,
            "region_id":85688763,
            "venue_id":554937339
        }
    ],
    "wof:id":554937339,
    "wof:lastmodified":1461017354,
    "wof:name":"Adirondack Mouse House Ceramic",
    "wof:parent_id":85857981,
    "wof:placetype":"venue",
    "wof:superseded_by":[],
    "wof:supersedes":[],
    "wof:tags":[
        "product",
        "ceramic"
    ]
},
  "bbox": [
    -73.467173,
    44.04729,
    -73.467173,
    44.04729
],
  "geometry": {"coordinates":[-73.467173,44.04729],"type":"Point"}
}