{
  "id": 554940493,
  "type": "Feature",
  "properties": {
    "edtf:cessation":"uuuu",
    "edtf:inception":"uuuu",
    "geom:area":0.0,
    "geom:bbox":"-73.714534,41.084885,-73.714534,41.084885",
    "geom:latitude":41.084885,
    "geom:longitude":-73.714534,
    "iso:country":"US",
    "sg:address":"1375 King St",
    "sg:city":"Greenwich",
    "sg:classifiers":[
        {
            "category":"Wholesale",
            "subcategory":"Durable Goods & Equipment",
            "type":"Manufacturing & Wholesale Goods"
        }
    ],
    "sg:owner":"simplegeo",
    "sg:phone":"+1 203 531 9479",
    "sg:postcode":"06831",
    "sg:province":"NY",
    "src:geom":"simplegeo",
    "wof:belongsto":[
        85688629,
        85633793,
        85837667,
        102084283
    ],
    "wof:breaches":[],
    "wof:concordances":{
        "sg:id":"SG_20grdt5HR7ze2eNUnPy0hA_41.084885_-73.714534@1294177022"
    },
    "wof:country":"US",
    "wof:geomhash":"f14648e10bedc1bb89fd4c4526c63dc6",
    "wof:hierarchy":[
        {
            "country_id":85633793,
            "county_id":102084283,
            "neighbourhood_id":85837667,
            "region_id":85688629,
            "venue_id":554940493
        }
    ],
    "wof:id":554940493,
    "wof:lastmodified":1461017657,
    "wof:name":"Le Comte USA Inc",
    "wof:parent_id":85837667,
    "wof:placetype":"venue",
    "wof:superseded_by":[],
    "wof:supersedes":[],
    "wof:tags":[]
},
  "bbox": [
    -73.714534,
    41.084885,
    -73.714534,
    41.084885
],
  "geometry": {"coordinates":[-73.714534,41.084885],"type":"Point"}
}