{
  "id": 572175843,
  "type": "Feature",
  "properties": {
    "edtf:cessation":"uuuu",
    "edtf:inception":"uuuu",
    "geom:area":0.0,
    "geom:bbox":"-72.430475,41.341732,-72.430475,41.341732",
    "geom:latitude":41.341732,
    "geom:longitude":-72.430475,
    "iso:country":"US",
    "sg:address":"53155 Route 25",
    "sg:city":"Southold",
    "sg:classifiers":[
        {
            "category":"Personal",
            "subcategory":"Day Spa",
            "type":"Services"
        }
    ],
    "sg:owner":"simplegeo",
    "sg:phone":"+1 631 765 8917",
    "sg:postcode":"11971",
    "sg:province":"NY",
    "src:geom":"simplegeo",
    "wof:belongsto":[
        85688629,
        85633793,
        85842637,
        102086211
    ],
    "wof:breaches":[],
    "wof:concordances":{
        "sg:id":"SG_4uqVBFTab43JkMWG749m8g_41.341732_-72.430475@1303262384"
    },
    "wof:country":"US",
    "wof:geomhash":"13c071c8c1858ff35e25d9e360e59a70",
    "wof:hierarchy":[
        {
            "country_id":85633793,
            "county_id":102086211,
            "neighbourhood_id":85842637,
            "region_id":85688629,
            "venue_id":572175843
        }
    ],
    "wof:id":572175843,
    "wof:lastmodified":1461051593,
    "wof:name":"Indulge Day Spa",
    "wof:parent_id":85842637,
    "wof:placetype":"venue",
    "wof:superseded_by":[],
    "wof:supersedes":[],
    "wof:tags":[]
},
  "bbox": [
    -72.430475,
    41.341732,
    -72.430475,
    41.341732
],
  "geometry": {"coordinates":[-72.430475,41.341732],"type":"Point"}
}