{
  "id": 554938813,
  "type": "Feature",
  "properties": {
    "edtf:cessation":"uuuu",
    "edtf:inception":"uuuu",
    "geom:area":0.0,
    "geom:bbox":"-73.695718,41.11471,-73.695718,41.11471",
    "geom:latitude":41.11471,
    "geom:longitude":-73.695718,
    "iso:country":"US",
    "sg:address":"749 Riversville Rd",
    "sg:city":"Greenwich",
    "sg:classifiers":[
        {
            "category":"Professional",
            "subcategory":"Accounting & Tax Preparation",
            "type":"Services"
        }
    ],
    "sg:owner":"simplegeo",
    "sg:phone":"+1 203 629 9663",
    "sg:postcode":"06831",
    "sg:province":"NY",
    "sg:tags":[
        "accountant"
    ],
    "src:geom":"simplegeo",
    "wof:belongsto":[
        85688629,
        85633793,
        85837667,
        102084283
    ],
    "wof:breaches":[],
    "wof:concordances":{
        "sg:id":"SG_1asIjIQ1BN1w672U41bl1o_41.114710_-73.695718@1294177022"
    },
    "wof:country":"US",
    "wof:geomhash":"29f91751d9eb8d29da1e18515a18a2da",
    "wof:hierarchy":[
        {
            "country_id":85633793,
            "county_id":102084283,
            "neighbourhood_id":85837667,
            "region_id":85688629,
            "venue_id":554938813
        }
    ],
    "wof:id":554938813,
    "wof:lastmodified":1461017505,
    "wof:name":"Stephen L Walczak CPA",
    "wof:parent_id":85837667,
    "wof:placetype":"venue",
    "wof:superseded_by":[],
    "wof:supersedes":[],
    "wof:tags":[
        "accountant"
    ]
},
  "bbox": [
    -73.695718,
    41.11471,
    -73.695718,
    41.11471
],
  "geometry": {"coordinates":[-73.695718,41.11471],"type":"Point"}
}