{
  "id": 554935737,
  "type": "Feature",
  "properties": {
    "edtf:cessation":"uuuu",
    "edtf:inception":"uuuu",
    "geom:area":0.0,
    "geom:bbox":"-73.500767,41.194304,-73.500767,41.194304",
    "geom:latitude":41.194304,
    "geom:longitude":-73.500767,
    "iso:country":"US",
    "sg:address":"166 Briscoe Rd",
    "sg:city":"New Canaan",
    "sg:classifiers":[
        {
            "category":"Professional",
            "subcategory":"Computer Services",
            "type":"Services"
        }
    ],
    "sg:owner":"simplegeo",
    "sg:phone":"+1   ",
    "sg:postcode":"06840",
    "sg:province":"NY",
    "sg:tags":[
        "programing",
        "custom"
    ],
    "src:geom":"simplegeo",
    "wof:belongsto":[],
    "wof:breaches":[],
    "wof:concordances":{
        "sg:id":"SG_3LZeDTElNxWoE9k13VTMfa_41.194304_-73.500767@1294177022"
    },
    "wof:country":"US",
    "wof:geomhash":"7a7f5f1c6ff57d8314a4e1a744c7ff95",
    "wof:hierarchy":[],
    "wof:id":554935737,
    "wof:lastmodified":1461017112,
    "wof:name":"Computer Education Services",
    "wof:parent_id":-1,
    "wof:placetype":"venue",
    "wof:superseded_by":[],
    "wof:supersedes":[],
    "wof:tags":[
        "programing",
        "custom"
    ]
},
  "bbox": [
    -73.500767,
    41.194304,
    -73.500767,
    41.194304
],
  "geometry": {"coordinates":[-73.500767,41.194304],"type":"Point"}
}