{
  "id": 554936297,
  "type": "Feature",
  "properties": {
    "edtf:cessation":"uuuu",
    "edtf:inception":"uuuu",
    "geom:area":0.0,
    "geom:bbox":"-73.453864,41.155048,-73.453864,41.155048",
    "geom:latitude":41.155048,
    "geom:longitude":-73.453864,
    "iso:country":"US",
    "sg:address":"879 Silvermine Rd",
    "sg:city":"New Canaan",
    "sg:classifiers":[
        {
            "category":"Building & Trades",
            "subcategory":"Landscaping Services",
            "type":"Services"
        }
    ],
    "sg:owner":"simplegeo",
    "sg:phone":"+1 203 966 0865",
    "sg:postcode":"06840",
    "sg:province":"NY",
    "sg:tags":[
        "landscape",
        "contractor"
    ],
    "src:geom":"simplegeo",
    "wof:belongsto":[
        85688629,
        85633793,
        85848785,
        102084283
    ],
    "wof:breaches":[],
    "wof:concordances":{
        "sg:id":"SG_56v3dR5z5mWZDaCtGn4RhH_41.155048_-73.453864@1294177022"
    },
    "wof:country":"US",
    "wof:geomhash":"2b88c4798e83835b4da330fcca0d51de",
    "wof:hierarchy":[
        {
            "country_id":85633793,
            "county_id":102084283,
            "neighbourhood_id":85848785,
            "region_id":85688629,
            "venue_id":554936297
        }
    ],
    "wof:id":554936297,
    "wof:lastmodified":1461017196,
    "wof:name":"Silvermine Landscaping Corp",
    "wof:parent_id":85848785,
    "wof:placetype":"venue",
    "wof:superseded_by":[],
    "wof:supersedes":[],
    "wof:tags":[
        "landscape",
        "contractor"
    ]
},
  "bbox": [
    -73.453864,
    41.155048,
    -73.453864,
    41.155048
],
  "geometry": {"coordinates":[-73.453864,41.155048],"type":"Point"}
}