{
  "id": 554941645,
  "type": "Feature",
  "properties": {
    "edtf:cessation":"uuuu",
    "edtf:inception":"uuuu",
    "geom:area":0.0,
    "geom:bbox":"-73.664288,41.048216,-73.664288,41.048216",
    "geom:latitude":41.048216,
    "geom:longitude":-73.664288,
    "iso:country":"US",
    "sg:address":"175 Riversville Rd",
    "sg:city":"Greenwich",
    "sg:classifiers":[
        {
            "category":"Health Services",
            "subcategory":"Health Practitioner",
            "type":"Services"
        }
    ],
    "sg:owner":"simplegeo",
    "sg:phone":"+1   ",
    "sg:postcode":"06831",
    "sg:province":"NY",
    "src:geom":"simplegeo",
    "wof:belongsto":[
        420555461,
        102191575,
        404495949,
        85633793,
        85930937,
        102084283,
        85688629
    ],
    "wof:breaches":[],
    "wof:concordances":{
        "sg:id":"SG_6XVTeKwY78S9ZduIUO9BIT_41.048216_-73.664288@1294177022"
    },
    "wof:country":"US",
    "wof:geomhash":"872a31f3df1a9e22b9e8112e18a08d86",
    "wof:hierarchy":[
        {
            "continent_id":102191575,
            "country_id":85633793,
            "county_id":102084283,
            "localadmin_id":404495949,
            "locality_id":85930937,
            "neighbourhood_id":420555461,
            "region_id":85688629,
            "venue_id":554941645
        }
    ],
    "wof:id":554941645,
    "wof:lastmodified":1461017784,
    "wof:name":"Joyce M Nathen",
    "wof:parent_id":420555461,
    "wof:placetype":"venue",
    "wof:superseded_by":[],
    "wof:supersedes":[],
    "wof:tags":[]
},
  "bbox": [
    -73.664288,
    41.048216,
    -73.664288,
    41.048216
],
  "geometry": {"coordinates":[-73.664288,41.048216],"type":"Point"}
}