{
  "id": 554938473,
  "type": "Feature",
  "properties": {
    "edtf:cessation":"uuuu",
    "edtf:inception":"uuuu",
    "geom:area":0.0,
    "geom:bbox":"-73.716644,41.060685,-73.716644,41.060685",
    "geom:latitude":41.060685,
    "geom:longitude":-73.716644,
    "iso:country":"US",
    "sg:address":"136 Tower Rd",
    "sg:city":"White Plains",
    "sg:classifiers":[
        {
            "category":"Real Estate",
            "subcategory":"Real Estate Operator",
            "type":"Services"
        }
    ],
    "sg:owner":"simplegeo",
    "sg:phone":"+1 914 946 0100",
    "sg:postcode":"10604",
    "sg:province":"NY",
    "sg:tags":[
        "aviation",
        "develop",
        "lease"
    ],
    "src:geom":"simplegeo",
    "wof:belongsto":[
        85845073,
        102191575,
        404523361,
        85633793,
        85978735,
        102082373,
        85688543
    ],
    "wof:breaches":[],
    "wof:concordances":{
        "sg:id":"SG_50VQ8c0MURK6zMLZYPPfyM_41.060685_-73.716644@1294177022"
    },
    "wof:country":"US",
    "wof:geomhash":"44adbc51cfa03ccf73f4e9620441303a",
    "wof:hierarchy":[
        {
            "continent_id":102191575,
            "country_id":85633793,
            "county_id":102082373,
            "localadmin_id":404523361,
            "locality_id":85978735,
            "neighbourhood_id":85845073,
            "region_id":85688543,
            "venue_id":554938473
        }
    ],
    "wof:id":554938473,
    "wof:lastmodified":1461017481,
    "wof:name":"Westair Aviation Services LLC",
    "wof:parent_id":85845073,
    "wof:placetype":"venue",
    "wof:superseded_by":[],
    "wof:supersedes":[],
    "wof:tags":[
        "aviation",
        "develop",
        "lease"
    ]
},
  "bbox": [
    -73.716644,
    41.060685,
    -73.716644,
    41.060685
],
  "geometry": {"coordinates":[-73.716644,41.060685],"type":"Point"}
}