{
  "id": 554935987,
  "type": "Feature",
  "properties": {
    "edtf:cessation":"uuuu",
    "edtf:inception":"uuuu",
    "geom:area":0.0,
    "geom:bbox":"-73.491669,41.146138,-73.491669,41.146138",
    "geom:latitude":41.146138,
    "geom:longitude":-73.491669,
    "iso:country":"US",
    "sg:address":"123 Cherry St",
    "sg:city":"New Canaan",
    "sg:classifiers":[
        {
            "category":"Personal",
            "subcategory":"Beauty Salon",
            "type":"Services"
        }
    ],
    "sg:owner":"simplegeo",
    "sg:phone":"+1   ",
    "sg:postcode":"06840",
    "sg:province":"NY",
    "sg:tags":[
        "shop"
    ],
    "src:geom":"simplegeo",
    "wof:belongsto":[
        85688629,
        85633793,
        85851779,
        102084283
    ],
    "wof:breaches":[],
    "wof:concordances":{
        "sg:id":"SG_1rq5GxBeJhDaYHoKzf873g_41.146138_-73.491669@1294177022"
    },
    "wof:country":"US",
    "wof:geomhash":"30af5e8577766d96a1e8ecf44cf1d5cf",
    "wof:hierarchy":[
        {
            "country_id":85633793,
            "county_id":102084283,
            "neighbourhood_id":85851779,
            "region_id":85688629,
            "venue_id":554935987
        }
    ],
    "wof:id":554935987,
    "wof:lastmodified":1461017147,
    "wof:name":"Cherry Street Salons",
    "wof:parent_id":85851779,
    "wof:placetype":"venue",
    "wof:superseded_by":[],
    "wof:supersedes":[],
    "wof:tags":[
        "shop"
    ]
},
  "bbox": [
    -73.491669,
    41.146138,
    -73.491669,
    41.146138
],
  "geometry": {"coordinates":[-73.491669,41.146138],"type":"Point"}
}