{
  "id": 554938231,
  "type": "Feature",
  "properties": {
    "edtf:cessation":"uuuu",
    "edtf:inception":"uuuu",
    "geom:area":0.0,
    "geom:bbox":"-73.467224,41.139229,-73.467224,41.139229",
    "geom:latitude":41.139229,
    "geom:longitude":-73.467224,
    "iso:country":"US",
    "sg:address":"24 Hoyt Farm Rd",
    "sg:city":"New Canaan",
    "sg:classifiers":[
        {
            "category":"Insurance",
            "subcategory":"Insurance Agent",
            "type":"Services"
        }
    ],
    "sg:owner":"simplegeo",
    "sg:phone":"+1 203 966 4219",
    "sg:postcode":"06840",
    "sg:province":"NY",
    "src:geom":"simplegeo",
    "wof:belongsto":[
        85879307,
        102191575,
        404495959,
        85633793,
        85930795,
        102084283,
        85688629,
        85848785
    ],
    "wof:breaches":[],
    "wof:concordances":{
        "sg:id":"SG_5YdmN5XobtgAUQbGv2JRzT_41.139229_-73.467224@1294177022"
    },
    "wof:country":"US",
    "wof:geomhash":"407cb5bb08c5e17c920a0e3bda047cc1",
    "wof:hierarchy":[
        {
            "continent_id":102191575,
            "country_id":85633793,
            "county_id":102084283,
            "localadmin_id":404495959,
            "locality_id":85930795,
            "neighbourhood_id":85879307,
            "region_id":85688629,
            "venue_id":554938231
        },
        {
            "country_id":85633793,
            "county_id":102084283,
            "neighbourhood_id":85848785,
            "region_id":85688629,
            "venue_id":554938231
        }
    ],
    "wof:id":554938231,
    "wof:lastmodified":1461017458,
    "wof:name":"Met Life",
    "wof:parent_id":-1,
    "wof:placetype":"venue",
    "wof:superseded_by":[],
    "wof:supersedes":[],
    "wof:tags":[]
},
  "bbox": [
    -73.467224,
    41.139229,
    -73.467224,
    41.139229
],
  "geometry": {"coordinates":[-73.467224,41.139229],"type":"Point"}
}