{
  "id": 555213993,
  "type": "Feature",
  "properties": {
    "edtf:cessation":"uuuu",
    "edtf:inception":"uuuu",
    "geom:area":0.0,
    "geom:bbox":"-73.403766,40.702064,-73.403766,40.702064",
    "geom:latitude":40.702064,
    "geom:longitude":-73.403766,
    "iso:country":"US",
    "sg:address":"19 Russell Ct",
    "sg:city":"Copiague",
    "sg:classifiers":[
        {
            "category":"Organizations",
            "subcategory":"Religious Organization",
            "type":"Services"
        }
    ],
    "sg:owner":"simplegeo",
    "sg:phone":"+1 631 842 0320",
    "sg:postcode":"11726",
    "sg:province":"NY",
    "sg:tags":[
        "clergy"
    ],
    "src:geom":"simplegeo",
    "wof:belongsto":[],
    "wof:breaches":[],
    "wof:concordances":{
        "sg:id":"SG_0m5YkrehckmGyW2nLCsfSi_40.702064_-73.403766@1294177022"
    },
    "wof:country":"US",
    "wof:geomhash":"65c6ec73315504486818db2c0a69195b",
    "wof:hierarchy":[],
    "wof:id":555213993,
    "wof:lastmodified":1461024530,
    "wof:name":"Cleveland Collins",
    "wof:parent_id":-1,
    "wof:placetype":"venue",
    "wof:superseded_by":[],
    "wof:supersedes":[],
    "wof:tags":[
        "clergy"
    ]
},
  "bbox": [
    -73.403766,
    40.702064,
    -73.403766,
    40.702064
],
  "geometry": {"coordinates":[-73.403766,40.702064],"type":"Point"}
}