{
  "id": 555736187,
  "type": "Feature",
  "properties": {
    "edtf:cessation":"uuuu",
    "edtf:inception":"uuuu",
    "geom:area":0.0,
    "geom:bbox":"-73.774084,41.377141,-73.774084,41.377141",
    "geom:latitude":41.377141,
    "geom:longitude":-73.774084,
    "iso:country":"US",
    "sg:address":"14 Carole Pl",
    "sg:city":"Mahopac",
    "sg:classifiers":[
        {
            "category":"Autos & Motor Vehicles",
            "subcategory":"Automobile Sales",
            "type":"Retail Goods"
        }
    ],
    "sg:owner":"simplegeo",
    "sg:phone":"+1   ",
    "sg:postcode":"10541",
    "sg:province":"NY",
    "src:geom":"simplegeo",
    "wof:belongsto":[],
    "wof:breaches":[],
    "wof:concordances":{
        "sg:id":"SG_0BPbCWGkasSFUCyvoggYQK_41.377141_-73.774084@1294177022"
    },
    "wof:country":"US",
    "wof:geomhash":"5b101fbd25e7b8b99453465db763d8bf",
    "wof:hierarchy":[],
    "wof:id":555736187,
    "wof:lastmodified":1461036400,
    "wof:name":"Tdk Motors Inc",
    "wof:parent_id":420529687,
    "wof:placetype":"venue",
    "wof:superseded_by":[],
    "wof:supersedes":[],
    "wof:tags":[]
},
  "bbox": [
    -73.774084,
    41.377141,
    -73.774084,
    41.377141
],
  "geometry": {"coordinates":[-73.774084,41.377141],"type":"Point"}
}