{
  "id": 554936021,
  "type": "Feature",
  "properties": {
    "edtf:cessation":"uuuu",
    "edtf:inception":"uuuu",
    "geom:area":0.0,
    "geom:bbox":"-79.759804,42.14739,-79.759804,42.14739",
    "geom:latitude":42.14739,
    "geom:longitude":-79.759804,
    "iso:country":"US",
    "sg:address":"3445 State Hwy 426",
    "sg:city":"Findley Lake",
    "sg:classifiers":[
        {
            "category":"Building & Trades",
            "subcategory":"Construction",
            "type":"Services"
        }
    ],
    "sg:owner":"simplegeo",
    "sg:phone":"+1 716 769 7520",
    "sg:postcode":"14736",
    "sg:province":"NY",
    "sg:tags":[
        "excavation",
        "operator",
        "contractor",
        "local",
        "trucking"
    ],
    "src:geom":"simplegeo",
    "wof:belongsto":[
        85688481,
        85633793,
        85850957,
        102080955
    ],
    "wof:breaches":[],
    "wof:concordances":{
        "sg:id":"SG_16cjyS2NFr4q0dVTydsUpl_42.147390_-79.759804@1294177022"
    },
    "wof:country":"US",
    "wof:geomhash":"3eca60f56d5b48e7b86aa73577891986",
    "wof:hierarchy":[
        {
            "country_id":85633793,
            "county_id":102080955,
            "neighbourhood_id":85850957,
            "region_id":85688481,
            "venue_id":554936021
        }
    ],
    "wof:id":554936021,
    "wof:lastmodified":1461017151,
    "wof:name":"Volkman Excavating & Trucking",
    "wof:parent_id":85850957,
    "wof:placetype":"venue",
    "wof:superseded_by":[],
    "wof:supersedes":[],
    "wof:tags":[
        "excavation",
        "operator",
        "contractor",
        "local",
        "trucking"
    ]
},
  "bbox": [
    -79.759804,
    42.14739,
    -79.759804,
    42.14739
],
  "geometry": {"coordinates":[-79.759804,42.14739],"type":"Point"}
}