{
  "id": 554934485,
  "type": "Feature",
  "properties": {
    "edtf:cessation":"uuuu",
    "edtf:inception":"uuuu",
    "geom:area":0.0,
    "geom:bbox":"-73.492126,41.147684,-73.492126,41.147684",
    "geom:latitude":41.147684,
    "geom:longitude":-73.492126,
    "iso:country":"US",
    "sg:address":"1 East Ave",
    "sg:city":"New Canaan",
    "sg:classifiers":[
        {
            "category":"Shopping",
            "subcategory":"",
            "type":"Retail Goods"
        }
    ],
    "sg:owner":"simplegeo",
    "sg:phone":"+1 203 966 2801",
    "sg:postcode":"06840",
    "sg:province":"NY",
    "sg:tags":[
        "cosmetic",
        "perfume"
    ],
    "src:geom":"simplegeo",
    "wof:belongsto":[
        85688629,
        85633793,
        85851779,
        102084283
    ],
    "wof:breaches":[],
    "wof:concordances":{
        "sg:id":"SG_0etJ44UCZTSLL8tG4rFxNl_41.147684_-73.492126@1294177022"
    },
    "wof:country":"US",
    "wof:geomhash":"31914680131b719324a594f383391dd1",
    "wof:hierarchy":[
        {
            "country_id":85633793,
            "county_id":102084283,
            "neighbourhood_id":85851779,
            "region_id":85688629,
            "venue_id":554934485
        }
    ],
    "wof:id":554934485,
    "wof:lastmodified":1461016946,
    "wof:name":"Beauty On East",
    "wof:parent_id":85851779,
    "wof:placetype":"venue",
    "wof:superseded_by":[],
    "wof:supersedes":[],
    "wof:tags":[
        "cosmetic",
        "perfume"
    ]
},
  "bbox": [
    -73.492126,
    41.147684,
    -73.492126,
    41.147684
],
  "geometry": {"coordinates":[-73.492126,41.147684],"type":"Point"}
}