{
  "id": 554936135,
  "type": "Feature",
  "properties": {
    "edtf:cessation":"uuuu",
    "edtf:inception":"uuuu",
    "geom:area":0.0,
    "geom:bbox":"-79.732526,42.119279,-79.732526,42.119279",
    "geom:latitude":42.119279,
    "geom:longitude":-79.732526,
    "iso:country":"US",
    "sg:address":"10375 Main St",
    "sg:city":"Findley Lake",
    "sg:classifiers":[
        {
            "category":"Food & Beverages",
            "subcategory":"Groceries & Convenience Stores",
            "type":"Retail Goods"
        }
    ],
    "sg:owner":"simplegeo",
    "sg:phone":"+1 716 769 7233",
    "sg:postcode":"14724",
    "sg:province":"NY",
    "sg:tags":[
        "grocer"
    ],
    "src:geom":"simplegeo",
    "wof:belongsto":[
        85688481,
        85633793,
        85850957,
        102080955
    ],
    "wof:breaches":[],
    "wof:concordances":{
        "sg:id":"SG_21uCX193CAEwKjDAgvRswQ_42.119279_-79.732526@1294177022"
    },
    "wof:country":"US",
    "wof:geomhash":"9bb07f0e601ecf5f0d3bf3e968fe987a",
    "wof:hierarchy":[
        {
            "country_id":85633793,
            "county_id":102080955,
            "neighbourhood_id":85850957,
            "region_id":85688481,
            "venue_id":554936135
        }
    ],
    "wof:id":554936135,
    "wof:lastmodified":1461017170,
    "wof:name":"Findley Lake Market",
    "wof:parent_id":85850957,
    "wof:placetype":"venue",
    "wof:superseded_by":[],
    "wof:supersedes":[],
    "wof:tags":[
        "grocer"
    ]
},
  "bbox": [
    -79.732526,
    42.119279,
    -79.732526,
    42.119279
],
  "geometry": {"coordinates":[-79.73252599999999,42.119279],"type":"Point"}
}