{
  "id": 554937951,
  "type": "Feature",
  "properties": {
    "edtf:cessation":"uuuu",
    "edtf:inception":"uuuu",
    "geom:area":0.0,
    "geom:bbox":"-77.318333,41.987072,-77.318333,41.987072",
    "geom:latitude":41.987072,
    "geom:longitude":-77.318333,
    "iso:country":"US",
    "sg:address":"218 W Main St",
    "sg:city":"Elkland",
    "sg:classifiers":[
        {
            "category":"Building & Trades",
            "subcategory":"Construction",
            "type":"Services"
        }
    ],
    "sg:owner":"simplegeo",
    "sg:phone":"+1 814 258 5476",
    "sg:postcode":"16920",
    "sg:province":"NY",
    "sg:tags":[
        "general",
        "contractor"
    ],
    "src:geom":"simplegeo",
    "wof:belongsto":[
        85688481,
        85633793,
        101717081,
        102080937,
        85807903
    ],
    "wof:breaches":[],
    "wof:concordances":{
        "sg:id":"SG_2dZrqQTvb79WEoaSCTXKPd_41.987072_-77.318333@1294177022"
    },
    "wof:country":"US",
    "wof:geomhash":"9a12a734b0c600e258aac2cfec0b2ae1",
    "wof:hierarchy":[
        {
            "country_id":85633793,
            "county_id":102080937,
            "locality_id":101717081,
            "neighbourhood_id":85807903,
            "region_id":85688481,
            "venue_id":554937951
        }
    ],
    "wof:id":554937951,
    "wof:lastmodified":1461017432,
    "wof:name":"R G R General Contracting",
    "wof:parent_id":85807903,
    "wof:placetype":"venue",
    "wof:superseded_by":[],
    "wof:supersedes":[],
    "wof:tags":[
        "general",
        "contractor"
    ]
},
  "bbox": [
    -77.318333,
    41.987072,
    -77.318333,
    41.987072
],
  "geometry": {"coordinates":[-77.318333,41.987072],"type":"Point"}
}