{
  "id": 554934561,
  "type": "Feature",
  "properties": {
    "edtf:cessation":"uuuu",
    "edtf:inception":"uuuu",
    "geom:area":0.0,
    "geom:bbox":"-77.3143,41.986644,-77.3143,41.986644",
    "geom:latitude":41.986644,
    "geom:longitude":-77.3143,
    "iso:country":"US",
    "sg:address":"114 W Main St",
    "sg:city":"Elkland",
    "sg:classifiers":[
        {
            "category":"Restaurant",
            "subcategory":"",
            "type":"Food & Drink"
        }
    ],
    "sg:owner":"simplegeo",
    "sg:phone":"+1 814 258 7535",
    "sg:postcode":"16920",
    "sg:province":"NY",
    "src:geom":"simplegeo",
    "wof:belongsto":[
        85688481,
        85633793,
        101717081,
        102080937,
        85807903
    ],
    "wof:breaches":[],
    "wof:concordances":{
        "sg:id":"SG_0WLA8UEImi5Er2XusMDWeD_41.986644_-77.314300@1294177022"
    },
    "wof:country":"US",
    "wof:geomhash":"adf84061557608570fb3f2aa2e50389c",
    "wof:hierarchy":[
        {
            "country_id":85633793,
            "county_id":102080937,
            "locality_id":101717081,
            "neighbourhood_id":85807903,
            "region_id":85688481,
            "venue_id":554934561
        }
    ],
    "wof:id":554934561,
    "wof:lastmodified":1461016958,
    "wof:name":"P & J's Restaurant",
    "wof:parent_id":85807903,
    "wof:placetype":"venue",
    "wof:superseded_by":[],
    "wof:supersedes":[],
    "wof:tags":[]
},
  "bbox": [
    -77.3143,
    41.986644,
    -77.3143,
    41.986644
],
  "geometry": {"coordinates":[-77.3143,41.986644],"type":"Point"}
}