{
  "id": 572171091,
  "type": "Feature",
  "properties": {
    "edtf:cessation":"uuuu",
    "edtf:inception":"uuuu",
    "geom:area":0.0,
    "geom:bbox":"-74.259363,40.642691,-74.259363,40.642691",
    "geom:latitude":40.642691,
    "geom:longitude":-74.259363,
    "iso:country":"US",
    "sg:address":"5415 5th Ave",
    "sg:city":"Brooklyn",
    "sg:classifiers":[
        {
            "category":"Shopping",
            "subcategory":"Pawn Shop",
            "type":"Retail Goods"
        }
    ],
    "sg:owner":"simplegeo",
    "sg:phone":"+1 718 567 7296",
    "sg:postcode":"11220",
    "sg:province":"NY",
    "sg:website":"www.ezpawn.com",
    "src:geom":"simplegeo",
    "wof:belongsto":[
        85817887,
        102191575,
        404477587,
        85633793,
        85975833,
        102085995,
        85688607
    ],
    "wof:breaches":[],
    "wof:concordances":{
        "sg:id":"SG_6xOKhgZsHCdyMUkDOG529s_40.642691_-74.259363@1303262344"
    },
    "wof:country":"US",
    "wof:geomhash":"fd2e57da46dd21132b977267006df930",
    "wof:hierarchy":[
        {
            "continent_id":102191575,
            "country_id":85633793,
            "county_id":102085995,
            "localadmin_id":404477587,
            "locality_id":85975833,
            "neighbourhood_id":85817887,
            "region_id":85688607,
            "venue_id":572171091
        }
    ],
    "wof:id":572171091,
    "wof:lastmodified":1461051439,
    "wof:name":"E Z PAWN CORP",
    "wof:parent_id":85817887,
    "wof:placetype":"venue",
    "wof:superseded_by":[],
    "wof:supersedes":[],
    "wof:tags":[]
},
  "bbox": [
    -74.259363,
    40.642691,
    -74.259363,
    40.642691
],
  "geometry": {"coordinates":[-74.25936299999999,40.642691],"type":"Point"}
}