{
  "id": 555545463,
  "type": "Feature",
  "properties": {
    "edtf:cessation":"uuuu",
    "edtf:inception":"uuuu",
    "geom:area":0.0,
    "geom:bbox":"-73.98598,43.003037,-73.98598,43.003037",
    "geom:latitude":43.003037,
    "geom:longitude":-73.98598,
    "iso:country":"US",
    "sg:address":"4915 Jockey St",
    "sg:city":"Ballston Spa",
    "sg:classifiers":[
        {
            "category":"Insurance",
            "subcategory":"Insurance Agent",
            "type":"Services"
        }
    ],
    "sg:owner":"simplegeo",
    "sg:phone":"+1 518 882 1989",
    "sg:postcode":"12020",
    "sg:province":"NY",
    "src:geom":"simplegeo",
    "wof:belongsto":[],
    "wof:breaches":[],
    "wof:concordances":{
        "sg:id":"SG_5gZkQ1wFBhNNAqvy89Rxa5_43.003037_-73.985980@1294177022"
    },
    "wof:country":"US",
    "wof:geomhash":"f272823796434b7a30f1a3105d7ee041",
    "wof:hierarchy":[],
    "wof:id":555545463,
    "wof:lastmodified":1461032474,
    "wof:name":"W J Goetz Associates Inc",
    "wof:parent_id":420529827,
    "wof:placetype":"venue",
    "wof:superseded_by":[],
    "wof:supersedes":[],
    "wof:tags":[]
},
  "bbox": [
    -73.98598,
    43.003037,
    -73.98598,
    43.003037
],
  "geometry": {"coordinates":[-73.98598,43.003037],"type":"Point"}
}