{
  "id": 554934279,
  "type": "Feature",
  "properties": {
    "edtf:cessation":"uuuu",
    "edtf:inception":"uuuu",
    "geom:area":0.0,
    "geom:bbox":"-73.496038,41.143459,-73.496038,41.143459",
    "geom:latitude":41.143459,
    "geom:longitude":-73.496038,
    "iso:country":"US",
    "sg:address":"36 Richmond Hill Rd",
    "sg:city":"New Canaan",
    "sg:classifiers":[
        {
            "category":"Professional",
            "subcategory":"Management & Consulting",
            "type":"Services"
        }
    ],
    "sg:owner":"simplegeo",
    "sg:phone":"+1   ",
    "sg:postcode":"06840",
    "sg:province":"NY",
    "src:geom":"simplegeo",
    "wof:belongsto":[
        85688629,
        85633793,
        85851779,
        102084283
    ],
    "wof:breaches":[],
    "wof:concordances":{
        "sg:id":"SG_2jMcCf0s0fRvscVelq6QmR_41.143459_-73.496038@1294177022"
    },
    "wof:country":"US",
    "wof:geomhash":"75d5b16488e41f9c9a3265986ddf6db1",
    "wof:hierarchy":[
        {
            "country_id":85633793,
            "county_id":102084283,
            "neighbourhood_id":85851779,
            "region_id":85688629,
            "venue_id":554934279
        }
    ],
    "wof:id":554934279,
    "wof:lastmodified":1461016922,
    "wof:name":"Vector Management Services LLC",
    "wof:parent_id":85851779,
    "wof:placetype":"venue",
    "wof:superseded_by":[],
    "wof:supersedes":[],
    "wof:tags":[]
},
  "bbox": [
    -73.496038,
    41.143459,
    -73.496038,
    41.143459
],
  "geometry": {"coordinates":[-73.496038,41.143459],"type":"Point"}
}