{
  "id": 554940195,
  "type": "Feature",
  "properties": {
    "edtf:cessation":"uuuu",
    "edtf:inception":"uuuu",
    "geom:area":0.0,
    "geom:bbox":"-73.476832,41.137464,-73.476832,41.137464",
    "geom:latitude":41.137464,
    "geom:longitude":-73.476832,
    "iso:country":"US",
    "sg:address":"45 Holly Rd",
    "sg:city":"New Canaan",
    "sg:classifiers":[
        {
            "category":"Professional",
            "subcategory":"Management & Consulting",
            "type":"Services"
        }
    ],
    "sg:owner":"simplegeo",
    "sg:phone":"+1   ",
    "sg:postcode":"06840",
    "sg:province":"NY",
    "src:geom":"simplegeo",
    "wof:belongsto":[
        85688629,
        85633793,
        85851779,
        102084283
    ],
    "wof:breaches":[],
    "wof:concordances":{
        "sg:id":"SG_075hQAxz6iVcjjP3yIX4Jw_41.137464_-73.476832@1294177022"
    },
    "wof:country":"US",
    "wof:geomhash":"03acd3c0aaa1f2cbbde9ddcea5428b8e",
    "wof:hierarchy":[
        {
            "country_id":85633793,
            "county_id":102084283,
            "neighbourhood_id":85851779,
            "region_id":85688629,
            "venue_id":554940195
        }
    ],
    "wof:id":554940195,
    "wof:lastmodified":1461017634,
    "wof:name":"Close Out Consultants",
    "wof:parent_id":85851779,
    "wof:placetype":"venue",
    "wof:superseded_by":[],
    "wof:supersedes":[],
    "wof:tags":[]
},
  "bbox": [
    -73.476832,
    41.137464,
    -73.476832,
    41.137464
],
  "geometry": {"coordinates":[-73.476832,41.137464],"type":"Point"}
}