{
  "id": 555189719,
  "type": "Feature",
  "properties": {
    "edtf:cessation":"uuuu",
    "edtf:inception":"uuuu",
    "geom:area":0.0,
    "geom:bbox":"-73.853041,40.899794,-73.853041,40.899794",
    "geom:latitude":40.899794,
    "geom:longitude":-73.853041,
    "iso:country":"US",
    "sg:address":"4410 White Plains Rd",
    "sg:city":"Bronx",
    "sg:classifiers":[
        {
            "category":"Personal",
            "subcategory":"Barber",
            "type":"Services"
        }
    ],
    "sg:owner":"simplegeo",
    "sg:phone":"+1 718 944 3799",
    "sg:postcode":"10470",
    "sg:province":"NY",
    "src:geom":"simplegeo",
    "wof:belongsto":[],
    "wof:breaches":[],
    "wof:concordances":{
        "sg:id":"SG_59UosEwAHIfU1Edio4Dyog_40.899794_-73.853041@1294177022"
    },
    "wof:country":"US",
    "wof:geomhash":"bdb783e1d0cb15bd3a8559e2a83a5eac",
    "wof:hierarchy":[],
    "wof:id":555189719,
    "wof:lastmodified":1461024026,
    "wof:name":"Julian Barber Shop",
    "wof:parent_id":-1,
    "wof:placetype":"venue",
    "wof:superseded_by":[],
    "wof:supersedes":[],
    "wof:tags":[]
},
  "bbox": [
    -73.853041,
    40.899794,
    -73.853041,
    40.899794
],
  "geometry": {"coordinates":[-73.853041,40.899794],"type":"Point"}
}