{
  "id": 572170879,
  "type": "Feature",
  "properties": {
    "edtf:cessation":"uuuu",
    "edtf:inception":"uuuu",
    "geom:area":0.0,
    "geom:bbox":"-74.812731,40.646787,-74.812731,40.646787",
    "geom:latitude":40.646787,
    "geom:longitude":-74.812731,
    "iso:country":"US",
    "sg:address":"4720 5th Ave",
    "sg:city":"Brooklyn",
    "sg:classifiers":[
        {
            "category":"Shopping",
            "subcategory":"Shoes",
            "type":"Retail Goods"
        }
    ],
    "sg:owner":"simplegeo",
    "sg:phone":"+1 718 439 3759",
    "sg:postcode":"11220",
    "sg:province":"NY",
    "sg:tags":[
        "store"
    ],
    "src:geom":"simplegeo",
    "wof:belongsto":[
        85688607,
        85633793,
        85842965,
        102085997
    ],
    "wof:breaches":[],
    "wof:concordances":{
        "sg:id":"SG_7LZbtGM3aBuUI6avGoIjPa_40.646787_-74.812731@1303262344"
    },
    "wof:country":"US",
    "wof:geomhash":"a526cdac7f2706fee4567e0fd6776079",
    "wof:hierarchy":[
        {
            "country_id":85633793,
            "county_id":102085997,
            "neighbourhood_id":85842965,
            "region_id":85688607,
            "venue_id":572170879
        }
    ],
    "wof:id":572170879,
    "wof:lastmodified":1461051435,
    "wof:name":"J & M Sneaker Corp",
    "wof:parent_id":85842965,
    "wof:placetype":"venue",
    "wof:superseded_by":[],
    "wof:supersedes":[],
    "wof:tags":[
        "store"
    ]
},
  "bbox": [
    -74.812731,
    40.646787,
    -74.812731,
    40.646787
],
  "geometry": {"coordinates":[-74.812731,40.646787],"type":"Point"}
}