{
  "id": 554939935,
  "type": "Feature",
  "properties": {
    "edtf:cessation":"uuuu",
    "edtf:inception":"uuuu",
    "geom:area":0.0,
    "geom:bbox":"-73.460737,41.136891,-73.460737,41.136891",
    "geom:latitude":41.136891,
    "geom:longitude":-73.460737,
    "iso:country":"US",
    "sg:address":"739 Carter St",
    "sg:city":"New Canaan",
    "sg:classifiers":[
        {
            "category":"Professional",
            "subcategory":"Computer Services",
            "type":"Services"
        }
    ],
    "sg:owner":"simplegeo",
    "sg:phone":"+1   ",
    "sg:postcode":"06840",
    "sg:province":"NY",
    "sg:tags":[
        "information",
        "retrieval"
    ],
    "src:geom":"simplegeo",
    "wof:belongsto":[
        85879307,
        102191575,
        404495959,
        85633793,
        85930795,
        102084283,
        85688629,
        85848785
    ],
    "wof:breaches":[],
    "wof:concordances":{
        "sg:id":"SG_3KSpZuCBZNUdKiIkp3LATV_41.136891_-73.460737@1294177022"
    },
    "wof:country":"US",
    "wof:geomhash":"32b9f1419915b3ce0493d3900cba09c0",
    "wof:hierarchy":[
        {
            "continent_id":102191575,
            "country_id":85633793,
            "county_id":102084283,
            "localadmin_id":404495959,
            "locality_id":85930795,
            "neighbourhood_id":85879307,
            "region_id":85688629,
            "venue_id":554939935
        },
        {
            "country_id":85633793,
            "county_id":102084283,
            "neighbourhood_id":85848785,
            "region_id":85688629,
            "venue_id":554939935
        }
    ],
    "wof:id":554939935,
    "wof:lastmodified":1461017609,
    "wof:name":"First Data",
    "wof:parent_id":-1,
    "wof:placetype":"venue",
    "wof:superseded_by":[],
    "wof:supersedes":[],
    "wof:tags":[
        "information",
        "retrieval"
    ]
},
  "bbox": [
    -73.460737,
    41.136891,
    -73.460737,
    41.136891
],
  "geometry": {"coordinates":[-73.46073699999999,41.136891],"type":"Point"}
}