{
  "id": 555534975,
  "type": "Feature",
  "properties": {
    "edtf:cessation":"uuuu",
    "edtf:inception":"uuuu",
    "geom:area":0.0,
    "geom:bbox":"-73.735747,40.802078,-73.735747,40.802078",
    "geom:latitude":40.802078,
    "geom:longitude":-73.735747,
    "iso:country":"US",
    "sg:address":"531 Middle Neck Rd",
    "sg:city":"Great Neck",
    "sg:classifiers":[
        {
            "category":"Shopping",
            "subcategory":"Pharmacy",
            "type":"Retail Goods"
        }
    ],
    "sg:owner":"simplegeo",
    "sg:phone":"+1 516 482 4880",
    "sg:postcode":"11023",
    "sg:province":"NY",
    "sg:tags":[
        "store"
    ],
    "src:geom":"simplegeo",
    "wof:belongsto":[],
    "wof:breaches":[],
    "wof:concordances":{
        "sg:id":"SG_3mVluyrlVAsnSj9xL9JvuD_40.802078_-73.735747@1294177022"
    },
    "wof:country":"US",
    "wof:geomhash":"7a5ad866f24a99e96adfe9c555e4ae40",
    "wof:hierarchy":[],
    "wof:id":555534975,
    "wof:lastmodified":1461032200,
    "wof:name":"Century Middle Neck Pharmacy",
    "wof:parent_id":-1,
    "wof:placetype":"venue",
    "wof:superseded_by":[],
    "wof:supersedes":[],
    "wof:tags":[
        "store"
    ]
},
  "bbox": [
    -73.735747,
    40.802078,
    -73.735747,
    40.802078
],
  "geometry": {"coordinates":[-73.735747,40.802078],"type":"Point"}
}