{
  "id": 572170227,
  "type": "Feature",
  "properties": {
    "edtf:cessation":"uuuu",
    "edtf:inception":"uuuu",
    "geom:area":0.0,
    "geom:bbox":"-74.325463,40.629689,-74.325463,40.629689",
    "geom:latitude":40.629689,
    "geom:longitude":-74.325463,
    "iso:country":"US",
    "sg:address":"476 Bay Ridge Pkwy",
    "sg:city":"Brooklyn",
    "sg:classifiers":[
        {
            "category":"Health Services",
            "subcategory":"Doctor",
            "type":"Services"
        }
    ],
    "sg:owner":"simplegeo",
    "sg:phone":"+1 718 238 2661",
    "sg:postcode":"11209",
    "sg:province":"NY",
    "src:geom":"simplegeo",
    "wof:belongsto":[],
    "wof:breaches":[],
    "wof:concordances":{
        "sg:id":"SG_67X97gwj7Ei1dco2KR7pb1_40.629689_-74.325463@1303262338"
    },
    "wof:country":"US",
    "wof:geomhash":"368b4877edd7d9657eb78bb65f27bef3",
    "wof:hierarchy":[],
    "wof:id":572170227,
    "wof:lastmodified":1461051414,
    "wof:name":"Bay Ridge Orthopedic Assocs",
    "wof:parent_id":-1,
    "wof:placetype":"venue",
    "wof:superseded_by":[],
    "wof:supersedes":[],
    "wof:tags":[]
},
  "bbox": [
    -74.325463,
    40.629689,
    -74.325463,
    40.629689
],
  "geometry": {"coordinates":[-74.325463,40.629689],"type":"Point"}
}