{
  "id": 554936353,
  "type": "Feature",
  "properties": {
    "edtf:cessation":"uuuu",
    "edtf:inception":"uuuu",
    "geom:area":0.0,
    "geom:bbox":"-73.45973,41.153108,-73.45973,41.153108",
    "geom:latitude":41.153108,
    "geom:longitude":-73.45973,
    "iso:country":"US",
    "sg:address":"134 Brae Burn Dr",
    "sg:city":"New Canaan",
    "sg:classifiers":[
        {
            "category":"Professional",
            "subcategory":"",
            "type":"Services"
        }
    ],
    "sg:owner":"simplegeo",
    "sg:phone":"+1 203 972 8345",
    "sg:postcode":"06840",
    "sg:province":"NY",
    "src:geom":"simplegeo",
    "wof:belongsto":[
        85688629,
        85633793,
        85848785,
        102084283
    ],
    "wof:breaches":[],
    "wof:concordances":{
        "sg:id":"SG_37ZXS9McZHOVz5RcnxKhHs_41.153108_-73.459730@1294177022"
    },
    "wof:country":"US",
    "wof:geomhash":"30cb363361175e47e4b53d8ef13f7196",
    "wof:hierarchy":[
        {
            "country_id":85633793,
            "county_id":102084283,
            "neighbourhood_id":85848785,
            "region_id":85688629,
            "venue_id":554936353
        }
    ],
    "wof:id":554936353,
    "wof:lastmodified":1461017208,
    "wof:name":"Dmr Global LLC",
    "wof:parent_id":85848785,
    "wof:placetype":"venue",
    "wof:superseded_by":[],
    "wof:supersedes":[],
    "wof:tags":[]
},
  "bbox": [
    -73.45973,
    41.153108,
    -73.45973,
    41.153108
],
  "geometry": {"coordinates":[-73.45972999999999,41.153108],"type":"Point"}
}