{
  "id": 554938853,
  "type": "Feature",
  "properties": {
    "edtf:cessation":"uuuu",
    "edtf:inception":"uuuu",
    "geom:area":0.0,
    "geom:bbox":"-73.488596,41.148678,-73.488596,41.148678",
    "geom:latitude":41.148678,
    "geom:longitude":-73.488596,
    "iso:country":"US",
    "sg:address":"31 Vitti St",
    "sg:city":"New Canaan",
    "sg:classifiers":[
        {
            "category":"Professional",
            "subcategory":"",
            "type":"Services"
        }
    ],
    "sg:owner":"simplegeo",
    "sg:phone":"+1 203 966 9498",
    "sg:postcode":"06840",
    "sg:province":"NY",
    "src:geom":"simplegeo",
    "wof:belongsto":[
        85688629,
        85633793,
        85851779,
        102084283
    ],
    "wof:breaches":[],
    "wof:concordances":{
        "sg:id":"SG_0on5PZzvFu20xoxW1Hlr8N_41.148678_-73.488596@1294177022"
    },
    "wof:country":"US",
    "wof:geomhash":"19be82e2c707600e21711c618fec1ba6",
    "wof:hierarchy":[
        {
            "country_id":85633793,
            "county_id":102084283,
            "neighbourhood_id":85851779,
            "region_id":85688629,
            "venue_id":554938853
        }
    ],
    "wof:id":554938853,
    "wof:lastmodified":1461017508,
    "wof:name":"Fabulous Feasts",
    "wof:parent_id":85851779,
    "wof:placetype":"venue",
    "wof:superseded_by":[],
    "wof:supersedes":[],
    "wof:tags":[]
},
  "bbox": [
    -73.488596,
    41.148678,
    -73.488596,
    41.148678
],
  "geometry": {"coordinates":[-73.488596,41.148678],"type":"Point"}
}