{
  "id": 554935871,
  "type": "Feature",
  "properties": {
    "edtf:cessation":"uuuu",
    "edtf:inception":"uuuu",
    "geom:area":0.0,
    "geom:bbox":"-73.494602,41.149859,-73.494602,41.149859",
    "geom:latitude":41.149859,
    "geom:longitude":-73.494602,
    "iso:country":"US",
    "sg:address":"104 Heritage Hill Rd",
    "sg:city":"New Canaan",
    "sg:classifiers":[
        {
            "category":"Building & Trades",
            "subcategory":"Construction",
            "type":"Services"
        }
    ],
    "sg:owner":"simplegeo",
    "sg:phone":"+1 203 966 8896",
    "sg:postcode":"06840",
    "sg:province":"NY",
    "sg:tags":[
        "builder",
        "deck"
    ],
    "src:geom":"simplegeo",
    "wof:belongsto":[
        85688629,
        85633793,
        85851779,
        102084283
    ],
    "wof:breaches":[],
    "wof:concordances":{
        "sg:id":"SG_7FwdehJnkzzFoN01QZrsLF_41.149859_-73.494602@1294177022"
    },
    "wof:country":"US",
    "wof:geomhash":"2670be9b7190fa61474354317cbed150",
    "wof:hierarchy":[
        {
            "country_id":85633793,
            "county_id":102084283,
            "neighbourhood_id":85851779,
            "region_id":85688629,
            "venue_id":554935871
        }
    ],
    "wof:id":554935871,
    "wof:lastmodified":1461017131,
    "wof:name":"Decks By Ron",
    "wof:parent_id":85851779,
    "wof:placetype":"venue",
    "wof:superseded_by":[],
    "wof:supersedes":[],
    "wof:tags":[
        "builder",
        "deck"
    ]
},
  "bbox": [
    -73.494602,
    41.149859,
    -73.494602,
    41.149859
],
  "geometry": {"coordinates":[-73.494602,41.149859],"type":"Point"}
}