{
  "id": 554936059,
  "type": "Feature",
  "properties": {
    "edtf:cessation":"uuuu",
    "edtf:inception":"uuuu",
    "geom:area":0.0,
    "geom:bbox":"-73.515707,41.119523,-73.515707,41.119523",
    "geom:latitude":41.119523,
    "geom:longitude":-73.515707,
    "iso:country":"US",
    "sg:address":"341 Jelliff Mill Rd",
    "sg:city":"New Canaan",
    "sg:classifiers":[
        {
            "category":"Professional",
            "subcategory":"Employment Agencies",
            "type":"Services"
        }
    ],
    "sg:owner":"simplegeo",
    "sg:phone":"+1   ",
    "sg:postcode":"06840",
    "sg:province":"NY",
    "sg:tags":[
        "help",
        "supply"
    ],
    "src:geom":"simplegeo",
    "wof:belongsto":[
        85688629,
        85633793,
        85851779,
        102084283
    ],
    "wof:breaches":[],
    "wof:concordances":{
        "sg:id":"SG_6oGEqh9kNh38CPT8TLWHbN_41.119523_-73.515707@1294177022"
    },
    "wof:country":"US",
    "wof:geomhash":"14ec5759cc0072df251ff9efd18bd8f8",
    "wof:hierarchy":[
        {
            "country_id":85633793,
            "county_id":102084283,
            "neighbourhood_id":85851779,
            "region_id":85688629,
            "venue_id":554936059
        }
    ],
    "wof:id":554936059,
    "wof:lastmodified":1461017159,
    "wof:name":"RC Lurie and Associates",
    "wof:parent_id":85851779,
    "wof:placetype":"venue",
    "wof:superseded_by":[],
    "wof:supersedes":[],
    "wof:tags":[
        "help",
        "supply"
    ]
},
  "bbox": [
    -73.515707,
    41.119523,
    -73.515707,
    41.119523
],
  "geometry": {"coordinates":[-73.51570700000001,41.119523],"type":"Point"}
}