{
  "id": 554936027,
  "type": "Feature",
  "properties": {
    "edtf:cessation":"uuuu",
    "edtf:inception":"uuuu",
    "geom:area":0.0,
    "geom:bbox":"-73.667419,41.030647,-73.667419,41.030647",
    "geom:latitude":41.030647,
    "geom:longitude":-73.667419,
    "iso:country":"US",
    "sg:address":"10 Lantern Ln",
    "sg:city":"Greenwich",
    "sg:classifiers":[
        {
            "category":"Travel",
            "subcategory":"Travel Agent",
            "type":"Entertainment"
        }
    ],
    "sg:owner":"simplegeo",
    "sg:phone":"+1 203 531 8640",
    "sg:postcode":"06831",
    "sg:province":"NY",
    "sg:tags":[
        "agency"
    ],
    "src:geom":"simplegeo",
    "wof:belongsto":[
        420555461,
        102191575,
        404495949,
        85633793,
        85930937,
        102084283,
        85688629
    ],
    "wof:breaches":[],
    "wof:concordances":{
        "sg:id":"SG_3CZjuu7toepmFQmOupQmab_41.030647_-73.667419@1294177022"
    },
    "wof:country":"US",
    "wof:geomhash":"d5c848746f7498c2de87421dfa549ae3",
    "wof:hierarchy":[
        {
            "continent_id":102191575,
            "country_id":85633793,
            "county_id":102084283,
            "localadmin_id":404495949,
            "locality_id":85930937,
            "neighbourhood_id":420555461,
            "region_id":85688629,
            "venue_id":554936027
        }
    ],
    "wof:id":554936027,
    "wof:lastmodified":1461017152,
    "wof:name":"MB Travel Inc",
    "wof:parent_id":420555461,
    "wof:placetype":"venue",
    "wof:superseded_by":[],
    "wof:supersedes":[],
    "wof:tags":[
        "agency"
    ]
},
  "bbox": [
    -73.667419,
    41.030647,
    -73.667419,
    41.030647
],
  "geometry": {"coordinates":[-73.667419,41.030647],"type":"Point"}
}