{
  "id": 554937131,
  "type": "Feature",
  "properties": {
    "edtf:cessation":"uuuu",
    "edtf:inception":"uuuu",
    "geom:area":0.0,
    "geom:bbox":"-73.652616,41.123651,-73.652616,41.123651",
    "geom:latitude":41.123651,
    "geom:longitude":-73.652616,
    "iso:country":"US",
    "sg:address":"1016 Lake Ave",
    "sg:city":"Greenwich",
    "sg:classifiers":[
        {
            "category":"Professional",
            "subcategory":"",
            "type":"Services"
        },
        {
            "category":"Organizations",
            "subcategory":"Community Association",
            "type":"Services"
        }
    ],
    "sg:owner":"simplegeo",
    "sg:phone":"+1 203 622 5811",
    "sg:postcode":"06831",
    "sg:province":"NY",
    "sg:tags":[
        "establishment"
    ],
    "src:geom":"simplegeo",
    "wof:belongsto":[],
    "wof:breaches":[],
    "wof:concordances":{
        "sg:id":"SG_5XdFfgE3Sxkn35joHsCW2m_41.123651_-73.652616@1294177022"
    },
    "wof:country":"US",
    "wof:geomhash":"fbfdbdeffc6f60937ab4c0e82b211343",
    "wof:hierarchy":[],
    "wof:id":554937131,
    "wof:lastmodified":1461017320,
    "wof:name":"Conyers Farm Home Owners Assn",
    "wof:parent_id":-1,
    "wof:placetype":"venue",
    "wof:superseded_by":[],
    "wof:supersedes":[],
    "wof:tags":[
        "establishment"
    ]
},
  "bbox": [
    -73.652616,
    41.123651,
    -73.652616,
    41.123651
],
  "geometry": {"coordinates":[-73.65261599999999,41.123651],"type":"Point"}
}