{
  "id": 555212989,
  "type": "Feature",
  "properties": {
    "edtf:cessation":"uuuu",
    "edtf:inception":"uuuu",
    "geom:area":0.0,
    "geom:bbox":"-76.800481,42.907983,-76.800481,42.907983",
    "geom:latitude":42.907983,
    "geom:longitude":-76.800481,
    "iso:country":"US",
    "sg:address":"29 Bridge St",
    "sg:city":"Seneca Falls",
    "sg:classifiers":[
        {
            "category":"Personal",
            "subcategory":"Beauty Salon",
            "type":"Services"
        }
    ],
    "sg:owner":"simplegeo",
    "sg:phone":"+1 315 568 6663",
    "sg:postcode":"13148",
    "sg:province":"NY",
    "src:geom":"simplegeo",
    "wof:belongsto":[],
    "wof:breaches":[],
    "wof:concordances":{
        "sg:id":"SG_4wL1OjvVHp0D5VKhKh7fjQ_42.907983_-76.800481@1294177022"
    },
    "wof:country":"US",
    "wof:geomhash":"1948acead5c3cbf701a2cf4eeb849754",
    "wof:hierarchy":[],
    "wof:id":555212989,
    "wof:lastmodified":1461024510,
    "wof:name":"Fashionette Unisex Salon",
    "wof:parent_id":-1,
    "wof:placetype":"venue",
    "wof:superseded_by":[],
    "wof:supersedes":[],
    "wof:tags":[]
},
  "bbox": [
    -76.800481,
    42.907983,
    -76.800481,
    42.907983
],
  "geometry": {"coordinates":[-76.800481,42.907983],"type":"Point"}
}