{
  "id": 572170651,
  "type": "Feature",
  "properties": {
    "edtf:cessation":"uuuu",
    "edtf:inception":"uuuu",
    "geom:area":0.0,
    "geom:bbox":"-74.232515,40.634146,-74.232515,40.634146",
    "geom:latitude":40.634146,
    "geom:longitude":-74.232515,
    "iso:country":"US",
    "sg:address":"5806 Fort Hamilton Pkwy",
    "sg:city":"Brooklyn",
    "sg:classifiers":[
        {
            "category":"Food & Beverages",
            "subcategory":"Groceries & Convenience Stores",
            "type":"Retail Goods"
        }
    ],
    "sg:owner":"simplegeo",
    "sg:phone":"+1 718 972 1015",
    "sg:postcode":"11219",
    "sg:province":"NY",
    "src:geom":"simplegeo",
    "wof:belongsto":[
        85804971,
        102191575,
        404478503,
        85633793,
        85975837,
        102085995,
        85688607
    ],
    "wof:breaches":[],
    "wof:concordances":{
        "sg:id":"SG_3Sf24ZRvTqDSMqvTzILHnF_40.634146_-74.232515@1303262343"
    },
    "wof:country":"US",
    "wof:geomhash":"ae561d734631e8b4da99980d0e85eacc",
    "wof:hierarchy":[
        {
            "continent_id":102191575,
            "country_id":85633793,
            "county_id":102085995,
            "localadmin_id":404478503,
            "locality_id":85975837,
            "neighbourhood_id":85804971,
            "region_id":85688607,
            "venue_id":572170651
        }
    ],
    "wof:id":572170651,
    "wof:lastmodified":1461051429,
    "wof:name":"Hing Yung Grocery Inc",
    "wof:parent_id":85804971,
    "wof:placetype":"venue",
    "wof:superseded_by":[],
    "wof:supersedes":[],
    "wof:tags":[]
},
  "bbox": [
    -74.232515,
    40.634146,
    -74.232515,
    40.634146
],
  "geometry": {"coordinates":[-74.23251500000001,40.634146],"type":"Point"}
}