{
  "id": 554936009,
  "type": "Feature",
  "properties": {
    "edtf:cessation":"uuuu",
    "edtf:inception":"uuuu",
    "geom:area":0.0,
    "geom:bbox":"-73.493307,41.146896,-73.493307,41.146896",
    "geom:latitude":41.146896,
    "geom:longitude":-73.493307,
    "iso:country":"US",
    "sg:address":"15 South Ave",
    "sg:city":"New Canaan",
    "sg:classifiers":[
        {
            "category":"Professional",
            "subcategory":"Business Services",
            "type":"Services"
        }
    ],
    "sg:owner":"simplegeo",
    "sg:phone":"+1 203 966 8287",
    "sg:postcode":"06840",
    "sg:province":"NY",
    "sg:tags":[
        "interior",
        "consultant",
        "design",
        "decorator"
    ],
    "src:geom":"simplegeo",
    "wof:belongsto":[
        85688629,
        85633793,
        85851779,
        102084283
    ],
    "wof:breaches":[],
    "wof:concordances":{
        "sg:id":"SG_1rnkFXIo79t3LMwMMyNQRw_41.146896_-73.493307@1294177022"
    },
    "wof:country":"US",
    "wof:geomhash":"985f39c9b149e76b729664926e4b5297",
    "wof:hierarchy":[
        {
            "country_id":85633793,
            "county_id":102084283,
            "neighbourhood_id":85851779,
            "region_id":85688629,
            "venue_id":554936009
        }
    ],
    "wof:id":554936009,
    "wof:lastmodified":1461017149,
    "wof:name":"Simply Safari",
    "wof:parent_id":85851779,
    "wof:placetype":"venue",
    "wof:superseded_by":[],
    "wof:supersedes":[],
    "wof:tags":[
        "interior",
        "consultant",
        "design",
        "decorator"
    ]
},
  "bbox": [
    -73.493307,
    41.146896,
    -73.493307,
    41.146896
],
  "geometry": {"coordinates":[-73.493307,41.146896],"type":"Point"}
}