{
  "id": 554941391,
  "type": "Feature",
  "properties": {
    "edtf:cessation":"uuuu",
    "edtf:inception":"uuuu",
    "geom:area":0.0,
    "geom:bbox":"-73.657412,41.017175,-73.657412,41.017175",
    "geom:latitude":41.017175,
    "geom:longitude":-73.657412,
    "iso:country":"US",
    "sg:address":"177 Hobart Ave",
    "sg:city":"Greenwich",
    "sg:classifiers":[
        {
            "category":"Building & Trades",
            "subcategory":"Cleaning & Sanitation",
            "type":"Services"
        }
    ],
    "sg:owner":"simplegeo",
    "sg:phone":"+1   ",
    "sg:postcode":"06831",
    "sg:province":"NY",
    "sg:tags":[
        "floor",
        "laying",
        "maintenance",
        "contractor"
    ],
    "src:geom":"simplegeo",
    "wof:belongsto":[
        85885307,
        102191575,
        404495949,
        85633793,
        85930941,
        102084283,
        85688629,
        420555461,
        85930937
    ],
    "wof:breaches":[],
    "wof:concordances":{
        "sg:id":"SG_0867ULjPWGlno7R37C4zDq_41.017175_-73.657412@1294177022"
    },
    "wof:country":"US",
    "wof:geomhash":"6071b66c238044d91d748b57ef6839dc",
    "wof:hierarchy":[
        {
            "continent_id":102191575,
            "country_id":85633793,
            "county_id":102084283,
            "localadmin_id":404495949,
            "locality_id":85930941,
            "neighbourhood_id":85885307,
            "region_id":85688629,
            "venue_id":554941391
        },
        {
            "continent_id":102191575,
            "country_id":85633793,
            "county_id":102084283,
            "localadmin_id":404495949,
            "locality_id":85930937,
            "neighbourhood_id":420555461,
            "region_id":85688629,
            "venue_id":554941391
        }
    ],
    "wof:id":554941391,
    "wof:lastmodified":1461017744,
    "wof:name":"M P Hardwood Flooring",
    "wof:parent_id":-1,
    "wof:placetype":"venue",
    "wof:superseded_by":[],
    "wof:supersedes":[],
    "wof:tags":[
        "floor",
        "laying",
        "maintenance",
        "contractor"
    ]
},
  "bbox": [
    -73.657412,
    41.017175,
    -73.657412,
    41.017175
],
  "geometry": {"coordinates":[-73.65741199999999,41.017175],"type":"Point"}
}