{
  "id": 571556381,
  "type": "Feature",
  "properties": {
    "edtf:cessation":"uuuu",
    "edtf:inception":"uuuu",
    "geom:area":0.0,
    "geom:bbox":"-78.190653,42.994442,-78.190653,42.994442",
    "geom:latitude":42.994442,
    "geom:longitude":-78.190653,
    "iso:country":"US",
    "sg:address":"11 Mill St",
    "sg:city":"Batavia",
    "sg:classifiers":[
        {
            "category":"Professional",
            "subcategory":"",
            "type":"Services"
        }
    ],
    "sg:owner":"simplegeo",
    "sg:phone":"+1 585 343 7166",
    "sg:postcode":"14020",
    "sg:province":"NY",
    "sg:tags":[
        "establishment"
    ],
    "src:geom":"simplegeo",
    "wof:belongsto":[],
    "wof:breaches":[],
    "wof:concordances":{
        "sg:id":"SG_3UbTtRf90aQpoiBxL4WSVX_42.994442_-78.190653@1294177022"
    },
    "wof:country":"US",
    "wof:geomhash":"fbb5af2dc941589f1c6e3eea06b978db",
    "wof:hierarchy":[],
    "wof:id":571556381,
    "wof:lastmodified":1461038328,
    "wof:name":"Hilton Head Metalworks",
    "wof:parent_id":420528713,
    "wof:placetype":"venue",
    "wof:superseded_by":[],
    "wof:supersedes":[],
    "wof:tags":[
        "establishment"
    ]
},
  "bbox": [
    -78.190653,
    42.994442,
    -78.190653,
    42.994442
],
  "geometry": {"coordinates":[-78.190653,42.994442],"type":"Point"}
}