{
  "id": 554937473,
  "type": "Feature",
  "properties": {
    "edtf:cessation":"uuuu",
    "edtf:inception":"uuuu",
    "geom:area":0.0,
    "geom:bbox":"-73.462566,41.151911,-73.462566,41.151911",
    "geom:latitude":41.151911,
    "geom:longitude":-73.462566,
    "iso:country":"US",
    "sg:address":"125 Cedar Ln",
    "sg:city":"New Canaan",
    "sg:classifiers":[
        {
            "category":"Professional",
            "subcategory":"Management & Consulting",
            "type":"Services"
        }
    ],
    "sg:owner":"simplegeo",
    "sg:phone":"+1 203 966 6585",
    "sg:postcode":"06840",
    "sg:province":"NY",
    "sg:tags":[
        "consultant",
        "business"
    ],
    "src:geom":"simplegeo",
    "wof:belongsto":[
        85688629,
        85633793,
        85848785,
        102084283
    ],
    "wof:breaches":[],
    "wof:concordances":{
        "sg:id":"SG_1dwksaRAuCz6n8mF9A60fY_41.151911_-73.462566@1294177022"
    },
    "wof:country":"US",
    "wof:geomhash":"0e2dceb50d2b7062516c4af6d1c58a93",
    "wof:hierarchy":[
        {
            "country_id":85633793,
            "county_id":102084283,
            "neighbourhood_id":85848785,
            "region_id":85688629,
            "venue_id":554937473
        }
    ],
    "wof:id":554937473,
    "wof:lastmodified":1461017377,
    "wof:name":"Ballintober Group",
    "wof:parent_id":85848785,
    "wof:placetype":"venue",
    "wof:superseded_by":[],
    "wof:supersedes":[],
    "wof:tags":[
        "consultant",
        "business"
    ]
},
  "bbox": [
    -73.462566,
    41.151911,
    -73.462566,
    41.151911
],
  "geometry": {"coordinates":[-73.462566,41.151911],"type":"Point"}
}