{
  "id": 554934953,
  "type": "Feature",
  "properties": {
    "edtf:cessation":"uuuu",
    "edtf:inception":"uuuu",
    "geom:area":0.0,
    "geom:bbox":"-73.501159,41.125808,-73.501159,41.125808",
    "geom:latitude":41.125808,
    "geom:longitude":-73.501159,
    "iso:country":"US",
    "sg:address":"142 Weed St",
    "sg:city":"New Canaan",
    "sg:classifiers":[
        {
            "category":"Building & Trades",
            "subcategory":"Landscaping Services",
            "type":"Services"
        }
    ],
    "sg:owner":"simplegeo",
    "sg:phone":"+1 203 972 0347",
    "sg:postcode":"06840",
    "sg:province":"NY",
    "sg:tags":[
        "landscape"
    ],
    "src:geom":"simplegeo",
    "wof:belongsto":[
        85688629,
        85633793,
        85851779,
        102084283
    ],
    "wof:breaches":[],
    "wof:concordances":{
        "sg:id":"SG_5qnApnVqALYrpXL1T9gu0x_41.125808_-73.501159@1294177022"
    },
    "wof:country":"US",
    "wof:geomhash":"0887c2fedb25ad2b229d3bed692ea2af",
    "wof:hierarchy":[
        {
            "country_id":85633793,
            "county_id":102084283,
            "neighbourhood_id":85851779,
            "region_id":85688629,
            "venue_id":554934953
        }
    ],
    "wof:id":554934953,
    "wof:lastmodified":1461017003,
    "wof:name":"Rosati Landscaping LLC",
    "wof:parent_id":85851779,
    "wof:placetype":"venue",
    "wof:superseded_by":[],
    "wof:supersedes":[],
    "wof:tags":[
        "landscape"
    ]
},
  "bbox": [
    -73.501159,
    41.125808,
    -73.501159,
    41.125808
],
  "geometry": {"coordinates":[-73.501159,41.125808],"type":"Point"}
}