{
  "id": 554935177,
  "type": "Feature",
  "properties": {
    "edtf:cessation":"uuuu",
    "edtf:inception":"uuuu",
    "geom:area":0.0,
    "geom:bbox":"-73.627309,41.187566,-73.627309,41.187566",
    "geom:latitude":41.187566,
    "geom:longitude":-73.627309,
    "iso:country":"US",
    "sg:address":"220 Middle Patent Rd",
    "sg:city":"Bedford",
    "sg:classifiers":[
        {
            "category":"Health Services",
            "subcategory":"Doctor",
            "type":"Services"
        }
    ],
    "sg:owner":"simplegeo",
    "sg:phone":"+1 914 241 0220",
    "sg:postcode":"10506",
    "sg:province":"NY",
    "sg:tags":[
        "dentist"
    ],
    "src:geom":"simplegeo",
    "wof:belongsto":[
        85688629,
        85633793,
        85930787,
        102084283,
        85838073
    ],
    "wof:breaches":[],
    "wof:concordances":{
        "sg:id":"SG_09C4eX9rJZuDWBEQmBpCnQ_41.187566_-73.627309@1294177022"
    },
    "wof:country":"US",
    "wof:geomhash":"5920ad1c57ac59c7656c37f9c808ba91",
    "wof:hierarchy":[
        {
            "country_id":85633793,
            "county_id":102084283,
            "locality_id":85930787,
            "neighbourhood_id":85838073,
            "region_id":85688629,
            "venue_id":554935177
        }
    ],
    "wof:id":554935177,
    "wof:lastmodified":1461017034,
    "wof:name":"Robert G Hart DDS",
    "wof:parent_id":85838073,
    "wof:placetype":"venue",
    "wof:superseded_by":[],
    "wof:supersedes":[],
    "wof:tags":[
        "dentist"
    ]
},
  "bbox": [
    -73.627309,
    41.187566,
    -73.627309,
    41.187566
],
  "geometry": {"coordinates":[-73.627309,41.187566],"type":"Point"}
}