{
  "id": 554937645,
  "type": "Feature",
  "properties": {
    "edtf:cessation":"uuuu",
    "edtf:inception":"uuuu",
    "geom:area":0.0,
    "geom:bbox":"-73.462108,41.149356,-73.462108,41.149356",
    "geom:latitude":41.149356,
    "geom:longitude":-73.462108,
    "iso:country":"US",
    "sg:address":"236 Cedar Ln",
    "sg:city":"New Canaan",
    "sg:classifiers":[
        {
            "category":"Professional",
            "subcategory":"Computer Services",
            "type":"Services"
        }
    ],
    "sg:owner":"simplegeo",
    "sg:phone":"+1 203 966 6780",
    "sg:postcode":"06840",
    "sg:province":"NY",
    "sg:website":"www.pclinkz.com",
    "src:geom":"simplegeo",
    "wof:belongsto":[
        85688629,
        85633793,
        85848785,
        102084283
    ],
    "wof:breaches":[],
    "wof:concordances":{
        "sg:id":"SG_4U0COwrFaXfmoxLnw5hYNv_41.149356_-73.462108@1294177022"
    },
    "wof:country":"US",
    "wof:geomhash":"1c5b386823066c09d43118e0b4feba0f",
    "wof:hierarchy":[
        {
            "country_id":85633793,
            "county_id":102084283,
            "neighbourhood_id":85848785,
            "region_id":85688629,
            "venue_id":554937645
        }
    ],
    "wof:id":554937645,
    "wof:lastmodified":1461017399,
    "wof:name":"PCLINKZ.COM",
    "wof:parent_id":85848785,
    "wof:placetype":"venue",
    "wof:superseded_by":[],
    "wof:supersedes":[],
    "wof:tags":[]
},
  "bbox": [
    -73.462108,
    41.149356,
    -73.462108,
    41.149356
],
  "geometry": {"coordinates":[-73.462108,41.149356],"type":"Point"}
}