{
  "id": 554937249,
  "type": "Feature",
  "properties": {
    "edtf:cessation":"uuuu",
    "edtf:inception":"uuuu",
    "geom:area":0.0,
    "geom:bbox":"-73.657837,41.12505,-73.657837,41.12505",
    "geom:latitude":41.12505,
    "geom:longitude":-73.657837,
    "iso:country":"US",
    "sg:address":"6 Mountain Laurel Dr",
    "sg:city":"Greenwich",
    "sg:classifiers":[
        {
            "category":"Professional",
            "subcategory":"Management & Consulting",
            "type":"Services"
        }
    ],
    "sg:owner":"simplegeo",
    "sg:phone":"+1 203 249 4251",
    "sg:postcode":"06831",
    "sg:province":"NY",
    "sg:tags":[
        "marketing",
        "consultant"
    ],
    "src:geom":"simplegeo",
    "wof:belongsto":[],
    "wof:breaches":[],
    "wof:concordances":{
        "sg:id":"SG_5wKZ5gZ0ZKC1PQF7hotwRK_41.125050_-73.657837@1294177022"
    },
    "wof:country":"US",
    "wof:geomhash":"a3fd9221dd72edf7bcf166abd4a5227b",
    "wof:hierarchy":[],
    "wof:id":554937249,
    "wof:lastmodified":1461017340,
    "wof:name":"Genesis Leverage Development",
    "wof:parent_id":-1,
    "wof:placetype":"venue",
    "wof:superseded_by":[],
    "wof:supersedes":[],
    "wof:tags":[
        "marketing",
        "consultant"
    ]
},
  "bbox": [
    -73.657837,
    41.12505,
    -73.657837,
    41.12505
],
  "geometry": {"coordinates":[-73.657837,41.12505],"type":"Point"}
}