{
  "id": 555626125,
  "type": "Feature",
  "properties": {
    "edtf:cessation":"uuuu",
    "edtf:inception":"uuuu",
    "geom:area":0.0,
    "geom:bbox":"-77.299336,43.069155,-77.299336,43.069155",
    "geom:latitude":43.069155,
    "geom:longitude":-77.299336,
    "iso:country":"US",
    "sg:address":"76 W Main St",
    "sg:city":"Macedon",
    "sg:classifiers":[
        {
            "category":"Organizations",
            "subcategory":"Community Association",
            "type":"Services"
        }
    ],
    "sg:owner":"simplegeo",
    "sg:phone":"+1 315 986 4527",
    "sg:postcode":"14502",
    "sg:province":"NY",
    "sg:tags":[
        "club"
    ],
    "src:geom":"simplegeo",
    "wof:belongsto":[],
    "wof:breaches":[],
    "wof:concordances":{
        "sg:id":"SG_15Fe0tlPUjDiXZqtXfHu8o_43.069155_-77.299336@1294177022"
    },
    "wof:country":"US",
    "wof:geomhash":"defba11ba22b133e07d22ce9eabbc1ae",
    "wof:hierarchy":[],
    "wof:id":555626125,
    "wof:lastmodified":1461034126,
    "wof:name":"American Legion",
    "wof:parent_id":420530375,
    "wof:placetype":"venue",
    "wof:superseded_by":[],
    "wof:supersedes":[],
    "wof:tags":[
        "club"
    ]
},
  "bbox": [
    -77.299336,
    43.069155,
    -77.299336,
    43.069155
],
  "geometry": {"coordinates":[-77.299336,43.069155],"type":"Point"}
}