{
  "id": 554934727,
  "type": "Feature",
  "properties": {
    "edtf:cessation":"uuuu",
    "edtf:inception":"uuuu",
    "geom:area":0.0,
    "geom:bbox":"-74.06649,41.081381,-74.06649,41.081381",
    "geom:latitude":41.081381,
    "geom:longitude":-74.06649,
    "iso:country":"US",
    "sg:address":"1 Capricorn Ln",
    "sg:city":"Monsey",
    "sg:classifiers":[
        {
            "category":"Real Estate",
            "subcategory":"Real Estate Agent",
            "type":"Services"
        }
    ],
    "sg:owner":"simplegeo",
    "sg:phone":"+1 845 356 3955",
    "sg:postcode":"10952",
    "sg:province":"NY",
    "src:geom":"simplegeo",
    "wof:belongsto":[
        85853261,
        102191575,
        404523097,
        85633793,
        85978555,
        102082385,
        85688543
    ],
    "wof:breaches":[],
    "wof:concordances":{
        "sg:id":"SG_1PCzR5elvYpwQyE6RTjRXx_41.081381_-74.066490@1294177022"
    },
    "wof:country":"US",
    "wof:geomhash":"684c34c47dcb35295245d0722146c3ea",
    "wof:hierarchy":[
        {
            "continent_id":102191575,
            "country_id":85633793,
            "county_id":102082385,
            "localadmin_id":404523097,
            "locality_id":85978555,
            "neighbourhood_id":85853261,
            "region_id":85688543,
            "venue_id":554934727
        }
    ],
    "wof:id":554934727,
    "wof:lastmodified":1461016977,
    "wof:name":"Carol Czitrom Realty",
    "wof:parent_id":85853261,
    "wof:placetype":"venue",
    "wof:superseded_by":[],
    "wof:supersedes":[],
    "wof:tags":[]
},
  "bbox": [
    -74.06649,
    41.081381,
    -74.06649,
    41.081381
],
  "geometry": {"coordinates":[-74.06649,41.081381],"type":"Point"}
}