{
  "id": 554939677,
  "type": "Feature",
  "properties": {
    "edtf:cessation":"uuuu",
    "edtf:inception":"uuuu",
    "geom:area":0.0,
    "geom:bbox":"-73.522464,41.187079,-73.522464,41.187079",
    "geom:latitude":41.187079,
    "geom:longitude":-73.522464,
    "iso:country":"US",
    "sg:address":"83 Lukes Wood Rd",
    "sg:city":"New Canaan",
    "sg:classifiers":[
        {
            "category":"Real Estate",
            "subcategory":"Real Estate Agent",
            "type":"Services"
        }
    ],
    "sg:owner":"simplegeo",
    "sg:phone":"+1 203 972 5999",
    "sg:postcode":"06840",
    "sg:province":"NY",
    "src:geom":"simplegeo",
    "wof:belongsto":[],
    "wof:breaches":[],
    "wof:concordances":{
        "sg:id":"SG_6r4wrvoXdKeGZVzzIXrXqS_41.187079_-73.522464@1294177022"
    },
    "wof:country":"US",
    "wof:geomhash":"22ba444409ac967ccc81ee1effa6b57a",
    "wof:hierarchy":[],
    "wof:id":554939677,
    "wof:lastmodified":1461017585,
    "wof:name":"Canaan Realty Group",
    "wof:parent_id":-1,
    "wof:placetype":"venue",
    "wof:superseded_by":[],
    "wof:supersedes":[],
    "wof:tags":[]
},
  "bbox": [
    -73.522464,
    41.187079,
    -73.522464,
    41.187079
],
  "geometry": {"coordinates":[-73.522464,41.187079],"type":"Point"}
}