{
  "id": 572171581,
  "type": "Feature",
  "properties": {
    "edtf:cessation":"uuuu",
    "edtf:inception":"uuuu",
    "geom:area":0.0,
    "geom:bbox":"-74.180166,40.685055,-74.180166,40.685055",
    "geom:latitude":40.685055,
    "geom:longitude":-74.180166,
    "iso:country":"US",
    "sg:address":"100 Sackett St",
    "sg:city":"Brooklyn",
    "sg:classifiers":[
        {
            "category":"Retail",
            "subcategory":"Auto Repair",
            "type":"Services"
        }
    ],
    "sg:owner":"simplegeo",
    "sg:phone":"+1 718 858 5845",
    "sg:postcode":"11231",
    "sg:province":"NY",
    "src:geom":"simplegeo",
    "wof:belongsto":[
        102530049,
        85852463,
        102191575,
        404478049,
        85633793,
        85975279,
        102085043,
        85688607
    ],
    "wof:breaches":[],
    "wof:concordances":{
        "sg:id":"SG_0tbxjKNbiN6vLy0IpWrXoD_40.685055_-74.180166@1303262348"
    },
    "wof:country":"US",
    "wof:geomhash":"0a21d6338ad52bd219f17e7a5202ae5e",
    "wof:hierarchy":[
        {
            "campus_id":102530049,
            "continent_id":102191575,
            "country_id":85633793,
            "county_id":102085043,
            "localadmin_id":404478049,
            "locality_id":85975279,
            "neighbourhood_id":85852463,
            "region_id":85688607,
            "venue_id":572171581
        }
    ],
    "wof:id":572171581,
    "wof:lastmodified":1461051458,
    "wof:name":"Chang's Auto Repair",
    "wof:parent_id":102530049,
    "wof:placetype":"venue",
    "wof:superseded_by":[],
    "wof:supersedes":[],
    "wof:tags":[]
},
  "bbox": [
    -74.180166,
    40.685055,
    -74.180166,
    40.685055
],
  "geometry": {"coordinates":[-74.180166,40.685055],"type":"Point"}
}