{
  "id": 555289813,
  "type": "Feature",
  "properties": {
    "edtf:cessation":"uuuu",
    "edtf:inception":"uuuu",
    "geom:area":0.0,
    "geom:bbox":"-78.882211,43.263947,-78.882211,43.263947",
    "geom:latitude":43.263947,
    "geom:longitude":-78.882211,
    "iso:country":"US",
    "sg:address":"3112 Braley Rd",
    "sg:city":"Ransomville",
    "sg:classifiers":[
        {
            "category":"Manufacturing",
            "subcategory":"Signs",
            "type":"Manufacturing & Wholesale Goods"
        }
    ],
    "sg:owner":"simplegeo",
    "sg:phone":"+1 716 743 1505",
    "sg:postcode":"14131",
    "sg:province":"NY",
    "src:geom":"simplegeo",
    "wof:belongsto":[],
    "wof:breaches":[],
    "wof:concordances":{
        "sg:id":"SG_1CkhG9CcsaUDh38zH5OtZI_43.263947_-78.882211@1294177022"
    },
    "wof:country":"US",
    "wof:geomhash":"ffc434dc30ec1369bb80c2bdaf17a5f8",
    "wof:hierarchy":[],
    "wof:id":555289813,
    "wof:lastmodified":1461026278,
    "wof:name":"Notable Signs & Graphics",
    "wof:parent_id":420529191,
    "wof:placetype":"venue",
    "wof:superseded_by":[],
    "wof:supersedes":[],
    "wof:tags":[]
},
  "bbox": [
    -78.882211,
    43.263947,
    -78.882211,
    43.263947
],
  "geometry": {"coordinates":[-78.882211,43.263947],"type":"Point"}
}