{
  "id": 554939915,
  "type": "Feature",
  "properties": {
    "edtf:cessation":"uuuu",
    "edtf:inception":"uuuu",
    "geom:area":0.0,
    "geom:bbox":"-77.313304,41.987957,-77.313304,41.987957",
    "geom:latitude":41.987957,
    "geom:longitude":-77.313304,
    "iso:country":"US",
    "sg:address":"107 Parkhurst St",
    "sg:city":"Elkland",
    "sg:classifiers":[
        {
            "category":"Real Estate",
            "subcategory":"Real Estate Agent",
            "type":"Services"
        }
    ],
    "sg:owner":"simplegeo",
    "sg:phone":"+1 814 258 5668",
    "sg:postcode":"16920",
    "sg:province":"NY",
    "src:geom":"simplegeo",
    "wof:belongsto":[
        85688481,
        85633793,
        101717081,
        102080937,
        85807903
    ],
    "wof:breaches":[],
    "wof:concordances":{
        "sg:id":"SG_5QCv7wG7lMqbscY90vIsoH_41.987957_-77.313304@1294177022"
    },
    "wof:country":"US",
    "wof:geomhash":"92a1b4ff96bddac044d9826f8c7a8323",
    "wof:hierarchy":[
        {
            "country_id":85633793,
            "county_id":102080937,
            "locality_id":101717081,
            "neighbourhood_id":85807903,
            "region_id":85688481,
            "venue_id":554939915
        }
    ],
    "wof:id":554939915,
    "wof:lastmodified":1461017606,
    "wof:name":"R & S Properties",
    "wof:parent_id":85807903,
    "wof:placetype":"venue",
    "wof:superseded_by":[],
    "wof:supersedes":[],
    "wof:tags":[]
},
  "bbox": [
    -77.313304,
    41.987957,
    -77.313304,
    41.987957
],
  "geometry": {"coordinates":[-77.313304,41.987957],"type":"Point"}
}