{
  "id": 555667185,
  "type": "Feature",
  "properties": {
    "edtf:cessation":"uuuu",
    "edtf:inception":"uuuu",
    "geom:area":0.0,
    "geom:bbox":"-78.540255,42.891919,-78.540255,42.891919",
    "geom:latitude":42.891919,
    "geom:longitude":-78.540255,
    "iso:country":"US",
    "sg:address":"11994 Broadway St",
    "sg:city":"Alden",
    "sg:classifiers":[
        {
            "category":"Freight",
            "subcategory":"",
            "type":"Transportation"
        }
    ],
    "sg:owner":"simplegeo",
    "sg:phone":"+1   ",
    "sg:postcode":"14004",
    "sg:province":"NY",
    "sg:tags":[
        "operator",
        "local",
        "trucking"
    ],
    "src:geom":"simplegeo",
    "wof:belongsto":[],
    "wof:breaches":[],
    "wof:concordances":{
        "sg:id":"SG_2SMDNk8z0p4JvN9XK5VnB3_42.891919_-78.540255@1294177022"
    },
    "wof:country":"US",
    "wof:geomhash":"19030859086724126b5edd1a3d0f6340",
    "wof:hierarchy":[],
    "wof:id":555667185,
    "wof:lastmodified":1461034967,
    "wof:name":"Kent Trucking",
    "wof:parent_id":420528585,
    "wof:placetype":"venue",
    "wof:superseded_by":[],
    "wof:supersedes":[],
    "wof:tags":[
        "operator",
        "local",
        "trucking"
    ]
},
  "bbox": [
    -78.540255,
    42.891919,
    -78.540255,
    42.891919
],
  "geometry": {"coordinates":[-78.540255,42.891919],"type":"Point"}
}