{
  "id": 554941325,
  "type": "Feature",
  "properties": {
    "edtf:cessation":"uuuu",
    "edtf:inception":"uuuu",
    "geom:area":0.0,
    "geom:bbox":"-73.681613,41.046768,-73.681613,41.046768",
    "geom:latitude":41.046768,
    "geom:longitude":-73.681613,
    "iso:country":"US",
    "sg:address":"87 Stonehedge Dr N",
    "sg:city":"Greenwich",
    "sg:classifiers":[
        {
            "category":"Real Estate",
            "subcategory":"Real Estate Operator",
            "type":"Services"
        }
    ],
    "sg:owner":"simplegeo",
    "sg:phone":"+1 203 531 1973",
    "sg:postcode":"06831",
    "sg:province":"NY",
    "sg:tags":[
        "building",
        "apartment",
        "commercial"
    ],
    "src:geom":"simplegeo",
    "wof:belongsto":[
        420555461,
        102191575,
        404495949,
        85633793,
        85930937,
        102084283,
        85688629
    ],
    "wof:breaches":[],
    "wof:concordances":{
        "sg:id":"SG_6X0DrzR7EcZB7m2OdfJeBz_41.046768_-73.681613@1294177022"
    },
    "wof:country":"US",
    "wof:geomhash":"b78608ad9c7a4f24b587d31f1518b85f",
    "wof:hierarchy":[
        {
            "continent_id":102191575,
            "country_id":85633793,
            "county_id":102084283,
            "localadmin_id":404495949,
            "locality_id":85930937,
            "neighbourhood_id":420555461,
            "region_id":85688629,
            "venue_id":554941325
        }
    ],
    "wof:id":554941325,
    "wof:lastmodified":1461017729,
    "wof:name":"M Ravikoff Associates Inc",
    "wof:parent_id":420555461,
    "wof:placetype":"venue",
    "wof:superseded_by":[],
    "wof:supersedes":[],
    "wof:tags":[
        "building",
        "apartment",
        "commercial"
    ]
},
  "bbox": [
    -73.681613,
    41.046768,
    -73.681613,
    41.046768
],
  "geometry": {"coordinates":[-73.681613,41.046768],"type":"Point"}
}