{
  "id": 554934389,
  "type": "Feature",
  "properties": {
    "edtf:cessation":"uuuu",
    "edtf:inception":"uuuu",
    "geom:area":0.0,
    "geom:bbox":"-73.643703,41.023675,-73.643703,41.023675",
    "geom:latitude":41.023675,
    "geom:longitude":-73.643703,
    "iso:country":"US",
    "sg:address":"89 Valley Dr",
    "sg:city":"Greenwich",
    "sg:classifiers":[
        {
            "category":"Professional",
            "subcategory":"Business Services",
            "type":"Services"
        }
    ],
    "sg:owner":"simplegeo",
    "sg:phone":"+1   ",
    "sg:postcode":"06831",
    "sg:province":"NY",
    "sg:tags":[
        "financial"
    ],
    "src:geom":"simplegeo",
    "wof:belongsto":[
        85885307,
        102191575,
        404495949,
        85633793,
        85930941,
        102084283,
        85688629,
        420555529
    ],
    "wof:breaches":[],
    "wof:concordances":{
        "sg:id":"SG_1VPldZG5vsWn5z9aZ7MbNU_41.023675_-73.643703@1294177022"
    },
    "wof:country":"US",
    "wof:geomhash":"257c5ee4744bea0dd2baa9fe49df550f",
    "wof:hierarchy":[
        {
            "continent_id":102191575,
            "country_id":85633793,
            "county_id":102084283,
            "localadmin_id":404495949,
            "locality_id":85930941,
            "neighbourhood_id":85885307,
            "region_id":85688629,
            "venue_id":554934389
        },
        {
            "continent_id":102191575,
            "country_id":85633793,
            "county_id":102084283,
            "localadmin_id":404495949,
            "locality_id":85930941,
            "neighbourhood_id":420555529,
            "region_id":85688629,
            "venue_id":554934389
        }
    ],
    "wof:id":554934389,
    "wof:lastmodified":1461016932,
    "wof:name":"Altgate Capital Inc",
    "wof:parent_id":-1,
    "wof:placetype":"venue",
    "wof:superseded_by":[],
    "wof:supersedes":[],
    "wof:tags":[
        "financial"
    ]
},
  "bbox": [
    -73.643703,
    41.023675,
    -73.643703,
    41.023675
],
  "geometry": {"coordinates":[-73.643703,41.023675],"type":"Point"}
}