{
  "id": 572170799,
  "type": "Feature",
  "properties": {
    "edtf:cessation":"uuuu",
    "edtf:inception":"uuuu",
    "geom:area":0.0,
    "geom:bbox":"-74.20683,40.634526,-74.20683,40.634526",
    "geom:latitude":40.634526,
    "geom:longitude":-74.20683,
    "iso:country":"US",
    "sg:address":"839 61st St",
    "sg:city":"Brooklyn",
    "sg:classifiers":[
        {
            "category":"Shopping",
            "subcategory":"Beauty & Cosmetics",
            "type":"Retail Goods"
        }
    ],
    "sg:owner":"simplegeo",
    "sg:phone":"+1 718 871 6388",
    "sg:postcode":"11220",
    "sg:province":"NY",
    "sg:tags":[
        "supply"
    ],
    "src:geom":"simplegeo",
    "wof:belongsto":[
        85804971,
        102191575,
        404478503,
        85633793,
        85975837,
        102085995,
        85688607
    ],
    "wof:breaches":[],
    "wof:concordances":{
        "sg:id":"SG_4qg8iB8XviLBkQWYljofZ4_40.634526_-74.206830@1303262344"
    },
    "wof:country":"US",
    "wof:geomhash":"1895b69a098fbccbbb289890d35eee53",
    "wof:hierarchy":[
        {
            "continent_id":102191575,
            "country_id":85633793,
            "county_id":102085995,
            "localadmin_id":404478503,
            "locality_id":85975837,
            "neighbourhood_id":85804971,
            "region_id":85688607,
            "venue_id":572170799
        }
    ],
    "wof:id":572170799,
    "wof:lastmodified":1461051433,
    "wof:name":"All New Home Center",
    "wof:parent_id":85804971,
    "wof:placetype":"venue",
    "wof:superseded_by":[],
    "wof:supersedes":[],
    "wof:tags":[
        "supply"
    ]
},
  "bbox": [
    -74.20683,
    40.634526,
    -74.20683,
    40.634526
],
  "geometry": {"coordinates":[-74.20683,40.634526],"type":"Point"}
}