{
  "id": 554940831,
  "type": "Feature",
  "properties": {
    "edtf:cessation":"uuuu",
    "edtf:inception":"uuuu",
    "geom:area":0.0,
    "geom:bbox":"-73.489259,41.147,-73.489259,41.147",
    "geom:latitude":41.147,
    "geom:longitude":-73.489259,
    "iso:country":"US",
    "sg:address":"17 Raymond St",
    "sg:city":"New Canaan",
    "sg:classifiers":[
        {
            "category":"Building & Trades",
            "subcategory":"Construction",
            "type":"Services"
        }
    ],
    "sg:owner":"simplegeo",
    "sg:phone":"+1 203 966 2148",
    "sg:postcode":"06840",
    "sg:province":"NY",
    "sg:tags":[
        "hanging",
        "contractor"
    ],
    "src:geom":"simplegeo",
    "wof:belongsto":[
        85688629,
        85633793,
        85851779,
        102084283
    ],
    "wof:breaches":[],
    "wof:concordances":{
        "sg:id":"SG_7GFyHsqFA8zQ7JV8V0aTah_41.147000_-73.489259@1294177022"
    },
    "wof:country":"US",
    "wof:geomhash":"3b6eff1cba4205dab268a8aea8e10717",
    "wof:hierarchy":[
        {
            "country_id":85633793,
            "county_id":102084283,
            "neighbourhood_id":85851779,
            "region_id":85688629,
            "venue_id":554940831
        }
    ],
    "wof:id":554940831,
    "wof:lastmodified":1461017682,
    "wof:name":"Bauer Painting Inc",
    "wof:parent_id":85851779,
    "wof:placetype":"venue",
    "wof:superseded_by":[],
    "wof:supersedes":[],
    "wof:tags":[
        "hanging",
        "contractor"
    ]
},
  "bbox": [
    -73.489259,
    41.147,
    -73.489259,
    41.147
],
  "geometry": {"coordinates":[-73.489259,41.147],"type":"Point"}
}