{
  "id": 554936971,
  "type": "Feature",
  "properties": {
    "edtf:cessation":"uuuu",
    "edtf:inception":"uuuu",
    "geom:area":0.0,
    "geom:bbox":"-73.493249,41.131601,-73.493249,41.131601",
    "geom:latitude":41.131601,
    "geom:longitude":-73.493249,
    "iso:country":"US",
    "sg:address":"31 Southwood Dr",
    "sg:city":"New Canaan",
    "sg:classifiers":[
        {
            "category":"Banks & Credit Unions",
            "subcategory":"Investment Brokerage",
            "type":"Services"
        }
    ],
    "sg:owner":"simplegeo",
    "sg:phone":"+1 203 966 5138",
    "sg:postcode":"06840",
    "sg:province":"NY",
    "sg:tags":[
        "advisory",
        "financial"
    ],
    "src:geom":"simplegeo",
    "wof:belongsto":[
        85688629,
        85633793,
        85851779,
        102084283
    ],
    "wof:breaches":[],
    "wof:concordances":{
        "sg:id":"SG_6qSzjefcoETEHIuO2h7tVE_41.131601_-73.493249@1294177022"
    },
    "wof:country":"US",
    "wof:geomhash":"9dd5d7c83bf9ba81962ced5d8ac4a318",
    "wof:hierarchy":[
        {
            "country_id":85633793,
            "county_id":102084283,
            "neighbourhood_id":85851779,
            "region_id":85688629,
            "venue_id":554936971
        }
    ],
    "wof:id":554936971,
    "wof:lastmodified":1461017299,
    "wof:name":"Personal Financial Planning",
    "wof:parent_id":85851779,
    "wof:placetype":"venue",
    "wof:superseded_by":[],
    "wof:supersedes":[],
    "wof:tags":[
        "advisory",
        "financial"
    ]
},
  "bbox": [
    -73.493249,
    41.131601,
    -73.493249,
    41.131601
],
  "geometry": {"coordinates":[-73.49324900000001,41.131601],"type":"Point"}
}