{
  "id": 554936845,
  "type": "Feature",
  "properties": {
    "edtf:cessation":"uuuu",
    "edtf:inception":"uuuu",
    "geom:area":0.0,
    "geom:bbox":"-73.228001,42.514858,-73.228001,42.514858",
    "geom:latitude":42.514858,
    "geom:longitude":-73.228001,
    "iso:country":"US",
    "sg:address":"87 S Main St",
    "sg:city":"Lanesboro",
    "sg:classifiers":[
        {
            "category":"Personal",
            "subcategory":"Beauty Salon",
            "type":"Services"
        }
    ],
    "sg:owner":"simplegeo",
    "sg:phone":"+1 413 499 6115",
    "sg:postcode":"01237",
    "sg:province":"NY",
    "src:geom":"simplegeo",
    "wof:belongsto":[
        85688645,
        85633793,
        85829509,
        102084369
    ],
    "wof:breaches":[],
    "wof:concordances":{
        "sg:id":"SG_6NuYmOxf7um6nj8oJp4V1S_42.514858_-73.228001@1294177022"
    },
    "wof:country":"US",
    "wof:geomhash":"839c55aa16dd92be03723534c0f5ae2e",
    "wof:hierarchy":[
        {
            "country_id":85633793,
            "county_id":102084369,
            "neighbourhood_id":85829509,
            "region_id":85688645,
            "venue_id":554936845
        }
    ],
    "wof:id":554936845,
    "wof:lastmodified":1461017281,
    "wof:name":"Lanesboro Hair Design",
    "wof:parent_id":85829509,
    "wof:placetype":"venue",
    "wof:superseded_by":[],
    "wof:supersedes":[],
    "wof:tags":[]
},
  "bbox": [
    -73.228001,
    42.514858,
    -73.228001,
    42.514858
],
  "geometry": {"coordinates":[-73.22800100000001,42.514858],"type":"Point"}
}