{
  "id": 554934981,
  "type": "Feature",
  "properties": {
    "edtf:cessation":"uuuu",
    "edtf:inception":"uuuu",
    "geom:area":0.0,
    "geom:bbox":"-73.675313,41.090953,-73.675313,41.090953",
    "geom:latitude":41.090953,
    "geom:longitude":-73.675313,
    "iso:country":"US",
    "sg:address":"207 Old Mill Rd",
    "sg:city":"Greenwich",
    "sg:classifiers":[
        {
            "category":"Banks & Credit Unions",
            "subcategory":"Investment Brokerage",
            "type":"Services"
        }
    ],
    "sg:owner":"simplegeo",
    "sg:phone":"+1 203 661 9773",
    "sg:postcode":"06831",
    "sg:province":"NY",
    "sg:tags":[
        "manager"
    ],
    "src:geom":"simplegeo",
    "wof:belongsto":[
        85688629,
        85633793,
        85837667,
        102084283
    ],
    "wof:breaches":[],
    "wof:concordances":{
        "sg:id":"SG_7Sv5hrpD6FXJOwD1jUUfHi_41.090953_-73.675313@1294177022"
    },
    "wof:country":"US",
    "wof:geomhash":"44f5d7843c5567ff0c2a23433e86d8b7",
    "wof:hierarchy":[
        {
            "country_id":85633793,
            "county_id":102084283,
            "neighbourhood_id":85837667,
            "region_id":85688629,
            "venue_id":554934981
        }
    ],
    "wof:id":554934981,
    "wof:lastmodified":1461017007,
    "wof:name":"Frederick L Friedman",
    "wof:parent_id":85837667,
    "wof:placetype":"venue",
    "wof:superseded_by":[],
    "wof:supersedes":[],
    "wof:tags":[
        "manager"
    ]
},
  "bbox": [
    -73.675313,
    41.090953,
    -73.675313,
    41.090953
],
  "geometry": {"coordinates":[-73.675313,41.090953],"type":"Point"}
}