{
  "id": 554934181,
  "type": "Feature",
  "properties": {
    "edtf:cessation":"uuuu",
    "edtf:inception":"uuuu",
    "geom:area":0.0,
    "geom:bbox":"-73.660216,41.010436,-73.660216,41.010436",
    "geom:latitude":41.010436,
    "geom:longitude":-73.660216,
    "iso:country":"US",
    "sg:address":"427 Willett Ave",
    "sg:city":"Port Chester",
    "sg:classifiers":[
        {
            "category":"Organizations",
            "subcategory":"Community Association",
            "type":"Services"
        }
    ],
    "sg:owner":"simplegeo",
    "sg:phone":"+1 914 939 0863",
    "sg:postcode":"10573",
    "sg:province":"NY",
    "sg:tags":[
        "fraternal"
    ],
    "src:geom":"simplegeo",
    "wof:belongsto":[
        85885307,
        102191575,
        404495949,
        85633793,
        85930941,
        102084283,
        85688629,
        420530431,
        404523389,
        85978705,
        102082373,
        85688543
    ],
    "wof:breaches":[],
    "wof:concordances":{
        "sg:id":"SG_0gDGj5PpnPjd5TqGaRxi1J_41.010436_-73.660216@1294177022"
    },
    "wof:country":"US",
    "wof:geomhash":"5f2d99fdb70058d9a145b2e1dcff0c9c",
    "wof:hierarchy":[
        {
            "continent_id":102191575,
            "country_id":85633793,
            "county_id":102084283,
            "localadmin_id":404495949,
            "locality_id":85930941,
            "neighbourhood_id":85885307,
            "region_id":85688629,
            "venue_id":554934181
        },
        {
            "continent_id":102191575,
            "country_id":85633793,
            "county_id":102082373,
            "localadmin_id":404523389,
            "locality_id":85978705,
            "neighbourhood_id":420530431,
            "region_id":85688543,
            "venue_id":554934181
        }
    ],
    "wof:id":554934181,
    "wof:lastmodified":1461016909,
    "wof:name":"Port Chester Elks Lodge 863",
    "wof:parent_id":-1,
    "wof:placetype":"venue",
    "wof:superseded_by":[],
    "wof:supersedes":[],
    "wof:tags":[
        "fraternal"
    ]
},
  "bbox": [
    -73.660216,
    41.010436,
    -73.660216,
    41.010436
],
  "geometry": {"coordinates":[-73.66021600000001,41.010436],"type":"Point"}
}