{
  "id": 554934147,
  "type": "Feature",
  "properties": {
    "edtf:cessation":"uuuu",
    "edtf:inception":"uuuu",
    "geom:area":0.0,
    "geom:bbox":"-73.660529,41.006803,-73.660529,41.006803",
    "geom:latitude":41.006803,
    "geom:longitude":-73.660529,
    "iso:country":"US",
    "sg:address":"111 Wilkins Ave",
    "sg:city":"Port Chester",
    "sg:classifiers":[
        {
            "category":"Freight",
            "subcategory":"",
            "type":"Transportation"
        }
    ],
    "sg:owner":"simplegeo",
    "sg:phone":"+1   ",
    "sg:postcode":"10573",
    "sg:province":"NY",
    "sg:tags":[
        "warehouse"
    ],
    "src:geom":"simplegeo",
    "wof:belongsto":[
        85808713,
        102191575,
        404523389,
        85633793,
        85978705,
        102082373,
        85688543
    ],
    "wof:breaches":[],
    "wof:concordances":{
        "sg:id":"SG_4PZK8NUlepyNHlGSHhXZV1_41.006803_-73.660529@1294177022"
    },
    "wof:country":"US",
    "wof:geomhash":"f9c63b02412d845649f7afe845dcd133",
    "wof:hierarchy":[
        {
            "continent_id":102191575,
            "country_id":85633793,
            "county_id":102082373,
            "localadmin_id":404523389,
            "locality_id":85978705,
            "neighbourhood_id":85808713,
            "region_id":85688543,
            "venue_id":554934147
        }
    ],
    "wof:id":554934147,
    "wof:lastmodified":1461016905,
    "wof:name":"Ultimate Cleaning Svc",
    "wof:parent_id":85808713,
    "wof:placetype":"venue",
    "wof:superseded_by":[],
    "wof:supersedes":[],
    "wof:tags":[
        "warehouse"
    ]
},
  "bbox": [
    -73.660529,
    41.006803,
    -73.660529,
    41.006803
],
  "geometry": {"coordinates":[-73.660529,41.006803],"type":"Point"}
}