{
  "id": 554941019,
  "type": "Feature",
  "properties": {
    "edtf:cessation":"uuuu",
    "edtf:inception":"uuuu",
    "geom:area":0.0,
    "geom:bbox":"-77.32114,41.988105,-77.32114,41.988105",
    "geom:latitude":41.988105,
    "geom:longitude":-77.32114,
    "iso:country":"US",
    "sg:address":"108 Condensary Ln",
    "sg:city":"Elkland",
    "sg:classifiers":[
        {
            "category":"Manufacturing",
            "subcategory":"Printing",
            "type":"Manufacturing & Wholesale Goods"
        }
    ],
    "sg:owner":"simplegeo",
    "sg:phone":"+1 814 258 5406",
    "sg:postcode":"16920",
    "sg:province":"NY",
    "sg:tags":[
        "lithographic",
        "printer",
        "commercial",
        "form"
    ],
    "src:geom":"simplegeo",
    "wof:belongsto":[],
    "wof:breaches":[],
    "wof:concordances":{
        "sg:id":"SG_5J6MWPE74C5F6u0JwsZfR8_41.988105_-77.321140@1294177022"
    },
    "wof:country":"US",
    "wof:geomhash":"362ef031a2b07016a484c0cd320182f2",
    "wof:hierarchy":[],
    "wof:id":554941019,
    "wof:lastmodified":1461017700,
    "wof:name":"Crawford's Print Shop",
    "wof:parent_id":420539789,
    "wof:placetype":"venue",
    "wof:superseded_by":[],
    "wof:supersedes":[],
    "wof:tags":[
        "lithographic",
        "printer",
        "commercial",
        "form"
    ]
},
  "bbox": [
    -77.32114,
    41.988105,
    -77.32114,
    41.988105
],
  "geometry": {"coordinates":[-77.32114,41.988105],"type":"Point"}
}