{
  "id": 554941585,
  "type": "Feature",
  "properties": {
    "edtf:cessation":"uuuu",
    "edtf:inception":"uuuu",
    "geom:area":0.0,
    "geom:bbox":"-73.678811,41.051376,-73.678811,41.051376",
    "geom:latitude":41.051376,
    "geom:longitude":-73.678811,
    "iso:country":"US",
    "sg:address":"22 Hettiefred Rd",
    "sg:city":"Greenwich",
    "sg:classifiers":[
        {
            "category":"Building & Trades",
            "subcategory":"Plumbing",
            "type":"Services"
        }
    ],
    "sg:owner":"simplegeo",
    "sg:phone":"+1 203 531 7576",
    "sg:postcode":"06831",
    "sg:province":"NY",
    "sg:tags":[
        "plumbing",
        "contractor"
    ],
    "src:geom":"simplegeo",
    "wof:belongsto":[],
    "wof:breaches":[],
    "wof:concordances":{
        "sg:id":"SG_6deXJUhOAGm3gLEGY9NLcF_41.051376_-73.678811@1294177022"
    },
    "wof:country":"US",
    "wof:geomhash":"e57b683d407339d736149e3aed028190",
    "wof:hierarchy":[],
    "wof:id":554941585,
    "wof:lastmodified":1461017774,
    "wof:name":"Thomas P Bentley",
    "wof:parent_id":-1,
    "wof:placetype":"venue",
    "wof:superseded_by":[],
    "wof:supersedes":[],
    "wof:tags":[
        "plumbing",
        "contractor"
    ]
},
  "bbox": [
    -73.678811,
    41.051376,
    -73.678811,
    41.051376
],
  "geometry": {"coordinates":[-73.678811,41.051376],"type":"Point"}
}