{
  "id": 554939507,
  "type": "Feature",
  "properties": {
    "edtf:cessation":"uuuu",
    "edtf:inception":"uuuu",
    "geom:area":0.0,
    "geom:bbox":"-73.468624,41.129179,-73.468624,41.129179",
    "geom:latitude":41.129179,
    "geom:longitude":-73.468624,
    "iso:country":"US",
    "sg:address":"262 Marvin Ridge Rd",
    "sg:city":"New Canaan",
    "sg:classifiers":[
        {
            "category":"Professional",
            "subcategory":"",
            "type":"Services"
        }
    ],
    "sg:owner":"simplegeo",
    "sg:phone":"+1   ",
    "sg:postcode":"06840",
    "sg:province":"NY",
    "src:geom":"simplegeo",
    "wof:belongsto":[
        85688629,
        85633793,
        85851779,
        102084283
    ],
    "wof:breaches":[],
    "wof:concordances":{
        "sg:id":"SG_7l01QODsqvIJiigOaHAPWC_41.129179_-73.468624@1294177022"
    },
    "wof:country":"US",
    "wof:geomhash":"95c672ff6677b30298337bda918c7c1a",
    "wof:hierarchy":[
        {
            "country_id":85633793,
            "county_id":102084283,
            "neighbourhood_id":85851779,
            "region_id":85688629,
            "venue_id":554939507
        }
    ],
    "wof:id":554939507,
    "wof:lastmodified":1461017571,
    "wof:name":"Debbie Seaman",
    "wof:parent_id":85851779,
    "wof:placetype":"venue",
    "wof:superseded_by":[],
    "wof:supersedes":[],
    "wof:tags":[]
},
  "bbox": [
    -73.468624,
    41.129179,
    -73.468624,
    41.129179
],
  "geometry": {"coordinates":[-73.46862400000001,41.129179],"type":"Point"}
}