{
  "id": 571595105,
  "type": "Feature",
  "properties": {
    "edtf:cessation":"uuuu",
    "edtf:inception":"uuuu",
    "geom:area":0.0,
    "geom:bbox":"-73.910698,40.6945,-73.910698,40.6945",
    "geom:latitude":40.6945,
    "geom:longitude":-73.910698,
    "iso:country":"US",
    "sg:address":"695 Knickerbocker Ave",
    "sg:city":"Brooklyn",
    "sg:classifiers":[
        {
            "category":"Education",
            "subcategory":"Special Training",
            "type":"Public Place"
        }
    ],
    "sg:owner":"simplegeo",
    "sg:phone":"+1 718 456 1185",
    "sg:postcode":"11221",
    "sg:province":"NY",
    "sg:tags":[
        "school",
        "instruction",
        "driving"
    ],
    "src:geom":"simplegeo",
    "wof:belongsto":[
        85808635,
        102191575,
        85633793,
        85977539,
        421205765,
        102082361,
        85688543
    ],
    "wof:breaches":[],
    "wof:concordances":{
        "sg:id":"SG_1Rm1Du2dTrfYNetza2fFWN_40.694686_-73.911107@1293134755"
    },
    "wof:country":"US",
    "wof:geomhash":"2cd17d4e4075ae3ad5bf00713965f0fa",
    "wof:hierarchy":[
        {
            "borough_id":421205765,
            "continent_id":102191575,
            "country_id":85633793,
            "county_id":102082361,
            "locality_id":85977539,
            "neighbourhood_id":85808635,
            "region_id":85688543,
            "venue_id":571595105
        }
    ],
    "wof:id":571595105,
    "wof:lastmodified":1461039235,
    "wof:name":"G & C Auto Driving School",
    "wof:parent_id":85808635,
    "wof:placetype":"venue",
    "wof:superseded_by":[],
    "wof:supersedes":[],
    "wof:tags":[
        "school",
        "instruction",
        "driving"
    ]
},
  "bbox": [
    -73.910698,
    40.6945,
    -73.910698,
    40.6945
],
  "geometry": {"coordinates":[-73.910698,40.6945],"type":"Point"}
}