{
  "id": 554935481,
  "type": "Feature",
  "properties": {
    "edtf:cessation":"uuuu",
    "edtf:inception":"uuuu",
    "geom:area":0.0,
    "geom:bbox":"-73.495194,41.146702,-73.495194,41.146702",
    "geom:latitude":41.146702,
    "geom:longitude":-73.495194,
    "iso:country":"US",
    "sg:address":"67 Elm St",
    "sg:city":"New Canaan",
    "sg:classifiers":[
        {
            "category":"Shopping",
            "subcategory":"Clothing, Apparel, & Fashions",
            "type":"Retail Goods"
        }
    ],
    "sg:owner":"simplegeo",
    "sg:phone":"+1 203 972 8600",
    "sg:postcode":"06840",
    "sg:province":"NY",
    "sg:tags":[
        "infant",
        "wear"
    ],
    "src:geom":"simplegeo",
    "wof:belongsto":[
        85688629,
        85633793,
        85851779,
        102084283
    ],
    "wof:breaches":[],
    "wof:concordances":{
        "sg:id":"SG_7h9TPH3q5VfURhXy7Rpdv9_41.146702_-73.495194@1294177022"
    },
    "wof:country":"US",
    "wof:geomhash":"67da94c300a7d9b9680bb8a90184d451",
    "wof:hierarchy":[
        {
            "country_id":85633793,
            "county_id":102084283,
            "neighbourhood_id":85851779,
            "region_id":85688629,
            "venue_id":554935481
        }
    ],
    "wof:id":554935481,
    "wof:lastmodified":1461017073,
    "wof:name":"Candy Nichols Inc",
    "wof:parent_id":85851779,
    "wof:placetype":"venue",
    "wof:superseded_by":[],
    "wof:supersedes":[],
    "wof:tags":[
        "infant",
        "wear"
    ]
},
  "bbox": [
    -73.495194,
    41.146702,
    -73.495194,
    41.146702
],
  "geometry": {"coordinates":[-73.495194,41.146702],"type":"Point"}
}