{
  "id": 554934277,
  "type": "Feature",
  "properties": {
    "edtf:cessation":"uuuu",
    "edtf:inception":"uuuu",
    "geom:area":0.0,
    "geom:bbox":"-73.474978,41.185224,-73.474978,41.185224",
    "geom:latitude":41.185224,
    "geom:longitude":-73.474978,
    "iso:country":"US",
    "sg:address":"719 Cheese Spring Rd",
    "sg:city":"New Canaan",
    "sg:classifiers":[
        {
            "category":"Professional",
            "subcategory":"Computer Services",
            "type":"Services"
        }
    ],
    "sg:owner":"simplegeo",
    "sg:phone":"+1 203 972 3541",
    "sg:postcode":"06840",
    "sg:province":"NY",
    "sg:tags":[
        "consultant",
        "designer"
    ],
    "src:geom":"simplegeo",
    "wof:belongsto":[],
    "wof:breaches":[],
    "wof:concordances":{
        "sg:id":"SG_4kvWh6P0InMj37jED81y0w_41.185224_-73.474978@1294177022"
    },
    "wof:country":"US",
    "wof:geomhash":"7d9fbc4f45b5f70e65595942ceb6d0d5",
    "wof:hierarchy":[],
    "wof:id":554934277,
    "wof:lastmodified":1461016922,
    "wof:name":"Budd & Co",
    "wof:parent_id":-1,
    "wof:placetype":"venue",
    "wof:superseded_by":[],
    "wof:supersedes":[],
    "wof:tags":[
        "consultant",
        "designer"
    ]
},
  "bbox": [
    -73.474978,
    41.185224,
    -73.474978,
    41.185224
],
  "geometry": {"coordinates":[-73.47497799999999,41.185224],"type":"Point"}
}