{
  "id": 554938267,
  "type": "Feature",
  "properties": {
    "edtf:cessation":"uuuu",
    "edtf:inception":"uuuu",
    "geom:area":0.0,
    "geom:bbox":"-73.658574,41.012383,-73.658574,41.012383",
    "geom:latitude":41.012383,
    "geom:longitude":-73.658574,
    "iso:country":"US",
    "sg:address":"531 Locust Ave",
    "sg:city":"Port Chester",
    "sg:classifiers":[
        {
            "category":"Building & Trades",
            "subcategory":"Construction",
            "type":"Services"
        }
    ],
    "sg:owner":"simplegeo",
    "sg:phone":"+1 914 774 5933",
    "sg:postcode":"10573",
    "sg:province":"NY",
    "sg:tags":[
        "resurfacing",
        "refinishing",
        "floor"
    ],
    "src:geom":"simplegeo",
    "wof:belongsto":[
        85885307,
        102191575,
        404495949,
        85633793,
        85930941,
        102084283,
        85688629,
        420530431,
        404523389,
        85978705,
        102082373,
        85688543
    ],
    "wof:breaches":[],
    "wof:concordances":{
        "sg:id":"SG_6zvcxMRAU1VlCJO9FCgS1q_41.012383_-73.658574@1294177022"
    },
    "wof:country":"US",
    "wof:geomhash":"c2cdcf6cf08b788d347812bfd521f016",
    "wof:hierarchy":[
        {
            "continent_id":102191575,
            "country_id":85633793,
            "county_id":102084283,
            "localadmin_id":404495949,
            "locality_id":85930941,
            "neighbourhood_id":85885307,
            "region_id":85688629,
            "venue_id":554938267
        },
        {
            "continent_id":102191575,
            "country_id":85633793,
            "county_id":102082373,
            "localadmin_id":404523389,
            "locality_id":85978705,
            "neighbourhood_id":420530431,
            "region_id":85688543,
            "venue_id":554938267
        }
    ],
    "wof:id":554938267,
    "wof:lastmodified":1461017461,
    "wof:name":"F M Hardwood Flooring",
    "wof:parent_id":-1,
    "wof:placetype":"venue",
    "wof:superseded_by":[],
    "wof:supersedes":[],
    "wof:tags":[
        "resurfacing",
        "refinishing",
        "floor"
    ]
},
  "bbox": [
    -73.658574,
    41.012383,
    -73.658574,
    41.012383
],
  "geometry": {"coordinates":[-73.658574,41.012383],"type":"Point"}
}