{
  "id": 571488087,
  "type": "Feature",
  "properties": {
    "edtf:cessation":"uuuu",
    "edtf:inception":"uuuu",
    "geom:area":0.0,
    "geom:bbox":"-77.221423,43.062279,-77.221423,43.062279",
    "geom:latitude":43.062279,
    "geom:longitude":-77.221423,
    "iso:country":"US",
    "sg:address":"612 E Main St",
    "sg:city":"Palmyra",
    "sg:classifiers":[
        {
            "category":"Manufacturing",
            "subcategory":"Printing",
            "type":"Manufacturing & Wholesale Goods"
        }
    ],
    "sg:owner":"simplegeo",
    "sg:phone":"+1   ",
    "sg:postcode":"14522",
    "sg:province":"NY",
    "sg:tags":[
        "publishing"
    ],
    "src:geom":"simplegeo",
    "wof:belongsto":[],
    "wof:breaches":[],
    "wof:concordances":{
        "sg:id":"SG_6zOpUOOabMdpz3djlRdNkj_43.062279_-77.221423@1294177022"
    },
    "wof:country":"US",
    "wof:geomhash":"483733b001fcc6714ffff26319424258",
    "wof:hierarchy":[],
    "wof:id":571488087,
    "wof:lastmodified":1461036867,
    "wof:name":"Timesaver Advertising",
    "wof:parent_id":420530351,
    "wof:placetype":"venue",
    "wof:superseded_by":[],
    "wof:supersedes":[],
    "wof:tags":[
        "publishing"
    ]
},
  "bbox": [
    -77.221423,
    43.062279,
    -77.221423,
    43.062279
],
  "geometry": {"coordinates":[-77.221423,43.062279],"type":"Point"}
}