{
  "id": 554935521,
  "type": "Feature",
  "properties": {
    "edtf:cessation":"uuuu",
    "edtf:inception":"uuuu",
    "geom:area":0.0,
    "geom:bbox":"-73.492717,41.134185,-73.492717,41.134185",
    "geom:latitude":41.134185,
    "geom:longitude":-73.492717,
    "iso:country":"US",
    "sg:address":"72 Park Pl",
    "sg:city":"New Canaan",
    "sg:classifiers":[
        {
            "category":"Social Services",
            "subcategory":"",
            "type":"Services"
        }
    ],
    "sg:owner":"simplegeo",
    "sg:phone":"+1 203 972 1566",
    "sg:postcode":"06840",
    "sg:province":"NY",
    "sg:tags":[
        "counselor",
        "marriage",
        "family"
    ],
    "src:geom":"simplegeo",
    "wof:belongsto":[
        85688629,
        85633793,
        85851779,
        102084283
    ],
    "wof:breaches":[],
    "wof:concordances":{
        "sg:id":"SG_4guD49dLI07VtPVxV2LAId_41.134185_-73.492717@1294177022"
    },
    "wof:country":"US",
    "wof:geomhash":"5ebd14d1bbdea66d8c211fa5750253c5",
    "wof:hierarchy":[
        {
            "country_id":85633793,
            "county_id":102084283,
            "neighbourhood_id":85851779,
            "region_id":85688629,
            "venue_id":554935521
        }
    ],
    "wof:id":554935521,
    "wof:lastmodified":1461017084,
    "wof:name":"Psychotherapy & Counseling",
    "wof:parent_id":85851779,
    "wof:placetype":"venue",
    "wof:superseded_by":[],
    "wof:supersedes":[],
    "wof:tags":[
        "counselor",
        "marriage",
        "family"
    ]
},
  "bbox": [
    -73.492717,
    41.134185,
    -73.492717,
    41.134185
],
  "geometry": {"coordinates":[-73.492717,41.134185],"type":"Point"}
}