{
  "id": 555645871,
  "type": "Feature",
  "properties": {
    "edtf:cessation":"uuuu",
    "edtf:inception":"uuuu",
    "geom:area":0.0,
    "geom:bbox":"-74.131835,44.325388,-74.131835,44.325388",
    "geom:latitude":44.325388,
    "geom:longitude":-74.131835,
    "iso:country":"US",
    "sg:address":"82 Main St",
    "sg:city":"Saranac Lake",
    "sg:classifiers":[
        {
            "category":"Shopping",
            "subcategory":"Bicycles & Sporting Goods",
            "type":"Retail Goods"
        }
    ],
    "sg:owner":"simplegeo",
    "sg:phone":"+1   ",
    "sg:postcode":"12983",
    "sg:province":"NY",
    "src:geom":"simplegeo",
    "wof:belongsto":[],
    "wof:breaches":[],
    "wof:concordances":{
        "sg:id":"SG_3g5sU5wQnHedYG0z7VGQXc_44.325388_-74.131835@1294177022"
    },
    "wof:country":"US",
    "wof:geomhash":"ab874ffd109fcd1167eaef3407e31cc8",
    "wof:hierarchy":[],
    "wof:id":555645871,
    "wof:lastmodified":1461034540,
    "wof:name":"Blue Line Sport Shop Inc",
    "wof:parent_id":-1,
    "wof:placetype":"venue",
    "wof:superseded_by":[],
    "wof:supersedes":[],
    "wof:tags":[]
},
  "bbox": [
    -74.131835,
    44.325388,
    -74.131835,
    44.325388
],
  "geometry": {"coordinates":[-74.131835,44.325388],"type":"Point"}
}