{
  "id": 554939769,
  "type": "Feature",
  "properties": {
    "edtf:cessation":"uuuu",
    "edtf:inception":"uuuu",
    "geom:area":0.0,
    "geom:bbox":"-73.233756,42.51561,-73.233756,42.51561",
    "geom:latitude":42.51561,
    "geom:longitude":-73.233756,
    "iso:country":"US",
    "sg:address":"34 Meadow Ln",
    "sg:city":"Lanesboro",
    "sg:classifiers":[
        {
            "category":"Wholesale",
            "subcategory":"Sporting Goods",
            "type":"Manufacturing & Wholesale Goods"
        }
    ],
    "sg:owner":"simplegeo",
    "sg:phone":"+1 413 445 4411",
    "sg:postcode":"01237",
    "sg:province":"NY",
    "sg:tags":[
        "equipment",
        "pool",
        "swimming"
    ],
    "src:geom":"simplegeo",
    "wof:belongsto":[
        85688645,
        85633793,
        85829509,
        102084369
    ],
    "wof:breaches":[],
    "wof:concordances":{
        "sg:id":"SG_5sLLUmNZqHTje4vK12nOQQ_42.515610_-73.233756@1294177022"
    },
    "wof:country":"US",
    "wof:geomhash":"d7cabbcc8e5f27b1cec9d25e55bd5773",
    "wof:hierarchy":[
        {
            "country_id":85633793,
            "county_id":102084369,
            "neighbourhood_id":85829509,
            "region_id":85688645,
            "venue_id":554939769
        }
    ],
    "wof:id":554939769,
    "wof:lastmodified":1461017593,
    "wof:name":"Pool Pro",
    "wof:parent_id":85829509,
    "wof:placetype":"venue",
    "wof:superseded_by":[],
    "wof:supersedes":[],
    "wof:tags":[
        "equipment",
        "pool",
        "swimming"
    ]
},
  "bbox": [
    -73.233756,
    42.51561,
    -73.233756,
    42.51561
],
  "geometry": {"coordinates":[-73.233756,42.51561],"type":"Point"}
}