{
  "id": 572170843,
  "type": "Feature",
  "properties": {
    "edtf:cessation":"uuuu",
    "edtf:inception":"uuuu",
    "geom:area":0.0,
    "geom:bbox":"-74.295117,40.647774,-74.295117,40.647774",
    "geom:latitude":40.647774,
    "geom:longitude":-74.295117,
    "iso:country":"US",
    "sg:address":"4507 5th Ave",
    "sg:city":"Brooklyn",
    "sg:classifiers":[
        {
            "category":"Shopping",
            "subcategory":"Jewelry",
            "type":"Retail Goods"
        }
    ],
    "sg:owner":"simplegeo",
    "sg:phone":"+1 718 435 0050",
    "sg:postcode":"11220",
    "sg:province":"NY",
    "src:geom":"simplegeo",
    "wof:belongsto":[
        85688607,
        85633793,
        85850963,
        102085995
    ],
    "wof:breaches":[],
    "wof:concordances":{
        "sg:id":"SG_3BQ782Vd5WncW8DL3EKQfF_40.647774_-74.295117@1303262344"
    },
    "wof:country":"US",
    "wof:geomhash":"d9bf806e46a07e09b5b2882a25f86a08",
    "wof:hierarchy":[
        {
            "country_id":85633793,
            "county_id":102085995,
            "neighbourhood_id":85850963,
            "region_id":85688607,
            "venue_id":572170843
        }
    ],
    "wof:id":572170843,
    "wof:lastmodified":1461051434,
    "wof:name":"J & H Jewerly",
    "wof:parent_id":85850963,
    "wof:placetype":"venue",
    "wof:superseded_by":[],
    "wof:supersedes":[],
    "wof:tags":[]
},
  "bbox": [
    -74.295117,
    40.647774,
    -74.295117,
    40.647774
],
  "geometry": {"coordinates":[-74.295117,40.647774],"type":"Point"}
}