{
  "id": 554941753,
  "type": "Feature",
  "properties": {
    "edtf:cessation":"uuuu",
    "edtf:inception":"uuuu",
    "geom:area":0.0,
    "geom:bbox":"-73.491869,41.146111,-73.491869,41.146111",
    "geom:latitude":41.146111,
    "geom:longitude":-73.491869,
    "iso:country":"US",
    "sg:address":"130 Main St",
    "sg:city":"New Canaan",
    "sg:classifiers":[
        {
            "category":"Home & Garden",
            "subcategory":"Furniture",
            "type":"Retail Goods"
        }
    ],
    "sg:owner":"simplegeo",
    "sg:phone":"+1 203 966 0136",
    "sg:postcode":"06840",
    "sg:province":"NY",
    "src:geom":"simplegeo",
    "wof:belongsto":[
        85688629,
        85633793,
        85851779,
        102084283
    ],
    "wof:breaches":[],
    "wof:concordances":{
        "sg:id":"SG_4bZKQSvlqMlegNASaaGoUg_41.146111_-73.491869@1294177022"
    },
    "wof:country":"US",
    "wof:geomhash":"bc8fa74cef4d12d6413beb332ea2d2c8",
    "wof:hierarchy":[
        {
            "country_id":85633793,
            "county_id":102084283,
            "neighbourhood_id":85851779,
            "region_id":85688629,
            "venue_id":554941753
        }
    ],
    "wof:id":554941753,
    "wof:lastmodified":1461017802,
    "wof:name":"Scofield's Furniture Custom",
    "wof:parent_id":85851779,
    "wof:placetype":"venue",
    "wof:superseded_by":[],
    "wof:supersedes":[],
    "wof:tags":[]
},
  "bbox": [
    -73.491869,
    41.146111,
    -73.491869,
    41.146111
],
  "geometry": {"coordinates":[-73.49186899999999,41.146111],"type":"Point"}
}