{
  "id": 571661311,
  "type": "Feature",
  "properties": {
    "edtf:cessation":"uuuu",
    "edtf:inception":"uuuu",
    "geom:area":0.0,
    "geom:bbox":"-74.200663,42.934696,-74.200663,42.934696",
    "geom:latitude":42.934696,
    "geom:longitude":-74.200663,
    "iso:country":"US",
    "sg:address":"51 Broad St",
    "sg:city":"Amsterdam",
    "sg:classifiers":[
        {
            "category":"Restaurant",
            "subcategory":"",
            "type":"Food & Drink"
        }
    ],
    "sg:owner":"simplegeo",
    "sg:phone":"+1 518 842 9807",
    "sg:postcode":"12010",
    "sg:province":"NY",
    "src:geom":"simplegeo",
    "wof:belongsto":[],
    "wof:breaches":[],
    "wof:concordances":{
        "sg:id":"SG_77uBGDxWa7lCCjhmgHF9S8_42.934340_-74.200898@1293134755"
    },
    "wof:country":"US",
    "wof:geomhash":"b700984e9917a7b243976ef29f479e9a",
    "wof:hierarchy":[],
    "wof:id":571661311,
    "wof:lastmodified":1461040761,
    "wof:name":"Shorty's Southside",
    "wof:parent_id":-1,
    "wof:placetype":"venue",
    "wof:superseded_by":[],
    "wof:supersedes":[],
    "wof:tags":[]
},
  "bbox": [
    -74.200663,
    42.934696,
    -74.200663,
    42.934696
],
  "geometry": {"coordinates":[-74.20066300000001,42.934696],"type":"Point"}
}