{
  "id": 572175813,
  "type": "Feature",
  "properties": {
    "edtf:cessation":"uuuu",
    "edtf:inception":"uuuu",
    "geom:area":0.0,
    "geom:bbox":"-72.42984,41.368152,-72.42984,41.368152",
    "geom:latitude":41.368152,
    "geom:longitude":-72.42984,
    "iso:country":"US",
    "sg:address":"53345 Route 25",
    "sg:city":"Southold",
    "sg:classifiers":[
        {
            "category":"Professional",
            "subcategory":"",
            "type":"Services"
        },
        {
            "category":"Deli",
            "subcategory":"",
            "type":"Food & Drink"
        },
        {
            "category":"Food & Beverages",
            "subcategory":"Bakery",
            "type":"Retail Goods"
        }
    ],
    "sg:owner":"simplegeo",
    "sg:phone":"+1 631 765 5055",
    "sg:postcode":"11971",
    "sg:province":"NY",
    "sg:tags":[
        "sandwich",
        "caterer"
    ],
    "src:geom":"simplegeo",
    "wof:belongsto":[
        85688629,
        85633793,
        85842637,
        102086211
    ],
    "wof:breaches":[],
    "wof:concordances":{
        "sg:id":"SG_4koS6obZXuyHodYjKyYsTr_41.368152_-72.429840@1303262384"
    },
    "wof:country":"US",
    "wof:geomhash":"c19697f48b89edc2cdb3c0953748c996",
    "wof:hierarchy":[
        {
            "country_id":85633793,
            "county_id":102086211,
            "neighbourhood_id":85842637,
            "region_id":85688629,
            "venue_id":572175813
        }
    ],
    "wof:id":572175813,
    "wof:lastmodified":1461051593,
    "wof:name":"The Piping Plover Cafe",
    "wof:parent_id":85842637,
    "wof:placetype":"venue",
    "wof:superseded_by":[],
    "wof:supersedes":[],
    "wof:tags":[
        "sandwich",
        "caterer"
    ]
},
  "bbox": [
    -72.42984,
    41.368152,
    -72.42984,
    41.368152
],
  "geometry": {"coordinates":[-72.42984,41.368152],"type":"Point"}
}