{
  "id": 554938989,
  "type": "Feature",
  "properties": {
    "edtf:cessation":"uuuu",
    "edtf:inception":"uuuu",
    "geom:area":0.0,
    "geom:bbox":"-73.598642,41.184829,-73.598642,41.184829",
    "geom:latitude":41.184829,
    "geom:longitude":-73.598642,
    "iso:country":"US",
    "sg:address":"11 Old Logging Rd",
    "sg:city":"Bedford",
    "sg:classifiers":[
        {
            "category":"Professional",
            "subcategory":"Advertising",
            "type":"Services"
        }
    ],
    "sg:owner":"simplegeo",
    "sg:phone":"+1 914 764 0528",
    "sg:postcode":"10506",
    "sg:province":"NY",
    "sg:tags":[
        "agency"
    ],
    "src:geom":"simplegeo",
    "wof:belongsto":[
        85688629,
        85633793,
        85930787,
        102084283,
        85838073
    ],
    "wof:breaches":[],
    "wof:concordances":{
        "sg:id":"SG_2r45XD8VoFbzm9JdZJy0LC_41.184829_-73.598642@1294177022"
    },
    "wof:country":"US",
    "wof:geomhash":"2dfd048031e62f39711c0f05de983b53",
    "wof:hierarchy":[
        {
            "country_id":85633793,
            "county_id":102084283,
            "locality_id":85930787,
            "neighbourhood_id":85838073,
            "region_id":85688629,
            "venue_id":554938989
        }
    ],
    "wof:id":554938989,
    "wof:lastmodified":1461017517,
    "wof:name":"Redmond Co",
    "wof:parent_id":85838073,
    "wof:placetype":"venue",
    "wof:superseded_by":[],
    "wof:supersedes":[],
    "wof:tags":[
        "agency"
    ]
},
  "bbox": [
    -73.598642,
    41.184829,
    -73.598642,
    41.184829
],
  "geometry": {"coordinates":[-73.598642,41.184829],"type":"Point"}
}