{
  "id": 555271693,
  "type": "Feature",
  "properties": {
    "edtf:cessation":"uuuu",
    "edtf:inception":"uuuu",
    "geom:area":0.0,
    "geom:bbox":"-73.844761,41.57459,-73.844761,41.57459",
    "geom:latitude":41.57459,
    "geom:longitude":-73.844761,
    "iso:country":"US",
    "sg:address":"20 Newhard Pl",
    "sg:city":"Hopewell Jct",
    "sg:classifiers":[
        {
            "category":"Wholesale",
            "subcategory":"Hardware",
            "type":"Manufacturing & Wholesale Goods"
        }
    ],
    "sg:owner":"simplegeo",
    "sg:phone":"+1 845 226 8343",
    "sg:postcode":"12533",
    "sg:province":"NY",
    "sg:tags":[
        "refrigerating"
    ],
    "src:geom":"simplegeo",
    "wof:belongsto":[],
    "wof:breaches":[],
    "wof:concordances":{
        "sg:id":"SG_5uWdjDH9Hg2DW41BBAec0e_41.574590_-73.844761@1294177022"
    },
    "wof:country":"US",
    "wof:geomhash":"6960c50fe56f0217d7bb0edcff6e7d64",
    "wof:hierarchy":[],
    "wof:id":555271693,
    "wof:lastmodified":1461025851,
    "wof:name":"Airmasters",
    "wof:parent_id":420528491,
    "wof:placetype":"venue",
    "wof:superseded_by":[],
    "wof:supersedes":[],
    "wof:tags":[
        "refrigerating"
    ]
},
  "bbox": [
    -73.844761,
    41.57459,
    -73.844761,
    41.57459
],
  "geometry": {"coordinates":[-73.84476100000001,41.57459],"type":"Point"}
}