{
  "id": 554937015,
  "type": "Feature",
  "properties": {
    "edtf:cessation":"uuuu",
    "edtf:inception":"uuuu",
    "geom:area":0.0,
    "geom:bbox":"-74.112216,41.093221,-74.112216,41.093221",
    "geom:latitude":41.093221,
    "geom:longitude":-74.112216,
    "iso:country":"US",
    "sg:address":"61 Church Rd",
    "sg:city":"Monsey",
    "sg:classifiers":[
        {
            "category":"Building & Trades",
            "subcategory":"Construction",
            "type":"Services"
        },
        {
            "category":"Retail",
            "subcategory":"Auto Repair",
            "type":"Services"
        }
    ],
    "sg:owner":"simplegeo",
    "sg:phone":"+1 845 368 2080",
    "sg:postcode":"10952",
    "sg:province":"NY",
    "sg:tags":[
        "glass",
        "coating",
        "tinting",
        "contractor"
    ],
    "src:geom":"simplegeo",
    "wof:belongsto":[
        85832837,
        102191575,
        404523097,
        85633793,
        85978559,
        102082385,
        85688543
    ],
    "wof:breaches":[],
    "wof:concordances":{
        "sg:id":"SG_61joAtxVoB1g2uC7FGcsVm_41.093221_-74.112216@1294177022"
    },
    "wof:country":"US",
    "wof:geomhash":"a32fbd4fa76bf9331fceb00c8306d144",
    "wof:hierarchy":[
        {
            "continent_id":102191575,
            "country_id":85633793,
            "county_id":102082385,
            "localadmin_id":404523097,
            "locality_id":85978559,
            "neighbourhood_id":85832837,
            "region_id":85688543,
            "venue_id":554937015
        }
    ],
    "wof:id":554937015,
    "wof:lastmodified":1461017306,
    "wof:name":"Mr Tint Glass Tinting",
    "wof:parent_id":85832837,
    "wof:placetype":"venue",
    "wof:superseded_by":[],
    "wof:supersedes":[],
    "wof:tags":[
        "glass",
        "coating",
        "tinting",
        "contractor"
    ]
},
  "bbox": [
    -74.112216,
    41.093221,
    -74.112216,
    41.093221
],
  "geometry": {"coordinates":[-74.112216,41.093221],"type":"Point"}
}