{
  "id": 554934275,
  "type": "Feature",
  "properties": {
    "edtf:cessation":"uuuu",
    "edtf:inception":"uuuu",
    "geom:area":0.0,
    "geom:bbox":"-73.485412,41.143593,-73.485412,41.143593",
    "geom:latitude":41.143593,
    "geom:longitude":-73.485412,
    "iso:country":"US",
    "sg:address":"12 Olmstead Ct",
    "sg:city":"New Canaan",
    "sg:classifiers":[
        {
            "category":"Retail",
            "subcategory":"Portrait Studio",
            "type":"Services"
        }
    ],
    "sg:owner":"simplegeo",
    "sg:phone":"+1   ",
    "sg:postcode":"06840",
    "sg:province":"NY",
    "sg:tags":[
        "photo"
    ],
    "src:geom":"simplegeo",
    "wof:belongsto":[
        85688629,
        85633793,
        85851779,
        102084283
    ],
    "wof:breaches":[],
    "wof:concordances":{
        "sg:id":"SG_7YQuXxO0dWazr13fsI9wfN_41.143593_-73.485412@1294177022"
    },
    "wof:country":"US",
    "wof:geomhash":"65cabaeaf2dd38f17ccedde6f62dcf3e",
    "wof:hierarchy":[
        {
            "country_id":85633793,
            "county_id":102084283,
            "neighbourhood_id":85851779,
            "region_id":85688629,
            "venue_id":554934275
        }
    ],
    "wof:id":554934275,
    "wof:lastmodified":1461016921,
    "wof:name":"Carol Grayson Photography",
    "wof:parent_id":85851779,
    "wof:placetype":"venue",
    "wof:superseded_by":[],
    "wof:supersedes":[],
    "wof:tags":[
        "photo"
    ]
},
  "bbox": [
    -73.485412,
    41.143593,
    -73.485412,
    41.143593
],
  "geometry": {"coordinates":[-73.485412,41.143593],"type":"Point"}
}