{
  "id": 554940975,
  "type": "Feature",
  "properties": {
    "edtf:cessation":"uuuu",
    "edtf:inception":"uuuu",
    "geom:area":0.0,
    "geom:bbox":"-73.66765,41.093325,-73.66765,41.093325",
    "geom:latitude":41.093325,
    "geom:longitude":-73.66765,
    "iso:country":"US",
    "sg:address":"395 Round Hill Rd",
    "sg:city":"Greenwich",
    "sg:classifiers":[
        {
            "category":"Organizations",
            "subcategory":"Religious Organization",
            "type":"Services"
        }
    ],
    "sg:owner":"simplegeo",
    "sg:phone":"+1   ",
    "sg:postcode":"06831",
    "sg:province":"NY",
    "src:geom":"simplegeo",
    "wof:belongsto":[
        85688629,
        85633793,
        85837667,
        102084283
    ],
    "wof:breaches":[],
    "wof:concordances":{
        "sg:id":"SG_3MUQLHwcw0T2eRKkiAehAb_41.093325_-73.667650@1294177022"
    },
    "wof:country":"US",
    "wof:geomhash":"040662332f23f54d1c71be45fe613a10",
    "wof:hierarchy":[
        {
            "country_id":85633793,
            "county_id":102084283,
            "neighbourhood_id":85837667,
            "region_id":85688629,
            "venue_id":554940975
        }
    ],
    "wof:id":554940975,
    "wof:lastmodified":1461017695,
    "wof:name":"Round Hill Community Church",
    "wof:parent_id":85837667,
    "wof:placetype":"venue",
    "wof:superseded_by":[],
    "wof:supersedes":[],
    "wof:tags":[]
},
  "bbox": [
    -73.66765,
    41.093325,
    -73.66765,
    41.093325
],
  "geometry": {"coordinates":[-73.66764999999999,41.093325],"type":"Point"}
}