{
  "id": 554935907,
  "type": "Feature",
  "properties": {
    "edtf:cessation":"uuuu",
    "edtf:inception":"uuuu",
    "geom:area":0.0,
    "geom:bbox":"-73.492372,41.1471,-73.492372,41.1471",
    "geom:latitude":41.1471,
    "geom:longitude":-73.492372,
    "iso:country":"US",
    "sg:address":"47 Elm St",
    "sg:city":"New Canaan",
    "sg:classifiers":[
        {
            "category":"Real Estate",
            "subcategory":"Developer",
            "type":"Services"
        },
        {
            "category":"Building & Trades",
            "subcategory":"Construction",
            "type":"Services"
        }
    ],
    "sg:owner":"simplegeo",
    "sg:phone":"+1 203 972 4975",
    "sg:postcode":"06840",
    "sg:province":"NY",
    "sg:tags":[
        "general",
        "contractor"
    ],
    "sg:website":"www.fiebergroup.com",
    "src:geom":"simplegeo",
    "wof:belongsto":[
        85688629,
        85633793,
        85851779,
        102084283
    ],
    "wof:breaches":[],
    "wof:concordances":{
        "sg:id":"SG_00fOXyBD8ANwPZh3MwdQCI_41.147100_-73.492372@1294177022"
    },
    "wof:country":"US",
    "wof:geomhash":"7fe10ca657a9f3eed51dbbeab569d61c",
    "wof:hierarchy":[
        {
            "country_id":85633793,
            "county_id":102084283,
            "neighbourhood_id":85851779,
            "region_id":85688629,
            "venue_id":554935907
        }
    ],
    "wof:id":554935907,
    "wof:lastmodified":1461017134,
    "wof:name":"Special Properties II LLC",
    "wof:parent_id":85851779,
    "wof:placetype":"venue",
    "wof:superseded_by":[],
    "wof:supersedes":[],
    "wof:tags":[
        "general",
        "contractor"
    ]
},
  "bbox": [
    -73.492372,
    41.1471,
    -73.492372,
    41.1471
],
  "geometry": {"coordinates":[-73.492372,41.1471],"type":"Point"}
}