{
  "id": 554935937,
  "type": "Feature",
  "properties": {
    "edtf:cessation":"uuuu",
    "edtf:inception":"uuuu",
    "geom:area":0.0,
    "geom:bbox":"-73.506858,41.171848,-73.506858,41.171848",
    "geom:latitude":41.171848,
    "geom:longitude":-73.506858,
    "iso:country":"US",
    "sg:address":"186 Indian Rock Rd",
    "sg:city":"New Canaan",
    "sg:classifiers":[
        {
            "category":"Building & Trades",
            "subcategory":"Construction",
            "type":"Services"
        }
    ],
    "sg:owner":"simplegeo",
    "sg:phone":"+1 203 966 3400",
    "sg:postcode":"06840",
    "sg:province":"NY",
    "sg:tags":[
        "contractor"
    ],
    "src:geom":"simplegeo",
    "wof:belongsto":[],
    "wof:breaches":[],
    "wof:concordances":{
        "sg:id":"SG_0XyyH1zsC7RNgPqAZiBEkH_41.171848_-73.506858@1294177022"
    },
    "wof:country":"US",
    "wof:geomhash":"e618a0ce315af937c0485e6a7687341c",
    "wof:hierarchy":[],
    "wof:id":554935937,
    "wof:lastmodified":1461017139,
    "wof:name":"Leonard W Cotton & Assoc Inc",
    "wof:parent_id":-1,
    "wof:placetype":"venue",
    "wof:superseded_by":[],
    "wof:supersedes":[],
    "wof:tags":[
        "contractor"
    ]
},
  "bbox": [
    -73.506858,
    41.171848,
    -73.506858,
    41.171848
],
  "geometry": {"coordinates":[-73.50685799999999,41.171848],"type":"Point"}
}