{
  "id": 554934917,
  "type": "Feature",
  "properties": {
    "edtf:cessation":"uuuu",
    "edtf:inception":"uuuu",
    "geom:area":0.0,
    "geom:bbox":"-74.047876,41.089735,-74.047876,41.089735",
    "geom:latitude":41.089735,
    "geom:longitude":-74.047876,
    "iso:country":"US",
    "sg:address":"2 Weiss Ter",
    "sg:city":"Spring Valley",
    "sg:classifiers":[
        {
            "category":"Retail",
            "subcategory":"Animal Services",
            "type":"Services"
        }
    ],
    "sg:owner":"simplegeo",
    "sg:phone":"+1 845 352 2175",
    "sg:postcode":"10977",
    "sg:province":"NY",
    "src:geom":"simplegeo",
    "wof:belongsto":[
        85853261,
        102191575,
        404523097,
        85633793,
        85978555,
        102082385,
        85688543
    ],
    "wof:breaches":[],
    "wof:concordances":{
        "sg:id":"SG_1AdWuRwH3X61LuC9xyJyDE_41.089735_-74.047876@1294177022"
    },
    "wof:country":"US",
    "wof:geomhash":"478073cbca60f4d9cdca04b6046404d8",
    "wof:hierarchy":[
        {
            "continent_id":102191575,
            "country_id":85633793,
            "county_id":102082385,
            "localadmin_id":404523097,
            "locality_id":85978555,
            "neighbourhood_id":85853261,
            "region_id":85688543,
            "venue_id":554934917
        }
    ],
    "wof:id":554934917,
    "wof:lastmodified":1461017000,
    "wof:name":"Best Breed Mobile Dog Groom",
    "wof:parent_id":85853261,
    "wof:placetype":"venue",
    "wof:superseded_by":[],
    "wof:supersedes":[],
    "wof:tags":[]
},
  "bbox": [
    -74.047876,
    41.089735,
    -74.047876,
    41.089735
],
  "geometry": {"coordinates":[-74.047876,41.089735],"type":"Point"}
}