{
  "id": 554940867,
  "type": "Feature",
  "properties": {
    "edtf:cessation":"uuuu",
    "edtf:inception":"uuuu",
    "geom:area":0.0,
    "geom:bbox":"-73.987241,40.78054,-73.987241,40.78054",
    "geom:latitude":40.78054,
    "geom:longitude":-73.987241,
    "iso:country":"US",
    "sg:address":"240 Riverside Blvd",
    "sg:city":"New York",
    "sg:classifiers":[
        {
            "category":"Organizations",
            "subcategory":"Professional Association",
            "type":"Services"
        }
    ],
    "sg:owner":"simplegeo",
    "sg:phone":"+1 212 787 2829",
    "sg:postcode":"10069",
    "sg:province":"NY",
    "src:geom":"simplegeo",
    "wof:belongsto":[
        85869077,
        102191575,
        404478149,
        85633793,
        85975287,
        102080719,
        85688607
    ],
    "wof:breaches":[],
    "wof:concordances":{
        "sg:id":"SG_2bTQUuiRsOIzcpr5F6uxYK_40.780540_-73.987241@1294177022"
    },
    "wof:country":"US",
    "wof:geomhash":"3d1a4e48507db120d28420f918ea9ebf",
    "wof:hierarchy":[
        {
            "continent_id":102191575,
            "country_id":85633793,
            "county_id":102080719,
            "localadmin_id":404478149,
            "locality_id":85975287,
            "neighbourhood_id":85869077,
            "region_id":85688607,
            "venue_id":554940867
        }
    ],
    "wof:id":554940867,
    "wof:lastmodified":1461017685,
    "wof:name":"Hudson Waterfront Assoc",
    "wof:parent_id":85869077,
    "wof:placetype":"venue",
    "wof:superseded_by":[],
    "wof:supersedes":[],
    "wof:tags":[]
},
  "bbox": [
    -73.987241,
    40.78054,
    -73.987241,
    40.78054
],
  "geometry": {"coordinates":[-73.987241,40.78054],"type":"Point"}
}