{
  "id": 554936755,
  "type": "Feature",
  "properties": {
    "edtf:cessation":"uuuu",
    "edtf:inception":"uuuu",
    "geom:area":0.0,
    "geom:bbox":"-73.492749,41.148081,-73.492749,41.148081",
    "geom:latitude":41.148081,
    "geom:longitude":-73.492749,
    "iso:country":"US",
    "sg:address":"70 Main St",
    "sg:city":"New Canaan",
    "sg:classifiers":[
        {
            "category":"Mining & Drilling",
            "subcategory":"",
            "type":"Manufacturing & Wholesale Goods"
        }
    ],
    "sg:owner":"simplegeo",
    "sg:phone":"+1 203 972 0009",
    "sg:postcode":"06840",
    "sg:province":"NY",
    "sg:tags":[
        "exploration"
    ],
    "src:geom":"simplegeo",
    "wof:belongsto":[
        85688629,
        85633793,
        85851779,
        102084283
    ],
    "wof:breaches":[],
    "wof:concordances":{
        "sg:id":"SG_0grcvH3Sl4NBONcJQU2gZe_41.148081_-73.492749@1294177022"
    },
    "wof:country":"US",
    "wof:geomhash":"1e8d31cdedc1759e87ef2d1fb7976bd9",
    "wof:hierarchy":[
        {
            "country_id":85633793,
            "county_id":102084283,
            "neighbourhood_id":85851779,
            "region_id":85688629,
            "venue_id":554936755
        }
    ],
    "wof:id":554936755,
    "wof:lastmodified":1461017271,
    "wof:name":"Douglas Keith",
    "wof:parent_id":85851779,
    "wof:placetype":"venue",
    "wof:superseded_by":[],
    "wof:supersedes":[],
    "wof:tags":[
        "exploration"
    ]
},
  "bbox": [
    -73.492749,
    41.148081,
    -73.492749,
    41.148081
],
  "geometry": {"coordinates":[-73.492749,41.148081],"type":"Point"}
}