{
  "id": 554939405,
  "type": "Feature",
  "properties": {
    "edtf:cessation":"uuuu",
    "edtf:inception":"uuuu",
    "geom:area":0.0,
    "geom:bbox":"-73.496557,41.147046,-73.496557,41.147046",
    "geom:latitude":41.147046,
    "geom:longitude":-73.496557,
    "iso:country":"US",
    "sg:address":"66 Seminary St",
    "sg:city":"New Canaan",
    "sg:classifiers":[
        {
            "category":"Professional",
            "subcategory":"Management & Consulting",
            "type":"Services"
        }
    ],
    "sg:owner":"simplegeo",
    "sg:phone":"+1   ",
    "sg:postcode":"06840",
    "sg:province":"NY",
    "src:geom":"simplegeo",
    "wof:belongsto":[
        85688629,
        85633793,
        85851779,
        102084283
    ],
    "wof:breaches":[],
    "wof:concordances":{
        "sg:id":"SG_1ST6zNRBahbZFAossIV47T_41.147046_-73.496557@1294177022"
    },
    "wof:country":"US",
    "wof:geomhash":"4c02a64b3a43f031e01b2cf3bd639b5e",
    "wof:hierarchy":[
        {
            "country_id":85633793,
            "county_id":102084283,
            "neighbourhood_id":85851779,
            "region_id":85688629,
            "venue_id":554939405
        }
    ],
    "wof:id":554939405,
    "wof:lastmodified":1461017560,
    "wof:name":"McEvoy/Batchelor Intl LLP",
    "wof:parent_id":85851779,
    "wof:placetype":"venue",
    "wof:superseded_by":[],
    "wof:supersedes":[],
    "wof:tags":[]
},
  "bbox": [
    -73.496557,
    41.147046,
    -73.496557,
    41.147046
],
  "geometry": {"coordinates":[-73.496557,41.147046],"type":"Point"}
}