{
  "id": 554935083,
  "type": "Feature",
  "properties": {
    "edtf:cessation":"uuuu",
    "edtf:inception":"uuuu",
    "geom:area":0.0,
    "geom:bbox":"-73.534599,41.162094,-73.534599,41.162094",
    "geom:latitude":41.162094,
    "geom:longitude":-73.534599,
    "iso:country":"US",
    "sg:address":"105 Clearview Ln",
    "sg:city":"New Canaan",
    "sg:classifiers":[
        {
            "category":"Professional",
            "subcategory":"Accounting & Tax Preparation",
            "type":"Services"
        }
    ],
    "sg:owner":"simplegeo",
    "sg:phone":"+1 203 966 3942",
    "sg:postcode":"06840",
    "sg:province":"NY",
    "sg:tags":[
        "accountant"
    ],
    "src:geom":"simplegeo",
    "wof:belongsto":[],
    "wof:breaches":[],
    "wof:concordances":{
        "sg:id":"SG_3d8BUeA6SbrHt4mzGIKOy7_41.162094_-73.534599@1294177022"
    },
    "wof:country":"US",
    "wof:geomhash":"e7b5d0269d335f8da03876e19e960ea8",
    "wof:hierarchy":[],
    "wof:id":554935083,
    "wof:lastmodified":1461017020,
    "wof:name":"Partners Advisory Group",
    "wof:parent_id":-1,
    "wof:placetype":"venue",
    "wof:superseded_by":[],
    "wof:supersedes":[],
    "wof:tags":[
        "accountant"
    ]
},
  "bbox": [
    -73.534599,
    41.162094,
    -73.534599,
    41.162094
],
  "geometry": {"coordinates":[-73.534599,41.162094],"type":"Point"}
}