{
  "id": 554938675,
  "type": "Feature",
  "properties": {
    "edtf:cessation":"uuuu",
    "edtf:inception":"uuuu",
    "geom:area":0.0,
    "geom:bbox":"-74.052785,41.07617,-74.052785,41.07617",
    "geom:latitude":41.07617,
    "geom:longitude":-74.052785,
    "iso:country":"US",
    "sg:address":"19 Williams Rd",
    "sg:city":"Spring Valley",
    "sg:classifiers":[
        {
            "category":"Building & Trades",
            "subcategory":"Construction",
            "type":"Services"
        }
    ],
    "sg:owner":"simplegeo",
    "sg:phone":"+1 845 735 7282",
    "sg:postcode":"10977",
    "sg:province":"NY",
    "sg:tags":[
        "contractor"
    ],
    "src:geom":"simplegeo",
    "wof:belongsto":[
        85853261,
        102191575,
        404523097,
        85633793,
        85978555,
        102082385,
        85688543
    ],
    "wof:breaches":[],
    "wof:concordances":{
        "sg:id":"SG_125tQVyXovKTkeHaT3KUNI_41.076170_-74.052785@1294177022"
    },
    "wof:country":"US",
    "wof:geomhash":"1c5e36285ed8c8fbbaa99c8c791b021c",
    "wof:hierarchy":[
        {
            "continent_id":102191575,
            "country_id":85633793,
            "county_id":102082385,
            "localadmin_id":404523097,
            "locality_id":85978555,
            "neighbourhood_id":85853261,
            "region_id":85688543,
            "venue_id":554938675
        }
    ],
    "wof:id":554938675,
    "wof:lastmodified":1461017495,
    "wof:name":"Mason Ekko Inc",
    "wof:parent_id":85853261,
    "wof:placetype":"venue",
    "wof:superseded_by":[],
    "wof:supersedes":[],
    "wof:tags":[
        "contractor"
    ]
},
  "bbox": [
    -74.052785,
    41.07617,
    -74.052785,
    41.07617
],
  "geometry": {"coordinates":[-74.052785,41.07617],"type":"Point"}
}