{
  "id": 555516983,
  "type": "Feature",
  "properties": {
    "edtf:cessation":"uuuu",
    "edtf:inception":"uuuu",
    "geom:area":0.0,
    "geom:bbox":"-73.957416,42.8805,-73.957416,42.8805",
    "geom:latitude":42.8805,
    "geom:longitude":-73.957416,
    "iso:country":"US",
    "sg:address":"238 Spring Rd",
    "sg:city":"Schenectady",
    "sg:classifiers":[
        {
            "category":"Organizations",
            "subcategory":"Professional Association",
            "type":"Services"
        }
    ],
    "sg:owner":"simplegeo",
    "sg:phone":"+1 518 384 1652",
    "sg:postcode":"12302",
    "sg:province":"NY",
    "src:geom":"simplegeo",
    "wof:belongsto":[],
    "wof:breaches":[],
    "wof:concordances":{
        "sg:id":"SG_2xdqAcbtMzgWcl14aCGvmJ_42.880500_-73.957416@1294177022"
    },
    "wof:country":"US",
    "wof:geomhash":"b5cc4843b311960488f4a4aab53cf0a5",
    "wof:hierarchy":[],
    "wof:id":555516983,
    "wof:lastmodified":1461031784,
    "wof:name":"Schenectady Association",
    "wof:parent_id":420558607,
    "wof:placetype":"venue",
    "wof:superseded_by":[],
    "wof:supersedes":[],
    "wof:tags":[]
},
  "bbox": [
    -73.957416,
    42.8805,
    -73.957416,
    42.8805
],
  "geometry": {"coordinates":[-73.95741599999999,42.8805],"type":"Point"}
}