{
  "id": 554934601,
  "type": "Feature",
  "properties": {
    "edtf:cessation":"uuuu",
    "edtf:inception":"uuuu",
    "geom:area":0.0,
    "geom:bbox":"-73.652578,41.058379,-73.652578,41.058379",
    "geom:latitude":41.058379,
    "geom:longitude":-73.652578,
    "iso:country":"US",
    "sg:address":"14 Wildflower Trl",
    "sg:city":"Greenwich",
    "sg:classifiers":[
        {
            "category":"Banks & Credit Unions",
            "subcategory":"Investment Brokerage",
            "type":"Services"
        }
    ],
    "sg:owner":"simplegeo",
    "sg:phone":"+1 203 622 6359",
    "sg:postcode":"06831",
    "sg:province":"NY",
    "sg:tags":[
        "commodity"
    ],
    "src:geom":"simplegeo",
    "wof:belongsto":[],
    "wof:breaches":[],
    "wof:concordances":{
        "sg:id":"SG_2vcYsZA67tsjLjxeaOlZrG_41.058379_-73.652578@1294177022"
    },
    "wof:country":"US",
    "wof:geomhash":"4d501dfc1421b1f33dc4d1d57fa56552",
    "wof:hierarchy":[],
    "wof:id":554934601,
    "wof:lastmodified":1461016962,
    "wof:name":"Woodhaven Associates",
    "wof:parent_id":-1,
    "wof:placetype":"venue",
    "wof:superseded_by":[],
    "wof:supersedes":[],
    "wof:tags":[
        "commodity"
    ]
},
  "bbox": [
    -73.652578,
    41.058379,
    -73.652578,
    41.058379
],
  "geometry": {"coordinates":[-73.65257800000001,41.058379],"type":"Point"}
}