{
  "id": 572178329,
  "type": "Feature",
  "properties": {
    "edtf:cessation":"uuuu",
    "edtf:inception":"uuuu",
    "geom:area":0.0,
    "geom:bbox":"-79.703363,42.007674,-79.703363,42.007674",
    "geom:latitude":42.007674,
    "geom:longitude":-79.703363,
    "iso:country":"US",
    "sg:address":"64 New Buffalo Rd",
    "sg:city":"Clymer",
    "sg:classifiers":[
        {
            "category":"Manufacturing",
            "subcategory":"Pet Food",
            "type":"Manufacturing & Wholesale Goods"
        },
        {
            "category":"Farming",
            "subcategory":"Farm",
            "type":"Manufacturing & Wholesale Goods"
        }
    ],
    "sg:owner":"simplegeo",
    "sg:phone":"+1 716 355 4475",
    "sg:postcode":"14724",
    "sg:province":"NY",
    "sg:tags":[
        "hay"
    ],
    "src:geom":"simplegeo",
    "wof:belongsto":[
        85688481,
        85633793,
        85850957,
        102080955
    ],
    "wof:breaches":[],
    "wof:concordances":{
        "sg:id":"SG_0C6YzuiYpdJSKf58sKzQ9n_42.007674_-79.703363@1303262403"
    },
    "wof:country":"US",
    "wof:geomhash":"4d414b12d0d1aa5cdf016ef2fbfe75f4",
    "wof:hierarchy":[
        {
            "country_id":85633793,
            "county_id":102080955,
            "neighbourhood_id":85850957,
            "region_id":85688481,
            "venue_id":572178329
        }
    ],
    "wof:id":572178329,
    "wof:lastmodified":1461051667,
    "wof:name":"Scott Wallace",
    "wof:parent_id":85850957,
    "wof:placetype":"venue",
    "wof:superseded_by":[],
    "wof:supersedes":[],
    "wof:tags":[
        "hay"
    ]
},
  "bbox": [
    -79.703363,
    42.007674,
    -79.703363,
    42.007674
],
  "geometry": {"coordinates":[-79.703363,42.007674],"type":"Point"}
}