{
  "id": 554937135,
  "type": "Feature",
  "properties": {
    "edtf:cessation":"uuuu",
    "edtf:inception":"uuuu",
    "geom:area":0.0,
    "geom:bbox":"-73.53485,41.186192,-73.53485,41.186192",
    "geom:latitude":41.186192,
    "geom:longitude":-73.53485,
    "iso:country":"US",
    "sg:address":"28 Barnegat Rd",
    "sg:city":"New Canaan",
    "sg:classifiers":[
        {
            "category":"Professional",
            "subcategory":"Art Services",
            "type":"Services"
        }
    ],
    "sg:owner":"simplegeo",
    "sg:phone":"+1   ",
    "sg:postcode":"06840",
    "sg:province":"NY",
    "sg:tags":[
        "commercial",
        "design"
    ],
    "src:geom":"simplegeo",
    "wof:belongsto":[],
    "wof:breaches":[],
    "wof:concordances":{
        "sg:id":"SG_3swxDzlwhDFu5jMRqHVHKO_41.186192_-73.534850@1294177022"
    },
    "wof:country":"US",
    "wof:geomhash":"1f1aa87ed6aa2de01971a7cbee3cc3d0",
    "wof:hierarchy":[],
    "wof:id":554937135,
    "wof:lastmodified":1461017321,
    "wof:name":"Design Works International",
    "wof:parent_id":-1,
    "wof:placetype":"venue",
    "wof:superseded_by":[],
    "wof:supersedes":[],
    "wof:tags":[
        "commercial",
        "design"
    ]
},
  "bbox": [
    -73.53485,
    41.186192,
    -73.53485,
    41.186192
],
  "geometry": {"coordinates":[-73.53485000000001,41.186192],"type":"Point"}
}