{
  "id": 554934571,
  "type": "Feature",
  "properties": {
    "edtf:cessation":"uuuu",
    "edtf:inception":"uuuu",
    "geom:area":0.0,
    "geom:bbox":"-74.044469,41.069431,-74.044469,41.069431",
    "geom:latitude":41.069431,
    "geom:longitude":-74.044469,
    "iso:country":"US",
    "sg:address":"607 S Pascack Rd",
    "sg:city":"Spring Valley",
    "sg:classifiers":[
        {
            "category":"Freight",
            "subcategory":"",
            "type":"Transportation"
        },
        {
            "category":"Retail",
            "subcategory":"Animal Services",
            "type":"Services"
        }
    ],
    "sg:owner":"simplegeo",
    "sg:phone":"+1 845 735 9814",
    "sg:postcode":"10977",
    "sg:province":"NY",
    "sg:tags":[
        "horse",
        "transporting"
    ],
    "src:geom":"simplegeo",
    "wof:belongsto":[
        85853261,
        102191575,
        404523097,
        85633793,
        85978555,
        102082385,
        85688543
    ],
    "wof:breaches":[],
    "wof:concordances":{
        "sg:id":"SG_1tBA1xkhkJoXHrv2grS1xl_41.069431_-74.044469@1294177022"
    },
    "wof:country":"US",
    "wof:geomhash":"c9863f5ee20074b395c362cb8607f0fd",
    "wof:hierarchy":[
        {
            "continent_id":102191575,
            "country_id":85633793,
            "county_id":102082385,
            "localadmin_id":404523097,
            "locality_id":85978555,
            "neighbourhood_id":85853261,
            "region_id":85688543,
            "venue_id":554934571
        }
    ],
    "wof:id":554934571,
    "wof:lastmodified":1461016959,
    "wof:name":"Spring Vale Farm Inc",
    "wof:parent_id":85853261,
    "wof:placetype":"venue",
    "wof:superseded_by":[],
    "wof:supersedes":[],
    "wof:tags":[
        "horse",
        "transporting"
    ]
},
  "bbox": [
    -74.044469,
    41.069431,
    -74.044469,
    41.069431
],
  "geometry": {"coordinates":[-74.04446900000001,41.069431],"type":"Point"}
}