{
  "id": 554934183,
  "type": "Feature",
  "properties": {
    "edtf:cessation":"uuuu",
    "edtf:inception":"uuuu",
    "geom:area":0.0,
    "geom:bbox":"-77.316567,41.987185,-77.316567,41.987185",
    "geom:latitude":41.987185,
    "geom:longitude":-77.316567,
    "iso:country":"US",
    "sg:address":"103 Pattison Ave Exd",
    "sg:city":"Elkland",
    "sg:classifiers":[
        {
            "category":"Organizations",
            "subcategory":"Religious Organization",
            "type":"Services"
        }
    ],
    "sg:owner":"simplegeo",
    "sg:phone":"+1 814 258 7294",
    "sg:postcode":"16920",
    "sg:province":"NY",
    "sg:tags":[
        "church"
    ],
    "src:geom":"simplegeo",
    "wof:belongsto":[
        85688481,
        85633793,
        101717081,
        102080937,
        85807903
    ],
    "wof:breaches":[],
    "wof:concordances":{
        "sg:id":"SG_2SXQd0zER36iIzcMunaPeE_41.987185_-77.316567@1294177022"
    },
    "wof:country":"US",
    "wof:geomhash":"63bf9d5dd3aece3ba52c0a6bec2f63fb",
    "wof:hierarchy":[
        {
            "country_id":85633793,
            "county_id":102080937,
            "locality_id":101717081,
            "neighbourhood_id":85807903,
            "region_id":85688481,
            "venue_id":554934183
        }
    ],
    "wof:id":554934183,
    "wof:lastmodified":1461016909,
    "wof:name":"Parkhurst Mem Presbyterian Chr",
    "wof:parent_id":85807903,
    "wof:placetype":"venue",
    "wof:superseded_by":[],
    "wof:supersedes":[],
    "wof:tags":[
        "church"
    ]
},
  "bbox": [
    -77.316567,
    41.987185,
    -77.316567,
    41.987185
],
  "geometry": {"coordinates":[-77.31656700000001,41.987185],"type":"Point"}
}