{
  "id": 554937275,
  "type": "Feature",
  "properties": {
    "edtf:cessation":"uuuu",
    "edtf:inception":"uuuu",
    "geom:area":0.0,
    "geom:bbox":"-73.674746,41.097894,-73.674746,41.097894",
    "geom:latitude":41.097894,
    "geom:longitude":-73.674746,
    "iso:country":"US",
    "sg:address":"62 Mooreland Rd",
    "sg:city":"Greenwich",
    "sg:classifiers":[
        {
            "category":"Personal",
            "subcategory":"Beauty Salon",
            "type":"Services"
        }
    ],
    "sg:owner":"simplegeo",
    "sg:phone":"+1   ",
    "sg:postcode":"06831",
    "sg:province":"NY",
    "sg:tags":[
        "shop"
    ],
    "src:geom":"simplegeo",
    "wof:belongsto":[
        85688629,
        85633793,
        85837667,
        102084283
    ],
    "wof:breaches":[],
    "wof:concordances":{
        "sg:id":"SG_4Tf8Tc02zaZRQV850WVEzo_41.097894_-73.674746@1294177022"
    },
    "wof:country":"US",
    "wof:geomhash":"e54b503a01f60226d87814899ca79ba8",
    "wof:hierarchy":[
        {
            "country_id":85633793,
            "county_id":102084283,
            "neighbourhood_id":85837667,
            "region_id":85688629,
            "venue_id":554937275
        }
    ],
    "wof:id":554937275,
    "wof:lastmodified":1461017344,
    "wof:name":"Jean Pierre Diels",
    "wof:parent_id":85837667,
    "wof:placetype":"venue",
    "wof:superseded_by":[],
    "wof:supersedes":[],
    "wof:tags":[
        "shop"
    ]
},
  "bbox": [
    -73.674746,
    41.097894,
    -73.674746,
    41.097894
],
  "geometry": {"coordinates":[-73.674746,41.097894],"type":"Point"}
}