{
  "id": 554937811,
  "type": "Feature",
  "properties": {
    "edtf:cessation":"uuuu",
    "edtf:inception":"uuuu",
    "geom:area":0.0,
    "geom:bbox":"-73.467668,41.121926,-73.467668,41.121926",
    "geom:latitude":41.121926,
    "geom:longitude":-73.467668,
    "iso:country":"US",
    "sg:address":"10 Meeting Grove Ln",
    "sg:city":"Norwalk",
    "sg:classifiers":[
        {
            "category":"Professional",
            "subcategory":"Business Services",
            "type":"Services"
        }
    ],
    "sg:owner":"simplegeo",
    "sg:phone":"+1   ",
    "sg:postcode":"06840",
    "sg:province":"NY",
    "src:geom":"simplegeo",
    "wof:belongsto":[
        85856029,
        102191575,
        404495959,
        85633793,
        85930795,
        102084283,
        85688629
    ],
    "wof:breaches":[],
    "wof:concordances":{
        "sg:id":"SG_5xKMLPiJh91sk4aNUvGsZq_41.121926_-73.467668@1294177022"
    },
    "wof:country":"US",
    "wof:geomhash":"70fcfa60038e3a3bff6a98340ef13dcc",
    "wof:hierarchy":[
        {
            "continent_id":102191575,
            "country_id":85633793,
            "county_id":102084283,
            "localadmin_id":404495959,
            "locality_id":85930795,
            "neighbourhood_id":85856029,
            "region_id":85688629,
            "venue_id":554937811
        }
    ],
    "wof:id":554937811,
    "wof:lastmodified":1461017420,
    "wof:name":"Mary Moross Studios",
    "wof:parent_id":85856029,
    "wof:placetype":"venue",
    "wof:superseded_by":[],
    "wof:supersedes":[],
    "wof:tags":[]
},
  "bbox": [
    -73.467668,
    41.121926,
    -73.467668,
    41.121926
],
  "geometry": {"coordinates":[-73.467668,41.121926],"type":"Point"}
}