{
  "id": 554938647,
  "type": "Feature",
  "properties": {
    "edtf:cessation":"uuuu",
    "edtf:inception":"uuuu",
    "geom:area":0.0,
    "geom:bbox":"-73.50999,41.119777,-73.50999,41.119777",
    "geom:latitude":41.119777,
    "geom:longitude":-73.50999,
    "iso:country":"US",
    "sg:address":"158 Jelliff Mill Rd",
    "sg:city":"New Canaan",
    "sg:classifiers":[
        {
            "category":"Health Services",
            "subcategory":"Health Practitioner",
            "type":"Services"
        },
        {
            "category":"Social Services",
            "subcategory":"",
            "type":"Services"
        }
    ],
    "sg:owner":"simplegeo",
    "sg:phone":"+1 203 972 7536",
    "sg:postcode":"06840",
    "sg:province":"NY",
    "sg:tags":[
        "nurse",
        "registry"
    ],
    "src:geom":"simplegeo",
    "wof:belongsto":[
        85688629,
        85633793,
        85851779,
        102084283
    ],
    "wof:breaches":[],
    "wof:concordances":{
        "sg:id":"SG_2ORVX4hX0fA4BRQd3Rv6V4_41.119777_-73.509990@1294177022"
    },
    "wof:country":"US",
    "wof:geomhash":"2a850ed2be7d3590c33e00c5ad35c5dd",
    "wof:hierarchy":[
        {
            "country_id":85633793,
            "county_id":102084283,
            "neighbourhood_id":85851779,
            "region_id":85688629,
            "venue_id":554938647
        }
    ],
    "wof:id":554938647,
    "wof:lastmodified":1461017493,
    "wof:name":"Geri Care Connection LLC",
    "wof:parent_id":85851779,
    "wof:placetype":"venue",
    "wof:superseded_by":[],
    "wof:supersedes":[],
    "wof:tags":[
        "nurse",
        "registry"
    ]
},
  "bbox": [
    -73.50999,
    41.119777,
    -73.50999,
    41.119777
],
  "geometry": {"coordinates":[-73.50999,41.119777],"type":"Point"}
}