{
  "id": 554935431,
  "type": "Feature",
  "properties": {
    "edtf:cessation":"uuuu",
    "edtf:inception":"uuuu",
    "geom:area":0.0,
    "geom:bbox":"-73.494416,41.146705,-73.494416,41.146705",
    "geom:latitude":41.146705,
    "geom:longitude":-73.494416,
    "iso:country":"US",
    "sg:address":"116 Elm St",
    "sg:city":"New Canaan",
    "sg:classifiers":[
        {
            "category":"Shopping",
            "subcategory":"Clothing, Apparel, & Fashions",
            "type":"Retail Goods"
        }
    ],
    "sg:owner":"simplegeo",
    "sg:phone":"+1 203 801 0061",
    "sg:postcode":"06840",
    "sg:province":"NY",
    "src:geom":"simplegeo",
    "wof:belongsto":[
        85688629,
        85633793,
        85851779,
        102084283
    ],
    "wof:breaches":[],
    "wof:concordances":{
        "sg:id":"SG_42E4tp0LQNhn3mL89mEbUT_41.146705_-73.494416@1294177022"
    },
    "wof:country":"US",
    "wof:geomhash":"ab2431196c1c7dc432124fa71cd65d52",
    "wof:hierarchy":[
        {
            "country_id":85633793,
            "county_id":102084283,
            "neighbourhood_id":85851779,
            "region_id":85688629,
            "venue_id":554935431
        }
    ],
    "wof:id":554935431,
    "wof:lastmodified":1461017069,
    "wof:name":"J Mc Laughlin",
    "wof:parent_id":85851779,
    "wof:placetype":"venue",
    "wof:superseded_by":[],
    "wof:supersedes":[],
    "wof:tags":[]
},
  "bbox": [
    -73.494416,
    41.146705,
    -73.494416,
    41.146705
],
  "geometry": {"coordinates":[-73.494416,41.146705],"type":"Point"}
}