{
  "id": 555225919,
  "type": "Feature",
  "properties": {
    "edtf:cessation":"uuuu",
    "edtf:inception":"uuuu",
    "geom:area":0.0,
    "geom:bbox":"-76.294215,43.232705,-76.294215,43.232705",
    "geom:latitude":43.232705,
    "geom:longitude":-76.294215,
    "iso:country":"US",
    "sg:address":"20 Candee St",
    "sg:city":"Phoenix",
    "sg:classifiers":[
        {
            "category":"Manufacturing",
            "subcategory":"Rubber & Plastics",
            "type":"Manufacturing & Wholesale Goods"
        }
    ],
    "sg:owner":"simplegeo",
    "sg:phone":"+1   ",
    "sg:postcode":"13135",
    "sg:province":"NY",
    "sg:tags":[
        "product",
        "mfg"
    ],
    "src:geom":"simplegeo",
    "wof:belongsto":[],
    "wof:breaches":[],
    "wof:concordances":{
        "sg:id":"SG_5JfPGxqXW0bIx4rvyNgIpz_43.232705_-76.294215@1294177022"
    },
    "wof:country":"US",
    "wof:geomhash":"b8d50a4879cf2aa38326f28716604291",
    "wof:hierarchy":[],
    "wof:id":555225919,
    "wof:lastmodified":1461024792,
    "wof:name":"Orc Plastic",
    "wof:parent_id":420529597,
    "wof:placetype":"venue",
    "wof:superseded_by":[],
    "wof:supersedes":[],
    "wof:tags":[
        "product",
        "mfg"
    ]
},
  "bbox": [
    -76.294215,
    43.232705,
    -76.294215,
    43.232705
],
  "geometry": {"coordinates":[-76.29421499999999,43.232705],"type":"Point"}
}