{
  "id": 554935135,
  "type": "Feature",
  "properties": {
    "edtf:cessation":"uuuu",
    "edtf:inception":"uuuu",
    "geom:area":0.0,
    "geom:bbox":"-74.039505,41.07021,-74.039505,41.07021",
    "geom:latitude":41.07021,
    "geom:longitude":-74.039505,
    "iso:country":"US",
    "sg:address":"7 Craftwood Dr",
    "sg:city":"Spring Valley",
    "sg:classifiers":[
        {
            "category":"Professional",
            "subcategory":"",
            "type":"Services"
        }
    ],
    "sg:owner":"simplegeo",
    "sg:phone":"+1 845 735 8232",
    "sg:postcode":"10977",
    "sg:province":"NY",
    "sg:tags":[
        "consulting",
        "chemist"
    ],
    "src:geom":"simplegeo",
    "wof:belongsto":[
        85853261,
        102191575,
        404523097,
        85633793,
        85978555,
        102082385,
        85688543
    ],
    "wof:breaches":[],
    "wof:concordances":{
        "sg:id":"SG_3OohdwdP9GxTk5KlCVUNU4_41.070210_-74.039505@1294177022"
    },
    "wof:country":"US",
    "wof:geomhash":"b845611bae7667b4a0b0a65fe0e8bdff",
    "wof:hierarchy":[
        {
            "continent_id":102191575,
            "country_id":85633793,
            "county_id":102082385,
            "localadmin_id":404523097,
            "locality_id":85978555,
            "neighbourhood_id":85853261,
            "region_id":85688543,
            "venue_id":554935135
        }
    ],
    "wof:id":554935135,
    "wof:lastmodified":1461017028,
    "wof:name":"A Rich Development",
    "wof:parent_id":85853261,
    "wof:placetype":"venue",
    "wof:superseded_by":[],
    "wof:supersedes":[],
    "wof:tags":[
        "consulting",
        "chemist"
    ]
},
  "bbox": [
    -74.039505,
    41.07021,
    -74.039505,
    41.07021
],
  "geometry": {"coordinates":[-74.03950500000001,41.07021],"type":"Point"}
}