{
  "id": 554934029,
  "type": "Feature",
  "properties": {
    "edtf:cessation":"uuuu",
    "edtf:inception":"uuuu",
    "geom:area":0.0,
    "geom:bbox":"-73.657044,41.008806,-73.657044,41.008806",
    "geom:latitude":41.008806,
    "geom:longitude":-73.657044,
    "iso:country":"US",
    "sg:address":"17 Edison Pl",
    "sg:city":"Port Chester",
    "sg:classifiers":[
        {
            "category":"Building & Trades",
            "subcategory":"Pest Control",
            "type":"Services"
        }
    ],
    "sg:owner":"simplegeo",
    "sg:phone":"+1 914 939 3030",
    "sg:postcode":"10573",
    "sg:province":"NY",
    "src:geom":"simplegeo",
    "wof:belongsto":[
        85885307,
        102191575,
        404495949,
        85633793,
        85930941,
        102084283,
        85688629,
        85808713,
        404523389,
        85978705,
        102082373,
        85688543
    ],
    "wof:breaches":[],
    "wof:concordances":{
        "sg:id":"SG_70zcvPEGTuKTBMvZeKYQLD_41.008806_-73.657044@1294177022"
    },
    "wof:country":"US",
    "wof:geomhash":"c9d614c68392e9dfb8ab0364324acd2b",
    "wof:hierarchy":[
        {
            "continent_id":102191575,
            "country_id":85633793,
            "county_id":102084283,
            "localadmin_id":404495949,
            "locality_id":85930941,
            "neighbourhood_id":85885307,
            "region_id":85688629,
            "venue_id":554934029
        },
        {
            "continent_id":102191575,
            "country_id":85633793,
            "county_id":102082373,
            "localadmin_id":404523389,
            "locality_id":85978705,
            "neighbourhood_id":85808713,
            "region_id":85688543,
            "venue_id":554934029
        }
    ],
    "wof:id":554934029,
    "wof:lastmodified":1461016886,
    "wof:name":"Ace Trapping",
    "wof:parent_id":-1,
    "wof:placetype":"venue",
    "wof:superseded_by":[],
    "wof:supersedes":[],
    "wof:tags":[]
},
  "bbox": [
    -73.657044,
    41.008806,
    -73.657044,
    41.008806
],
  "geometry": {"coordinates":[-73.657044,41.008806],"type":"Point"}
}