{
  "id": 572171567,
  "type": "Feature",
  "properties": {
    "edtf:cessation":"uuuu",
    "edtf:inception":"uuuu",
    "geom:area":0.0,
    "geom:bbox":"-74.369877,40.682849,-74.369877,40.682849",
    "geom:latitude":40.682849,
    "geom:longitude":-74.369877,
    "iso:country":"US",
    "sg:address":"29 Imlay St",
    "sg:city":"Brooklyn",
    "sg:classifiers":[
        {
            "category":"Wholesale",
            "subcategory":"Fruits & Vegetables",
            "type":"Manufacturing & Wholesale Goods"
        }
    ],
    "sg:owner":"simplegeo",
    "sg:phone":"+1 718 596 6616",
    "sg:postcode":"11231",
    "sg:province":"NY",
    "sg:tags":[
        "veggie"
    ],
    "src:geom":"simplegeo",
    "wof:belongsto":[
        85836079,
        102191575,
        404478507,
        85633793,
        85975825,
        102085995,
        85688607
    ],
    "wof:breaches":[],
    "wof:concordances":{
        "sg:id":"SG_7govUJAADTqr3yCPFGKH2t_40.682849_-74.369877@1303262348"
    },
    "wof:country":"US",
    "wof:geomhash":"d95a005be4aafebc4b8f4bfba3782236",
    "wof:hierarchy":[
        {
            "continent_id":102191575,
            "country_id":85633793,
            "county_id":102085995,
            "localadmin_id":404478507,
            "locality_id":85975825,
            "neighbourhood_id":85836079,
            "region_id":85688607,
            "venue_id":572171567
        }
    ],
    "wof:id":572171567,
    "wof:lastmodified":1461051457,
    "wof:name":"Happy Produce Inc",
    "wof:parent_id":85836079,
    "wof:placetype":"venue",
    "wof:superseded_by":[],
    "wof:supersedes":[],
    "wof:tags":[
        "veggie"
    ]
},
  "bbox": [
    -74.369877,
    40.682849,
    -74.369877,
    40.682849
],
  "geometry": {"coordinates":[-74.369877,40.682849],"type":"Point"}
}