{
  "id": 554936725,
  "type": "Feature",
  "properties": {
    "edtf:cessation":"uuuu",
    "edtf:inception":"uuuu",
    "geom:area":0.0,
    "geom:bbox":"-73.696118,41.082638,-73.696118,41.082638",
    "geom:latitude":41.082638,
    "geom:longitude":-73.696118,
    "iso:country":"US",
    "sg:address":"16 Heronvue Rd",
    "sg:city":"Greenwich",
    "sg:classifiers":[
        {
            "category":"Professional",
            "subcategory":"",
            "type":"Services"
        }
    ],
    "sg:owner":"simplegeo",
    "sg:phone":"+1 203 863 9500",
    "sg:postcode":"06831",
    "sg:province":"NY",
    "src:geom":"simplegeo",
    "wof:belongsto":[
        85688629,
        85633793,
        85837667,
        102084283
    ],
    "wof:breaches":[],
    "wof:concordances":{
        "sg:id":"SG_0XjBmlGtJ9AZ29OMqQcXvB_41.082638_-73.696118@1294177022"
    },
    "wof:country":"US",
    "wof:geomhash":"90cf47e628a06f9541952e35547624a5",
    "wof:hierarchy":[
        {
            "country_id":85633793,
            "county_id":102084283,
            "neighbourhood_id":85837667,
            "region_id":85688629,
            "venue_id":554936725
        }
    ],
    "wof:id":554936725,
    "wof:lastmodified":1461017267,
    "wof:name":"Sequoia Inc",
    "wof:parent_id":85837667,
    "wof:placetype":"venue",
    "wof:superseded_by":[],
    "wof:supersedes":[],
    "wof:tags":[]
},
  "bbox": [
    -73.696118,
    41.082638,
    -73.696118,
    41.082638
],
  "geometry": {"coordinates":[-73.696118,41.082638],"type":"Point"}
}