{
  "id": 554939897,
  "type": "Feature",
  "properties": {
    "edtf:cessation":"uuuu",
    "edtf:inception":"uuuu",
    "geom:area":0.0,
    "geom:bbox":"-73.508933,41.137618,-73.508933,41.137618",
    "geom:latitude":41.137618,
    "geom:longitude":-73.508933,
    "iso:country":"US",
    "sg:address":"111 Parish Ln",
    "sg:city":"New Canaan",
    "sg:classifiers":[
        {
            "category":"Real Estate",
            "subcategory":"Real Estate Agent",
            "type":"Services"
        }
    ],
    "sg:owner":"simplegeo",
    "sg:phone":"+1 203 966 5828",
    "sg:postcode":"06840",
    "sg:province":"NY",
    "src:geom":"simplegeo",
    "wof:belongsto":[
        85688629,
        85633793,
        85851779,
        102084283
    ],
    "wof:breaches":[],
    "wof:concordances":{
        "sg:id":"SG_4DkQ100a4t3Rwm2dzRokA9_41.137618_-73.508933@1294177022"
    },
    "wof:country":"US",
    "wof:geomhash":"57a0f3103b5fb1bc434bfc19bd1a05e8",
    "wof:hierarchy":[
        {
            "country_id":85633793,
            "county_id":102084283,
            "neighbourhood_id":85851779,
            "region_id":85688629,
            "venue_id":554939897
        }
    ],
    "wof:id":554939897,
    "wof:lastmodified":1461017605,
    "wof:name":"Special Properties Xx LLC",
    "wof:parent_id":85851779,
    "wof:placetype":"venue",
    "wof:superseded_by":[],
    "wof:supersedes":[],
    "wof:tags":[]
},
  "bbox": [
    -73.508933,
    41.137618,
    -73.508933,
    41.137618
],
  "geometry": {"coordinates":[-73.508933,41.137618],"type":"Point"}
}