{
  "id": 572171623,
  "type": "Feature",
  "properties": {
    "edtf:cessation":"uuuu",
    "edtf:inception":"uuuu",
    "geom:area":0.0,
    "geom:bbox":"-74.872176,40.648175,-74.872176,40.648175",
    "geom:latitude":40.648175,
    "geom:longitude":-74.872176,
    "iso:country":"US",
    "sg:address":"174 52nd St # 150",
    "sg:city":"Brooklyn",
    "sg:classifiers":[
        {
            "category":"Personal",
            "subcategory":"",
            "type":"Services"
        }
    ],
    "sg:owner":"simplegeo",
    "sg:phone":"+1 718 745 3400",
    "sg:postcode":"11232",
    "sg:province":"NY",
    "sg:tags":[
        "mover"
    ],
    "sg:website":"www.a1firstclass.com",
    "src:geom":"simplegeo",
    "wof:belongsto":[
        85688607,
        85633793,
        85976251,
        102085997,
        85809953
    ],
    "wof:breaches":[],
    "wof:concordances":{
        "sg:id":"SG_7Mc6VN8AlHinstmGEsRP1x_40.648175_-74.872176@1303262348"
    },
    "wof:country":"US",
    "wof:geomhash":"0839aa120e06af4750ecc72070426437",
    "wof:hierarchy":[
        {
            "country_id":85633793,
            "county_id":102085997,
            "locality_id":85976251,
            "neighbourhood_id":85809953,
            "region_id":85688607,
            "venue_id":572171623
        }
    ],
    "wof:id":572171623,
    "wof:lastmodified":1461051459,
    "wof:name":"Atlas",
    "wof:parent_id":85809953,
    "wof:placetype":"venue",
    "wof:superseded_by":[],
    "wof:supersedes":[],
    "wof:tags":[
        "mover"
    ]
},
  "bbox": [
    -74.872176,
    40.648175,
    -74.872176,
    40.648175
],
  "geometry": {"coordinates":[-74.872176,40.648175],"type":"Point"}
}