{
  "id": 554937529,
  "type": "Feature",
  "properties": {
    "edtf:cessation":"uuuu",
    "edtf:inception":"uuuu",
    "geom:area":0.0,
    "geom:bbox":"-73.47132,41.148903,-73.47132,41.148903",
    "geom:latitude":41.148903,
    "geom:longitude":-73.47132,
    "iso:country":"US",
    "sg:address":"309 Carter St",
    "sg:city":"New Canaan",
    "sg:classifiers":[
        {
            "category":"Professional",
            "subcategory":"",
            "type":"Services"
        }
    ],
    "sg:owner":"simplegeo",
    "sg:phone":"+1 203 966 4253",
    "sg:postcode":"06840",
    "sg:province":"NY",
    "src:geom":"simplegeo",
    "wof:belongsto":[
        85688629,
        85633793,
        85848785,
        102084283
    ],
    "wof:breaches":[],
    "wof:concordances":{
        "sg:id":"SG_4GkOPmvr5OfEAXPikfjMNN_41.148903_-73.471320@1294177022"
    },
    "wof:country":"US",
    "wof:geomhash":"f0129f4ac9626938e375683c46978bd0",
    "wof:hierarchy":[
        {
            "country_id":85633793,
            "county_id":102084283,
            "neighbourhood_id":85848785,
            "region_id":85688629,
            "venue_id":554937529
        }
    ],
    "wof:id":554937529,
    "wof:lastmodified":1461017383,
    "wof:name":"Heathfarm LLC",
    "wof:parent_id":85848785,
    "wof:placetype":"venue",
    "wof:superseded_by":[],
    "wof:supersedes":[],
    "wof:tags":[]
},
  "bbox": [
    -73.47132,
    41.148903,
    -73.47132,
    41.148903
],
  "geometry": {"coordinates":[-73.47132000000001,41.148903],"type":"Point"}
}