{
  "id": 554939223,
  "type": "Feature",
  "properties": {
    "edtf:cessation":"uuuu",
    "edtf:inception":"uuuu",
    "geom:area":0.0,
    "geom:bbox":"-73.500516,41.191942,-73.500516,41.191942",
    "geom:latitude":41.191942,
    "geom:longitude":-73.500516,
    "iso:country":"US",
    "sg:address":"316 N Wilton Rd",
    "sg:city":"New Canaan",
    "sg:classifiers":[
        {
            "category":"Retail",
            "subcategory":"Portrait Studio",
            "type":"Services"
        }
    ],
    "sg:owner":"simplegeo",
    "sg:phone":"+1   ",
    "sg:postcode":"06840",
    "sg:province":"NY",
    "sg:tags":[
        "photographer",
        "wildlife",
        "scientific"
    ],
    "src:geom":"simplegeo",
    "wof:belongsto":[],
    "wof:breaches":[],
    "wof:concordances":{
        "sg:id":"SG_63bsCd5yZmhxg5FTou4lRI_41.191942_-73.500516@1294177022"
    },
    "wof:country":"US",
    "wof:geomhash":"33e9d5a57411b875b763432ffca800e5",
    "wof:hierarchy":[],
    "wof:id":554939223,
    "wof:lastmodified":1461017536,
    "wof:name":"Russ Kinne Inc",
    "wof:parent_id":-1,
    "wof:placetype":"venue",
    "wof:superseded_by":[],
    "wof:supersedes":[],
    "wof:tags":[
        "photographer",
        "wildlife",
        "scientific"
    ]
},
  "bbox": [
    -73.500516,
    41.191942,
    -73.500516,
    41.191942
],
  "geometry": {"coordinates":[-73.500516,41.191942],"type":"Point"}
}