{
  "id": 572170273,
  "type": "Feature",
  "properties": {
    "edtf:cessation":"uuuu",
    "edtf:inception":"uuuu",
    "geom:area":0.0,
    "geom:bbox":"-74.211081,40.630069,-74.211081,40.630069",
    "geom:latitude":40.630069,
    "geom:longitude":-74.211081,
    "iso:country":"US",
    "sg:address":"510 74th St",
    "sg:city":"Brooklyn",
    "sg:classifiers":[
        {
            "category":"Landmark",
            "subcategory":"Tourist Information",
            "type":"Public Place"
        }
    ],
    "sg:owner":"simplegeo",
    "sg:phone":"+1 718 439 0099",
    "sg:postcode":"11209",
    "sg:province":"NY",
    "sg:tags":[
        "tour"
    ],
    "src:geom":"simplegeo",
    "wof:belongsto":[
        85804971,
        102191575,
        404478503,
        85633793,
        85975837,
        102085995,
        85688607
    ],
    "wof:breaches":[],
    "wof:concordances":{
        "sg:id":"SG_2e1LdTQRduHRkxMYqk0ZSj_40.630069_-74.211081@1303262339"
    },
    "wof:country":"US",
    "wof:geomhash":"2983a3a98ad6d72628585c143d6d0b76",
    "wof:hierarchy":[
        {
            "continent_id":102191575,
            "country_id":85633793,
            "county_id":102085995,
            "localadmin_id":404478503,
            "locality_id":85975837,
            "neighbourhood_id":85804971,
            "region_id":85688607,
            "venue_id":572170273
        }
    ],
    "wof:id":572170273,
    "wof:lastmodified":1461051415,
    "wof:name":"Jana Tours",
    "wof:parent_id":85804971,
    "wof:placetype":"venue",
    "wof:superseded_by":[],
    "wof:supersedes":[],
    "wof:tags":[
        "tour"
    ]
},
  "bbox": [
    -74.211081,
    40.630069,
    -74.211081,
    40.630069
],
  "geometry": {"coordinates":[-74.21108099999999,40.630069],"type":"Point"}
}