{
  "id": 554936363,
  "type": "Feature",
  "properties": {
    "edtf:cessation":"uuuu",
    "edtf:inception":"uuuu",
    "geom:area":0.0,
    "geom:bbox":"-77.503976,42.000068,-77.503976,42.000068",
    "geom:latitude":42.000068,
    "geom:longitude":-77.503976,
    "iso:country":"US",
    "sg:address":"14 State Hwy 36",
    "sg:city":"Troupsburg",
    "sg:classifiers":[
        {
            "category":"Farming",
            "subcategory":"Dairy Farm",
            "type":"Manufacturing & Wholesale Goods"
        }
    ],
    "sg:owner":"simplegeo",
    "sg:phone":"+1 607 525 6502",
    "sg:postcode":"14885",
    "sg:province":"NY",
    "src:geom":"simplegeo",
    "wof:belongsto":[],
    "wof:breaches":[],
    "wof:concordances":{
        "sg:id":"SG_438HtaRKTq8Oi1ykJQIrzQ_42.000068_-77.503976@1294177022"
    },
    "wof:country":"US",
    "wof:geomhash":"aaf2d18b49bb2744c2c6f486037b8956",
    "wof:hierarchy":[],
    "wof:id":554936363,
    "wof:lastmodified":1461017210,
    "wof:name":"Dean Bicksler",
    "wof:parent_id":420539797,
    "wof:placetype":"venue",
    "wof:superseded_by":[],
    "wof:supersedes":[],
    "wof:tags":[]
},
  "bbox": [
    -77.503976,
    42.000068,
    -77.503976,
    42.000068
],
  "geometry": {"coordinates":[-77.50397599999999,42.000068],"type":"Point"}
}