{
  "id": 554935377,
  "type": "Feature",
  "properties": {
    "edtf:cessation":"uuuu",
    "edtf:inception":"uuuu",
    "geom:area":0.0,
    "geom:bbox":"-73.496898,41.131251,-73.496898,41.131251",
    "geom:latitude":41.131251,
    "geom:longitude":-73.496898,
    "iso:country":"US",
    "sg:address":"123 Old Studio Rd",
    "sg:city":"New Canaan",
    "sg:classifiers":[
        {
            "category":"Retail",
            "subcategory":"Repair Shop",
            "type":"Services"
        }
    ],
    "sg:owner":"simplegeo",
    "sg:phone":"+1 203 966 9349",
    "sg:postcode":"06840",
    "sg:province":"NY",
    "sg:tags":[
        "heavy"
    ],
    "src:geom":"simplegeo",
    "wof:belongsto":[
        85688629,
        85633793,
        85851779,
        102084283
    ],
    "wof:breaches":[],
    "wof:concordances":{
        "sg:id":"SG_4krtMx5soBalhNy6Tu09JM_41.131251_-73.496898@1294177022"
    },
    "wof:country":"US",
    "wof:geomhash":"ded21a4c3780db99ac0d940f2660d8fc",
    "wof:hierarchy":[
        {
            "country_id":85633793,
            "county_id":102084283,
            "neighbourhood_id":85851779,
            "region_id":85688629,
            "venue_id":554935377
        }
    ],
    "wof:id":554935377,
    "wof:lastmodified":1461017063,
    "wof:name":"D Palladino & Son Septic Co",
    "wof:parent_id":85851779,
    "wof:placetype":"venue",
    "wof:superseded_by":[],
    "wof:supersedes":[],
    "wof:tags":[
        "heavy"
    ]
},
  "bbox": [
    -73.496898,
    41.131251,
    -73.496898,
    41.131251
],
  "geometry": {"coordinates":[-73.496898,41.131251],"type":"Point"}
}