{
  "id": 572170849,
  "type": "Feature",
  "properties": {
    "edtf:cessation":"uuuu",
    "edtf:inception":"uuuu",
    "geom:area":0.0,
    "geom:bbox":"-74.787045,40.646756,-74.787045,40.646756",
    "geom:latitude":40.646756,
    "geom:longitude":-74.787045,
    "iso:country":"US",
    "sg:address":"240 53rd St",
    "sg:city":"Brooklyn",
    "sg:classifiers":[
        {
            "category":"Home & Garden",
            "subcategory":"Home Furnishings",
            "type":"Retail Goods"
        }
    ],
    "sg:owner":"simplegeo",
    "sg:phone":"+1 718 492 8438",
    "sg:postcode":"11220",
    "sg:province":"NY",
    "sg:tags":[
        "bath",
        "kitchen"
    ],
    "src:geom":"simplegeo",
    "wof:belongsto":[
        85688607,
        85633793,
        85842965,
        102085997
    ],
    "wof:breaches":[],
    "wof:concordances":{
        "sg:id":"SG_1k9t1BfAGXcscBENGKWXES_40.646756_-74.787045@1303262344"
    },
    "wof:country":"US",
    "wof:geomhash":"976540ce125799b7ccf96b8374e58d31",
    "wof:hierarchy":[
        {
            "country_id":85633793,
            "county_id":102085997,
            "neighbourhood_id":85842965,
            "region_id":85688607,
            "venue_id":572170849
        }
    ],
    "wof:id":572170849,
    "wof:lastmodified":1461051434,
    "wof:name":"B & N Custom Kitchen Cabinets",
    "wof:parent_id":85842965,
    "wof:placetype":"venue",
    "wof:superseded_by":[],
    "wof:supersedes":[],
    "wof:tags":[
        "bath",
        "kitchen"
    ]
},
  "bbox": [
    -74.787045,
    40.646756,
    -74.787045,
    40.646756
],
  "geometry": {"coordinates":[-74.78704500000001,40.646756],"type":"Point"}
}