{
  "id": 554937575,
  "type": "Feature",
  "properties": {
    "edtf:cessation":"uuuu",
    "edtf:inception":"uuuu",
    "geom:area":0.0,
    "geom:bbox":"-74.038287,41.077582,-74.038287,41.077582",
    "geom:latitude":41.077582,
    "geom:longitude":-74.038287,
    "iso:country":"US",
    "sg:address":"3 Carlisle Rd",
    "sg:city":"Spring Valley",
    "sg:classifiers":[
        {
            "category":"Insurance",
            "subcategory":"Insurance Agent",
            "type":"Services"
        }
    ],
    "sg:owner":"simplegeo",
    "sg:phone":"+1 845 623 3136",
    "sg:postcode":"10977",
    "sg:province":"NY",
    "src:geom":"simplegeo",
    "wof:belongsto":[
        85853261,
        102191575,
        404523097,
        85633793,
        85978555,
        102082385,
        85688543
    ],
    "wof:breaches":[],
    "wof:concordances":{
        "sg:id":"SG_4WGGhUG8tbkrFPAEc7zeGU_41.077582_-74.038287@1294177022"
    },
    "wof:country":"US",
    "wof:geomhash":"544a23f9f0d967d8b958c5e538af082f",
    "wof:hierarchy":[
        {
            "continent_id":102191575,
            "country_id":85633793,
            "county_id":102082385,
            "localadmin_id":404523097,
            "locality_id":85978555,
            "neighbourhood_id":85853261,
            "region_id":85688543,
            "venue_id":554937575
        }
    ],
    "wof:id":554937575,
    "wof:lastmodified":1461017389,
    "wof:name":"Ember Associates",
    "wof:parent_id":85853261,
    "wof:placetype":"venue",
    "wof:superseded_by":[],
    "wof:supersedes":[],
    "wof:tags":[]
},
  "bbox": [
    -74.038287,
    41.077582,
    -74.038287,
    41.077582
],
  "geometry": {"coordinates":[-74.038287,41.077582],"type":"Point"}
}