{
  "id": 554935609,
  "type": "Feature",
  "properties": {
    "edtf:cessation":"uuuu",
    "edtf:inception":"uuuu",
    "geom:area":0.0,
    "geom:bbox":"-74.047196,41.086214,-74.047196,41.086214",
    "geom:latitude":41.086214,
    "geom:longitude":-74.047196,
    "iso:country":"US",
    "sg:address":"25 Eldorado Dr",
    "sg:city":"Spring Valley",
    "sg:classifiers":[
        {
            "category":"Utilities",
            "subcategory":"Telephone",
            "type":"Services"
        }
    ],
    "sg:owner":"simplegeo",
    "sg:phone":"+1   ",
    "sg:postcode":"10977",
    "sg:province":"NY",
    "sg:tags":[
        "provider"
    ],
    "src:geom":"simplegeo",
    "wof:belongsto":[
        85853261,
        102191575,
        404523097,
        85633793,
        85978555,
        102082385,
        85688543
    ],
    "wof:breaches":[],
    "wof:concordances":{
        "sg:id":"SG_1K6OU5IjfhZrJPLPyfrJMq_41.086214_-74.047196@1294177022"
    },
    "wof:country":"US",
    "wof:geomhash":"b099b4a497d525267dbb4e786459b0ce",
    "wof:hierarchy":[
        {
            "continent_id":102191575,
            "country_id":85633793,
            "county_id":102082385,
            "localadmin_id":404523097,
            "locality_id":85978555,
            "neighbourhood_id":85853261,
            "region_id":85688543,
            "venue_id":554935609
        }
    ],
    "wof:id":554935609,
    "wof:lastmodified":1461017095,
    "wof:name":"Windco Consulting Group",
    "wof:parent_id":85853261,
    "wof:placetype":"venue",
    "wof:superseded_by":[],
    "wof:supersedes":[],
    "wof:tags":[
        "provider"
    ]
},
  "bbox": [
    -74.047196,
    41.086214,
    -74.047196,
    41.086214
],
  "geometry": {"coordinates":[-74.047196,41.086214],"type":"Point"}
}