{
  "id": 554937559,
  "type": "Feature",
  "properties": {
    "edtf:cessation":"uuuu",
    "edtf:inception":"uuuu",
    "geom:area":0.0,
    "geom:bbox":"-73.665171,41.025933,-73.665171,41.025933",
    "geom:latitude":41.025933,
    "geom:longitude":-73.665171,
    "iso:country":"US",
    "sg:address":"8 Greenwich Hills Dr",
    "sg:city":"Greenwich",
    "sg:classifiers":[
        {
            "category":"Health Services",
            "subcategory":"Doctor",
            "type":"Services"
        }
    ],
    "sg:owner":"simplegeo",
    "sg:phone":"+1 203 869 6960",
    "sg:postcode":"06831",
    "sg:province":"NY",
    "sg:tags":[
        "physician",
        "surgeon"
    ],
    "src:geom":"simplegeo",
    "wof:belongsto":[
        420555461,
        102191575,
        404495949,
        85633793,
        85930937,
        102084283,
        85688629
    ],
    "wof:breaches":[],
    "wof:concordances":{
        "sg:id":"SG_67OHWgbhNjPtiBBwll0Wnk_41.025933_-73.665171@1294177022"
    },
    "wof:country":"US",
    "wof:geomhash":"3037bfe5f4e3cf532126087080325f34",
    "wof:hierarchy":[
        {
            "continent_id":102191575,
            "country_id":85633793,
            "county_id":102084283,
            "localadmin_id":404495949,
            "locality_id":85930937,
            "neighbourhood_id":420555461,
            "region_id":85688629,
            "venue_id":554937559
        }
    ],
    "wof:id":554937559,
    "wof:lastmodified":1461017388,
    "wof:name":"Greenwich Medical Group",
    "wof:parent_id":420555461,
    "wof:placetype":"venue",
    "wof:superseded_by":[],
    "wof:supersedes":[],
    "wof:tags":[
        "physician",
        "surgeon"
    ]
},
  "bbox": [
    -73.665171,
    41.025933,
    -73.665171,
    41.025933
],
  "geometry": {"coordinates":[-73.665171,41.025933],"type":"Point"}
}