{
  "id": 554941815,
  "type": "Feature",
  "properties": {
    "edtf:cessation":"uuuu",
    "edtf:inception":"uuuu",
    "geom:area":0.0,
    "geom:bbox":"-73.502651,41.140201,-73.502651,41.140201",
    "geom:latitude":41.140201,
    "geom:longitude":-73.502651,
    "iso:country":"US",
    "sg:address":"518 Weed St",
    "sg:city":"New Canaan",
    "sg:classifiers":[
        {
            "category":"Manufacturing",
            "subcategory":"Apparel",
            "type":"Manufacturing & Wholesale Goods"
        }
    ],
    "sg:owner":"simplegeo",
    "sg:phone":"+1 203 972 8641",
    "sg:postcode":"06840",
    "sg:province":"NY",
    "sg:tags":[
        "mfg"
    ],
    "src:geom":"simplegeo",
    "wof:belongsto":[
        85688629,
        85633793,
        85851779,
        102084283
    ],
    "wof:breaches":[],
    "wof:concordances":{
        "sg:id":"SG_1ryvFCUKF5tJg946isxLcr_41.140201_-73.502651@1294177022"
    },
    "wof:country":"US",
    "wof:geomhash":"b3f1d3b46c047e15816af7d105b9bd48",
    "wof:hierarchy":[
        {
            "country_id":85633793,
            "county_id":102084283,
            "neighbourhood_id":85851779,
            "region_id":85688629,
            "venue_id":554941815
        }
    ],
    "wof:id":554941815,
    "wof:lastmodified":1461017810,
    "wof:name":"H2h Connecticut LLC",
    "wof:parent_id":85851779,
    "wof:placetype":"venue",
    "wof:superseded_by":[],
    "wof:supersedes":[],
    "wof:tags":[
        "mfg"
    ]
},
  "bbox": [
    -73.502651,
    41.140201,
    -73.502651,
    41.140201
],
  "geometry": {"coordinates":[-73.502651,41.140201],"type":"Point"}
}