{
  "id": 554937979,
  "type": "Feature",
  "properties": {
    "edtf:cessation":"uuuu",
    "edtf:inception":"uuuu",
    "geom:area":0.0,
    "geom:bbox":"-73.514331,41.116571,-73.514331,41.116571",
    "geom:latitude":41.116571,
    "geom:longitude":-73.514331,
    "iso:country":"US",
    "sg:address":"37 Woodway Ridge Ln",
    "sg:city":"New Canaan",
    "sg:classifiers":[
        {
            "category":"Organizations",
            "subcategory":"Labor Organization",
            "type":"Services"
        }
    ],
    "sg:owner":"simplegeo",
    "sg:phone":"+1   ",
    "sg:postcode":"06840",
    "sg:province":"NY",
    "src:geom":"simplegeo",
    "wof:belongsto":[
        85688629,
        85633793,
        85851779,
        102084283
    ],
    "wof:breaches":[],
    "wof:concordances":{
        "sg:id":"SG_1UHRKOvTRavQcjldBhJ6ag_41.116571_-73.514331@1294177022"
    },
    "wof:country":"US",
    "wof:geomhash":"b3599870eb4b5a8d88cbb2af0ba33474",
    "wof:hierarchy":[
        {
            "country_id":85633793,
            "county_id":102084283,
            "neighbourhood_id":85851779,
            "region_id":85688629,
            "venue_id":554937979
        }
    ],
    "wof:id":554937979,
    "wof:lastmodified":1461017434,
    "wof:name":"Brotherhood Sullivan Lawrence",
    "wof:parent_id":85851779,
    "wof:placetype":"venue",
    "wof:superseded_by":[],
    "wof:supersedes":[],
    "wof:tags":[]
},
  "bbox": [
    -73.514331,
    41.116571,
    -73.514331,
    41.116571
],
  "geometry": {"coordinates":[-73.514331,41.116571],"type":"Point"}
}