{
  "id": 554940983,
  "type": "Feature",
  "properties": {
    "edtf:cessation":"uuuu",
    "edtf:inception":"uuuu",
    "geom:area":0.0,
    "geom:bbox":"-76.901438,42.001547,-76.901438,42.001547",
    "geom:latitude":42.001547,
    "geom:longitude":-76.901438,
    "iso:country":"US",
    "sg:address":"1847 Pennsylvania Ave",
    "sg:city":"Pine City",
    "sg:classifiers":[
        {
            "category":"Retail",
            "subcategory":"Car Wash",
            "type":"Services"
        }
    ],
    "sg:owner":"simplegeo",
    "sg:phone":"+1 607 732 6554",
    "sg:postcode":"14871",
    "sg:province":"NY",
    "sg:tags":[
        "polishing",
        "washing"
    ],
    "src:geom":"simplegeo",
    "wof:belongsto":[
        85688481,
        85633793,
        85868601,
        102081319
    ],
    "wof:breaches":[],
    "wof:concordances":{
        "sg:id":"SG_6UGDoPocnnv4PcLEXw2Fdx_42.001547_-76.901438@1294177022"
    },
    "wof:country":"US",
    "wof:geomhash":"057ad204b10b154831bc4ef6870964eb",
    "wof:hierarchy":[
        {
            "country_id":85633793,
            "county_id":102081319,
            "neighbourhood_id":85868601,
            "region_id":85688481,
            "venue_id":554940983
        }
    ],
    "wof:id":554940983,
    "wof:lastmodified":1461017695,
    "wof:name":"Auto & Matt Wizard",
    "wof:parent_id":85868601,
    "wof:placetype":"venue",
    "wof:superseded_by":[],
    "wof:supersedes":[],
    "wof:tags":[
        "polishing",
        "washing"
    ]
},
  "bbox": [
    -76.901438,
    42.001547,
    -76.901438,
    42.001547
],
  "geometry": {"coordinates":[-76.901438,42.001547],"type":"Point"}
}