{
  "id": 554936773,
  "type": "Feature",
  "properties": {
    "edtf:cessation":"uuuu",
    "edtf:inception":"uuuu",
    "geom:area":0.0,
    "geom:bbox":"-73.640104,41.14205,-73.640104,41.14205",
    "geom:latitude":41.14205,
    "geom:longitude":-73.640104,
    "iso:country":"US",
    "sg:address":"4 Bedford-Banksville Rd",
    "sg:city":"Bedford",
    "sg:classifiers":[
        {
            "category":"Food & Beverages",
            "subcategory":"Groceries & Convenience Stores",
            "type":"Retail Goods"
        }
    ],
    "sg:owner":"simplegeo",
    "sg:phone":"+1 914 234 4425",
    "sg:postcode":"10506",
    "sg:province":"NY",
    "sg:tags":[
        "grocer"
    ],
    "src:geom":"simplegeo",
    "wof:belongsto":[],
    "wof:breaches":[],
    "wof:concordances":{
        "sg:id":"SG_3roI4jD2AD1euFGW3lNEQ4_41.142050_-73.640104@1294177022"
    },
    "wof:country":"US",
    "wof:geomhash":"6aae65c32c5504d9827bb22e758a7225",
    "wof:hierarchy":[],
    "wof:id":554936773,
    "wof:lastmodified":1461017273,
    "wof:name":"Finch Country Store",
    "wof:parent_id":-1,
    "wof:placetype":"venue",
    "wof:superseded_by":[],
    "wof:supersedes":[],
    "wof:tags":[
        "grocer"
    ]
},
  "bbox": [
    -73.640104,
    41.14205,
    -73.640104,
    41.14205
],
  "geometry": {"coordinates":[-73.64010399999999,41.14205],"type":"Point"}
}