{
  "id": 554938055,
  "type": "Feature",
  "properties": {
    "edtf:cessation":"uuuu",
    "edtf:inception":"uuuu",
    "geom:area":0.0,
    "geom:bbox":"-74.145851,41.108314,-74.145851,41.108314",
    "geom:latitude":41.108314,
    "geom:longitude":-74.145851,
    "iso:country":"US",
    "sg:address":"50 Lonergan Dr",
    "sg:city":"Suffern",
    "sg:classifiers":[
        {
            "category":"Taxi",
            "subcategory":"",
            "type":"Transportation"
        }
    ],
    "sg:owner":"simplegeo",
    "sg:phone":"+1 845 368 0577",
    "sg:postcode":"10901",
    "sg:province":"NY",
    "sg:tags":[
        "taxicab"
    ],
    "src:geom":"simplegeo",
    "wof:belongsto":[
        85855885,
        102191575,
        404523097,
        85633793,
        85978523,
        102082385,
        85688543
    ],
    "wof:breaches":[],
    "wof:concordances":{
        "sg:id":"SG_2SRkDjJbsq6bohTLVDqtSw_41.108314_-74.145851@1294177022"
    },
    "wof:country":"US",
    "wof:geomhash":"eeb79442a3c9910aff6c362b9c9bceb5",
    "wof:hierarchy":[
        {
            "continent_id":102191575,
            "country_id":85633793,
            "county_id":102082385,
            "localadmin_id":404523097,
            "locality_id":85978523,
            "neighbourhood_id":85855885,
            "region_id":85688543,
            "venue_id":554938055
        }
    ],
    "wof:id":554938055,
    "wof:lastmodified":1461017440,
    "wof:name":"Spirit Taxi Of Rockland",
    "wof:parent_id":85855885,
    "wof:placetype":"venue",
    "wof:superseded_by":[],
    "wof:supersedes":[],
    "wof:tags":[
        "taxicab"
    ]
},
  "bbox": [
    -74.145851,
    41.108314,
    -74.145851,
    41.108314
],
  "geometry": {"coordinates":[-74.14585099999999,41.108314],"type":"Point"}
}