{
  "id": 554939705,
  "type": "Feature",
  "properties": {
    "edtf:cessation":"uuuu",
    "edtf:inception":"uuuu",
    "geom:area":0.0,
    "geom:bbox":"-73.631121,41.110803,-73.631121,41.110803",
    "geom:latitude":41.110803,
    "geom:longitude":-73.631121,
    "iso:country":"US",
    "sg:address":"781 North St",
    "sg:city":"Greenwich",
    "sg:classifiers":[
        {
            "category":"Shopping",
            "subcategory":"Clothing, Apparel, & Fashions",
            "type":"Retail Goods"
        }
    ],
    "sg:owner":"simplegeo",
    "sg:phone":"+1 203 869 0235",
    "sg:postcode":"06831",
    "sg:province":"NY",
    "sg:tags":[
        "hat"
    ],
    "src:geom":"simplegeo",
    "wof:belongsto":[
        85688629,
        85633793,
        85850923,
        102084283
    ],
    "wof:breaches":[],
    "wof:concordances":{
        "sg:id":"SG_6gsNmNpSopqiGINtZsVqCo_41.110803_-73.631121@1294177022"
    },
    "wof:country":"US",
    "wof:geomhash":"e0e8374a1d8d7f3c0f8652e8e41cd813",
    "wof:hierarchy":[
        {
            "country_id":85633793,
            "county_id":102084283,
            "neighbourhood_id":85850923,
            "region_id":85688629,
            "venue_id":554939705
        }
    ],
    "wof:id":554939705,
    "wof:lastmodified":1461017588,
    "wof:name":"Darcy Creech Inc",
    "wof:parent_id":85850923,
    "wof:placetype":"venue",
    "wof:superseded_by":[],
    "wof:supersedes":[],
    "wof:tags":[
        "hat"
    ]
},
  "bbox": [
    -73.631121,
    41.110803,
    -73.631121,
    41.110803
],
  "geometry": {"coordinates":[-73.63112099999999,41.110803],"type":"Point"}
}