{
  "id": 554934397,
  "type": "Feature",
  "properties": {
    "edtf:cessation":"uuuu",
    "edtf:inception":"uuuu",
    "geom:area":0.0,
    "geom:bbox":"-73.493131,41.145959,-73.493131,41.145959",
    "geom:latitude":41.145959,
    "geom:longitude":-73.493131,
    "iso:country":"US",
    "sg:address":"19 South Ave",
    "sg:city":"New Canaan",
    "sg:classifiers":[
        {
            "category":"Professional",
            "subcategory":"Business Services",
            "type":"Services"
        },
        {
            "category":"Building & Trades",
            "subcategory":"Construction",
            "type":"Services"
        }
    ],
    "sg:owner":"simplegeo",
    "sg:phone":"+1 203 972 8300",
    "sg:postcode":"06840",
    "sg:province":"NY",
    "sg:tags":[
        "planning",
        "remodeling",
        "kitchen"
    ],
    "src:geom":"simplegeo",
    "wof:belongsto":[
        85688629,
        85633793,
        85851779,
        102084283
    ],
    "wof:breaches":[],
    "wof:concordances":{
        "sg:id":"SG_06XKpZ1zkWgrv7YqFdvNiC_41.145959_-73.493131@1294177022"
    },
    "wof:country":"US",
    "wof:geomhash":"7e7423a9725ada61932d6f1820d35acd",
    "wof:hierarchy":[
        {
            "country_id":85633793,
            "county_id":102084283,
            "neighbourhood_id":85851779,
            "region_id":85688629,
            "venue_id":554934397
        }
    ],
    "wof:id":554934397,
    "wof:lastmodified":1461016933,
    "wof:name":"Bronte Kitchens England LLC",
    "wof:parent_id":85851779,
    "wof:placetype":"venue",
    "wof:superseded_by":[],
    "wof:supersedes":[],
    "wof:tags":[
        "planning",
        "remodeling",
        "kitchen"
    ]
},
  "bbox": [
    -73.493131,
    41.145959,
    -73.493131,
    41.145959
],
  "geometry": {"coordinates":[-73.49313100000001,41.145959],"type":"Point"}
}