{
  "id": 554938369,
  "type": "Feature",
  "properties": {
    "edtf:cessation":"uuuu",
    "edtf:inception":"uuuu",
    "geom:area":0.0,
    "geom:bbox":"-73.652282,41.104779,-73.652282,41.104779",
    "geom:latitude":41.104779,
    "geom:longitude":-73.652282,
    "iso:country":"US",
    "sg:address":"849 Lake Ave",
    "sg:city":"Greenwich",
    "sg:classifiers":[
        {
            "category":"Organizations",
            "subcategory":"Membership Organization",
            "type":"Services"
        }
    ],
    "sg:owner":"simplegeo",
    "sg:phone":"+1 203 629 9494",
    "sg:postcode":"06831",
    "sg:province":"NY",
    "sg:tags":[
        "animal"
    ],
    "src:geom":"simplegeo",
    "wof:belongsto":[
        85688629,
        85633793,
        85850923,
        102084283
    ],
    "wof:breaches":[],
    "wof:concordances":{
        "sg:id":"SG_2FJfCFq6JTu6PPEL659PlN_41.104779_-73.652282@1294177022"
    },
    "wof:country":"US",
    "wof:geomhash":"d58262d3c51d14b67e991ef10ee017f6",
    "wof:hierarchy":[
        {
            "country_id":85633793,
            "county_id":102084283,
            "neighbourhood_id":85850923,
            "region_id":85688629,
            "venue_id":554938369
        }
    ],
    "wof:id":554938369,
    "wof:lastmodified":1461017473,
    "wof:name":"Adopt A Dog Inc",
    "wof:parent_id":85850923,
    "wof:placetype":"venue",
    "wof:superseded_by":[],
    "wof:supersedes":[],
    "wof:tags":[
        "animal"
    ]
},
  "bbox": [
    -73.652282,
    41.104779,
    -73.652282,
    41.104779
],
  "geometry": {"coordinates":[-73.652282,41.104779],"type":"Point"}
}