{
  "id": 554935715,
  "type": "Feature",
  "properties": {
    "edtf:cessation":"uuuu",
    "edtf:inception":"uuuu",
    "geom:area":0.0,
    "geom:bbox":"-73.6601,41.024861,-73.6601,41.024861",
    "geom:latitude":41.024861,
    "geom:longitude":-73.6601,
    "iso:country":"US",
    "sg:address":"43 Morgan Ave",
    "sg:city":"Greenwich",
    "sg:classifiers":[
        {
            "category":"Building & Trades",
            "subcategory":"Landscaping Services",
            "type":"Services"
        }
    ],
    "sg:owner":"simplegeo",
    "sg:phone":"+1 203 531 0102",
    "sg:postcode":"06831",
    "sg:province":"NY",
    "sg:tags":[
        "landscape",
        "contractor"
    ],
    "src:geom":"simplegeo",
    "wof:belongsto":[
        420555461,
        102191575,
        404495949,
        85633793,
        85930937,
        102084283,
        85688629
    ],
    "wof:breaches":[],
    "wof:concordances":{
        "sg:id":"SG_0iTKjVzqMkVjiH09fdQ1bI_41.024861_-73.660100@1294177022"
    },
    "wof:country":"US",
    "wof:geomhash":"9341613e11e9745726a4df5fbafe6ba0",
    "wof:hierarchy":[
        {
            "continent_id":102191575,
            "country_id":85633793,
            "county_id":102084283,
            "localadmin_id":404495949,
            "locality_id":85930937,
            "neighbourhood_id":420555461,
            "region_id":85688629,
            "venue_id":554935715
        }
    ],
    "wof:id":554935715,
    "wof:lastmodified":1461017110,
    "wof:name":"Danny's Services LTD",
    "wof:parent_id":420555461,
    "wof:placetype":"venue",
    "wof:superseded_by":[],
    "wof:supersedes":[],
    "wof:tags":[
        "landscape",
        "contractor"
    ]
},
  "bbox": [
    -73.6601,
    41.024861,
    -73.6601,
    41.024861
],
  "geometry": {"coordinates":[-73.6601,41.024861],"type":"Point"}
}