{
  "id": 572178423,
  "type": "Feature",
  "properties": {
    "edtf:cessation":"uuuu",
    "edtf:inception":"uuuu",
    "geom:area":0.0,
    "geom:bbox":"-79.746057,42.250731,-79.746057,42.250731",
    "geom:latitude":42.250731,
    "geom:longitude":-79.746057,
    "iso:country":"US",
    "sg:address":"10550 W Main Rd",
    "sg:city":"Ripley",
    "sg:classifiers":[
        {
            "category":"Personal",
            "subcategory":"Beauty Salon",
            "type":"Services"
        }
    ],
    "sg:owner":"simplegeo",
    "sg:phone":"+1 716 736 5638",
    "sg:postcode":"14775",
    "sg:province":"NY",
    "sg:website":"http://www.thehairloftltd.com",
    "src:geom":"simplegeo",
    "wof:belongsto":[
        85688481,
        85633793,
        85850957,
        102080955
    ],
    "wof:breaches":[],
    "wof:concordances":{
        "sg:id":"SG_0Bdy26vlMFcsfhsqwxBX2S_42.250731_-79.746057@1303262403"
    },
    "wof:country":"US",
    "wof:geomhash":"754d088cbbef091e97632f92f8bc2290",
    "wof:hierarchy":[
        {
            "country_id":85633793,
            "county_id":102080955,
            "neighbourhood_id":85850957,
            "region_id":85688481,
            "venue_id":572178423
        }
    ],
    "wof:id":572178423,
    "wof:lastmodified":1461051668,
    "wof:name":"Hair Loft",
    "wof:parent_id":85850957,
    "wof:placetype":"venue",
    "wof:superseded_by":[],
    "wof:supersedes":[],
    "wof:tags":[]
},
  "bbox": [
    -79.746057,
    42.250731,
    -79.746057,
    42.250731
],
  "geometry": {"coordinates":[-79.74605699999999,42.250731],"type":"Point"}
}