{
  "id": 572019333,
  "type": "Feature",
  "properties": {
    "edtf:cessation":"uuuu",
    "edtf:inception":"uuuu",
    "geom:area":0.0,
    "geom:bbox":"-74.126999,40.6371,-74.126999,40.6371",
    "geom:latitude":40.6371,
    "geom:longitude":-74.126999,
    "iso:country":"US",
    "sg:address":"150 Clove Rd",
    "sg:city":"Staten Island",
    "sg:classifiers":[
        {
            "category":"Retail",
            "subcategory":"Auto Repair",
            "type":"Services"
        }
    ],
    "sg:owner":"simplegeo",
    "sg:phone":"+1 718 720 3225",
    "sg:postcode":"10310",
    "sg:province":"NY",
    "src:geom":"simplegeo",
    "wof:belongsto":[
        85865885,
        102191575,
        85633793,
        85977539,
        421205775,
        102081779,
        85688543
    ],
    "wof:breaches":[],
    "wof:concordances":{
        "sg:id":"SG_0gxtgVs9dKTT8pWKaAV2Cb_40.637100_-74.126999@1303262319"
    },
    "wof:country":"US",
    "wof:geomhash":"9dced0feb8c6c9f5b517a6516e8803a7",
    "wof:hierarchy":[
        {
            "borough_id":421205775,
            "continent_id":102191575,
            "country_id":85633793,
            "county_id":102081779,
            "locality_id":85977539,
            "neighbourhood_id":85865885,
            "region_id":85688543,
            "venue_id":572019333
        }
    ],
    "wof:id":572019333,
    "wof:lastmodified":1461048193,
    "wof:name":"M G Auto Center Inc",
    "wof:parent_id":85865885,
    "wof:placetype":"venue",
    "wof:superseded_by":[],
    "wof:supersedes":[],
    "wof:tags":[]
},
  "bbox": [
    -74.126999,
    40.6371,
    -74.126999,
    40.6371
],
  "geometry": {"coordinates":[-74.126999,40.6371],"type":"Point"}
}