{
  "id": 554939003,
  "type": "Feature",
  "properties": {
    "edtf:cessation":"uuuu",
    "edtf:inception":"uuuu",
    "geom:area":0.0,
    "geom:bbox":"-73.66191,41.014666,-73.66191,41.014666",
    "geom:latitude":41.014666,
    "geom:longitude":-73.66191,
    "iso:country":"US",
    "sg:address":"22 Putnam Dr",
    "sg:city":"Port Chester",
    "sg:classifiers":[
        {
            "category":"Building & Trades",
            "subcategory":"Construction",
            "type":"Services"
        }
    ],
    "sg:owner":"simplegeo",
    "sg:phone":"+1 914 937 6853",
    "sg:postcode":"10573",
    "sg:province":"NY",
    "sg:tags":[
        "contractor"
    ],
    "src:geom":"simplegeo",
    "wof:belongsto":[
        85885307,
        102191575,
        404495949,
        85633793,
        85930941,
        102084283,
        85688629
    ],
    "wof:breaches":[],
    "wof:concordances":{
        "sg:id":"SG_1ALFH6lD0TjyIG15C1QVsI_41.014666_-73.661910@1294177022"
    },
    "wof:country":"US",
    "wof:geomhash":"c138c382bdd0b14fc781bdbbf42d0c89",
    "wof:hierarchy":[
        {
            "continent_id":102191575,
            "country_id":85633793,
            "county_id":102084283,
            "localadmin_id":404495949,
            "locality_id":85930941,
            "neighbourhood_id":85885307,
            "region_id":85688629,
            "venue_id":554939003
        }
    ],
    "wof:id":554939003,
    "wof:lastmodified":1461017518,
    "wof:name":"Greaige Bros",
    "wof:parent_id":85885307,
    "wof:placetype":"venue",
    "wof:superseded_by":[],
    "wof:supersedes":[],
    "wof:tags":[
        "contractor"
    ]
},
  "bbox": [
    -73.66191,
    41.014666,
    -73.66191,
    41.014666
],
  "geometry": {"coordinates":[-73.66191000000001,41.014666],"type":"Point"}
}