{
  "id": 554939483,
  "type": "Feature",
  "properties": {
    "edtf:cessation":"uuuu",
    "edtf:inception":"uuuu",
    "geom:area":0.0,
    "geom:bbox":"-74.112404,41.092305,-74.112404,41.092305",
    "geom:latitude":41.092305,
    "geom:longitude":-74.112404,
    "iso:country":"US",
    "sg:address":"64 Church Rd",
    "sg:city":"Monsey",
    "sg:classifiers":[
        {
            "category":"Building & Trades",
            "subcategory":"Construction",
            "type":"Services"
        }
    ],
    "sg:owner":"simplegeo",
    "sg:phone":"+1 845 368 1561",
    "sg:postcode":"10952",
    "sg:province":"NY",
    "sg:tags":[
        "general",
        "contractor"
    ],
    "src:geom":"simplegeo",
    "wof:belongsto":[
        85832837,
        102191575,
        404523097,
        85633793,
        85978559,
        102082385,
        85688543
    ],
    "wof:breaches":[],
    "wof:concordances":{
        "sg:id":"SG_0tS5e644rydahigWMxKmuF_41.092305_-74.112404@1294177022"
    },
    "wof:country":"US",
    "wof:geomhash":"44a9bd2c9cd6285419118311513877cb",
    "wof:hierarchy":[
        {
            "continent_id":102191575,
            "country_id":85633793,
            "county_id":102082385,
            "localadmin_id":404523097,
            "locality_id":85978559,
            "neighbourhood_id":85832837,
            "region_id":85688543,
            "venue_id":554939483
        }
    ],
    "wof:id":554939483,
    "wof:lastmodified":1461017568,
    "wof:name":"Pja Consulting Corp",
    "wof:parent_id":85832837,
    "wof:placetype":"venue",
    "wof:superseded_by":[],
    "wof:supersedes":[],
    "wof:tags":[
        "general",
        "contractor"
    ]
},
  "bbox": [
    -74.112404,
    41.092305,
    -74.112404,
    41.092305
],
  "geometry": {"coordinates":[-74.112404,41.092305],"type":"Point"}
}