{
  "id": 554934261,
  "type": "Feature",
  "properties": {
    "edtf:cessation":"uuuu",
    "edtf:inception":"uuuu",
    "geom:area":0.0,
    "geom:bbox":"-73.486059,41.135069,-73.486059,41.135069",
    "geom:latitude":41.135069,
    "geom:longitude":-73.486059,
    "iso:country":"US",
    "sg:address":"12 Village Dr",
    "sg:city":"New Canaan",
    "sg:classifiers":[
        {
            "category":"Professional",
            "subcategory":"",
            "type":"Services"
        }
    ],
    "sg:owner":"simplegeo",
    "sg:phone":"+1 203 972 5759",
    "sg:postcode":"06840",
    "sg:province":"NY",
    "sg:tags":[
        "establishment"
    ],
    "src:geom":"simplegeo",
    "wof:belongsto":[
        85688629,
        85633793,
        85851779,
        102084283
    ],
    "wof:breaches":[],
    "wof:concordances":{
        "sg:id":"SG_5k3FXKHhZ2CrOqIUqLKerm_41.135069_-73.486059@1294177022"
    },
    "wof:country":"US",
    "wof:geomhash":"8245216248f27d49576caef853a58628",
    "wof:hierarchy":[
        {
            "country_id":85633793,
            "county_id":102084283,
            "neighbourhood_id":85851779,
            "region_id":85688629,
            "venue_id":554934261
        }
    ],
    "wof:id":554934261,
    "wof:lastmodified":1461016919,
    "wof:name":"Golfvest Partners",
    "wof:parent_id":85851779,
    "wof:placetype":"venue",
    "wof:superseded_by":[],
    "wof:supersedes":[],
    "wof:tags":[
        "establishment"
    ]
},
  "bbox": [
    -73.486059,
    41.135069,
    -73.486059,
    41.135069
],
  "geometry": {"coordinates":[-73.486059,41.135069],"type":"Point"}
}