{
  "id": 554936525,
  "type": "Feature",
  "properties": {
    "edtf:cessation":"uuuu",
    "edtf:inception":"uuuu",
    "geom:area":0.0,
    "geom:bbox":"-73.715383,41.061293,-73.715383,41.061293",
    "geom:latitude":41.061293,
    "geom:longitude":-73.715383,
    "iso:country":"US",
    "sg:address":"91 Tower Rd",
    "sg:city":"White Plains",
    "sg:classifiers":[
        {
            "category":"Professional",
            "subcategory":"Engineering",
            "type":"Services"
        }
    ],
    "sg:owner":"simplegeo",
    "sg:phone":"+1 914 448 9862",
    "sg:postcode":"10604",
    "sg:province":"NY",
    "src:geom":"simplegeo",
    "wof:belongsto":[
        85845073,
        102191575,
        404523361,
        85633793,
        85978735,
        102082373,
        85688543
    ],
    "wof:breaches":[],
    "wof:concordances":{
        "sg:id":"SG_5AqxrBbalHUNrgpl9uEnip_41.061293_-73.715383@1294177022"
    },
    "wof:country":"US",
    "wof:geomhash":"98b9d3d8a80e763048b054d95cc99500",
    "wof:hierarchy":[
        {
            "continent_id":102191575,
            "country_id":85633793,
            "county_id":102082373,
            "localadmin_id":404523361,
            "locality_id":85978735,
            "neighbourhood_id":85845073,
            "region_id":85688543,
            "venue_id":554936525
        }
    ],
    "wof:id":554936525,
    "wof:lastmodified":1461017236,
    "wof:name":"Department of Transportation",
    "wof:parent_id":85845073,
    "wof:placetype":"venue",
    "wof:superseded_by":[],
    "wof:supersedes":[],
    "wof:tags":[]
},
  "bbox": [
    -73.715383,
    41.061293,
    -73.715383,
    41.061293
],
  "geometry": {"coordinates":[-73.715383,41.061293],"type":"Point"}
}