{
  "id": 554941945,
  "type": "Feature",
  "properties": {
    "edtf:cessation":"uuuu",
    "edtf:inception":"uuuu",
    "geom:area":0.0,
    "geom:bbox":"-79.662912,42.179735,-79.662912,42.179735",
    "geom:latitude":42.179735,
    "geom:longitude":-79.662912,
    "iso:country":"US",
    "sg:address":"9357 NE Sherman Rd",
    "sg:city":"Ripley",
    "sg:classifiers":[
        {
            "category":"Farming",
            "subcategory":"Dairy Farm",
            "type":"Manufacturing & Wholesale Goods"
        }
    ],
    "sg:owner":"simplegeo",
    "sg:phone":"+1 716 761 6493",
    "sg:postcode":"14775",
    "sg:province":"NY",
    "src:geom":"simplegeo",
    "wof:belongsto":[
        85688481,
        85633793,
        85850957,
        102080955
    ],
    "wof:breaches":[],
    "wof:concordances":{
        "sg:id":"SG_5VewqY5OjDyGdIH2PvHRjv_42.179735_-79.662912@1294177022"
    },
    "wof:country":"US",
    "wof:geomhash":"b612dbd825f8e249012208062341f1e5",
    "wof:hierarchy":[
        {
            "country_id":85633793,
            "county_id":102080955,
            "neighbourhood_id":85850957,
            "region_id":85688481,
            "venue_id":554941945
        }
    ],
    "wof:id":554941945,
    "wof:lastmodified":1461017823,
    "wof:name":"Chycheek Dairy",
    "wof:parent_id":85850957,
    "wof:placetype":"venue",
    "wof:superseded_by":[],
    "wof:supersedes":[],
    "wof:tags":[]
},
  "bbox": [
    -79.662912,
    42.179735,
    -79.662912,
    42.179735
],
  "geometry": {"coordinates":[-79.66291200000001,42.179735],"type":"Point"}
}