{
  "id": 554936835,
  "type": "Feature",
  "properties": {
    "edtf:cessation":"uuuu",
    "edtf:inception":"uuuu",
    "geom:area":0.0,
    "geom:bbox":"-73.65145,41.019064,-73.65145,41.019064",
    "geom:latitude":41.019064,
    "geom:longitude":-73.65145,
    "iso:country":"US",
    "sg:address":"32 Arthur St",
    "sg:city":"Greenwich",
    "sg:classifiers":[
        {
            "category":"Local Transit",
            "subcategory":"",
            "type":"Transportation"
        }
    ],
    "sg:owner":"simplegeo",
    "sg:phone":"+1 203 531 1703",
    "sg:postcode":"06831",
    "sg:province":"NY",
    "sg:tags":[
        "limousine"
    ],
    "src:geom":"simplegeo",
    "wof:belongsto":[
        85885307,
        102191575,
        404495949,
        85633793,
        85930941,
        102084283,
        85688629,
        420555461,
        85930937
    ],
    "wof:breaches":[],
    "wof:concordances":{
        "sg:id":"SG_2rxJjWAN7mJzpqTxPbndl5_41.019064_-73.651450@1294177022"
    },
    "wof:country":"US",
    "wof:geomhash":"f390286c91ddcb92957f8a755b523401",
    "wof:hierarchy":[
        {
            "continent_id":102191575,
            "country_id":85633793,
            "county_id":102084283,
            "localadmin_id":404495949,
            "locality_id":85930941,
            "neighbourhood_id":85885307,
            "region_id":85688629,
            "venue_id":554936835
        },
        {
            "continent_id":102191575,
            "country_id":85633793,
            "county_id":102084283,
            "localadmin_id":404495949,
            "locality_id":85930937,
            "neighbourhood_id":420555461,
            "region_id":85688629,
            "venue_id":554936835
        }
    ],
    "wof:id":554936835,
    "wof:lastmodified":1461017280,
    "wof:name":"ABR Limousine Co",
    "wof:parent_id":-1,
    "wof:placetype":"venue",
    "wof:superseded_by":[],
    "wof:supersedes":[],
    "wof:tags":[
        "limousine"
    ]
},
  "bbox": [
    -73.65145,
    41.019064,
    -73.65145,
    41.019064
],
  "geometry": {"coordinates":[-73.65145,41.019064],"type":"Point"}
}