{
  "id": 554937445,
  "type": "Feature",
  "properties": {
    "edtf:cessation":"uuuu",
    "edtf:inception":"uuuu",
    "geom:area":0.0,
    "geom:bbox":"-73.494496,41.148699,-73.494496,41.148699",
    "geom:latitude":41.148699,
    "geom:longitude":-73.494496,
    "iso:country":"US",
    "sg:address":"46 Main St",
    "sg:city":"New Canaan",
    "sg:classifiers":[
        {
            "category":"Professional",
            "subcategory":"Lawyer & Legal Services",
            "type":"Services"
        }
    ],
    "sg:owner":"simplegeo",
    "sg:phone":"+1   ",
    "sg:postcode":"06840",
    "sg:province":"NY",
    "src:geom":"simplegeo",
    "wof:belongsto":[
        85688629,
        85633793,
        85851779,
        102084283
    ],
    "wof:breaches":[],
    "wof:concordances":{
        "sg:id":"SG_0RD7t8nlaapQIO2HjIKGA1_41.148699_-73.494496@1294177022"
    },
    "wof:country":"US",
    "wof:geomhash":"eae3540405983c887af35bc6ff865726",
    "wof:hierarchy":[
        {
            "country_id":85633793,
            "county_id":102084283,
            "neighbourhood_id":85851779,
            "region_id":85688629,
            "venue_id":554937445
        }
    ],
    "wof:id":554937445,
    "wof:lastmodified":1461017373,
    "wof:name":"Catherine Anderson Atty",
    "wof:parent_id":85851779,
    "wof:placetype":"venue",
    "wof:superseded_by":[],
    "wof:supersedes":[],
    "wof:tags":[]
},
  "bbox": [
    -73.494496,
    41.148699,
    -73.494496,
    41.148699
],
  "geometry": {"coordinates":[-73.494496,41.148699],"type":"Point"}
}