{
  "id": 554934749,
  "type": "Feature",
  "properties": {
    "edtf:cessation":"uuuu",
    "edtf:inception":"uuuu",
    "geom:area":0.0,
    "geom:bbox":"-73.511106,44.075217,-73.511106,44.075217",
    "geom:latitude":44.075217,
    "geom:longitude":-73.511106,
    "iso:country":"US",
    "sg:address":"147 Plank Rd",
    "sg:city":"Mineville",
    "sg:classifiers":[
        {
            "category":"Shopping",
            "subcategory":"",
            "type":"Retail Goods"
        }
    ],
    "sg:owner":"simplegeo",
    "sg:phone":"+1 518 942 3087",
    "sg:postcode":"12956",
    "sg:province":"NY",
    "sg:tags":[
        "miscellaneous",
        "store"
    ],
    "src:geom":"simplegeo",
    "wof:belongsto":[
        85688763,
        85633793,
        85857981,
        102080765
    ],
    "wof:breaches":[],
    "wof:concordances":{
        "sg:id":"SG_48CRDHn0tDjb1poesw3cbT_44.075217_-73.511106@1294177022"
    },
    "wof:country":"US",
    "wof:geomhash":"27b16653f4081144bfcf700563488d1c",
    "wof:hierarchy":[
        {
            "country_id":85633793,
            "county_id":102080765,
            "neighbourhood_id":85857981,
            "region_id":85688763,
            "venue_id":554934749
        }
    ],
    "wof:id":554934749,
    "wof:lastmodified":1461016980,
    "wof:name":"General Composites Inc",
    "wof:parent_id":85857981,
    "wof:placetype":"venue",
    "wof:superseded_by":[],
    "wof:supersedes":[],
    "wof:tags":[
        "miscellaneous",
        "store"
    ]
},
  "bbox": [
    -73.511106,
    44.075217,
    -73.511106,
    44.075217
],
  "geometry": {"coordinates":[-73.511106,44.075217],"type":"Point"}
}