{
  "id": 554939257,
  "type": "Feature",
  "properties": {
    "edtf:cessation":"uuuu",
    "edtf:inception":"uuuu",
    "geom:area":0.0,
    "geom:bbox":"-74.117808,41.094966,-74.117808,41.094966",
    "geom:latitude":41.094966,
    "geom:longitude":-74.117808,
    "iso:country":"US",
    "sg:address":"1 Vermeer Ct",
    "sg:city":"Airmont",
    "sg:classifiers":[
        {
            "category":"Insurance",
            "subcategory":"Insurance Agent",
            "type":"Services"
        }
    ],
    "sg:owner":"simplegeo",
    "sg:phone":"+1 845 368 0309",
    "sg:postcode":"10901",
    "sg:province":"NY",
    "sg:tags":[
        "adjuster"
    ],
    "src:geom":"simplegeo",
    "wof:belongsto":[
        85832837,
        102191575,
        404523097,
        85633793,
        85978559,
        102082385,
        85688543
    ],
    "wof:breaches":[],
    "wof:concordances":{
        "sg:id":"SG_3wv9UnFIZfeRiaees9rFG1_41.094966_-74.117808@1294177022"
    },
    "wof:country":"US",
    "wof:geomhash":"a82f450e5bb24c017e50c9932c22bc64",
    "wof:hierarchy":[
        {
            "continent_id":102191575,
            "country_id":85633793,
            "county_id":102082385,
            "localadmin_id":404523097,
            "locality_id":85978559,
            "neighbourhood_id":85832837,
            "region_id":85688543,
            "venue_id":554939257
        }
    ],
    "wof:id":554939257,
    "wof:lastmodified":1461017545,
    "wof:name":"Kevin Fitzgerald & Assoc Inc",
    "wof:parent_id":85832837,
    "wof:placetype":"venue",
    "wof:superseded_by":[],
    "wof:supersedes":[],
    "wof:tags":[
        "adjuster"
    ]
},
  "bbox": [
    -74.117808,
    41.094966,
    -74.117808,
    41.094966
],
  "geometry": {"coordinates":[-74.117808,41.094966],"type":"Point"}
}