{
  "id": 572171003,
  "type": "Feature",
  "properties": {
    "edtf:cessation":"uuuu",
    "edtf:inception":"uuuu",
    "geom:area":0.0,
    "geom:bbox":"-74.198696,40.640385,-74.198696,40.640385",
    "geom:latitude":40.640385,
    "geom:longitude":-74.198696,
    "iso:country":"US",
    "sg:address":"863 50th St",
    "sg:city":"Brooklyn",
    "sg:classifiers":[
        {
            "category":"Banks & Credit Unions",
            "subcategory":"Financial Services",
            "type":"Services"
        }
    ],
    "sg:owner":"simplegeo",
    "sg:phone":"+1 718 686 8880",
    "sg:postcode":"11220",
    "sg:province":"NY",
    "sg:tags":[
        "broker",
        "mortgage"
    ],
    "src:geom":"simplegeo",
    "wof:belongsto":[
        420527719,
        102191575,
        404478497,
        85633793,
        85975847,
        102085995,
        85688607
    ],
    "wof:breaches":[],
    "wof:concordances":{
        "sg:id":"SG_0GJRFPcHbF19ovNrYIFPaJ_40.640385_-74.198696@1303262344"
    },
    "wof:country":"US",
    "wof:geomhash":"21776409340e798e945e187844c4e76a",
    "wof:hierarchy":[
        {
            "continent_id":102191575,
            "country_id":85633793,
            "county_id":102085995,
            "localadmin_id":404478497,
            "locality_id":85975847,
            "neighbourhood_id":420527719,
            "region_id":85688607,
            "venue_id":572171003
        }
    ],
    "wof:id":572171003,
    "wof:lastmodified":1461051437,
    "wof:name":"First Care Medical Group",
    "wof:parent_id":420527719,
    "wof:placetype":"venue",
    "wof:superseded_by":[],
    "wof:supersedes":[],
    "wof:tags":[
        "broker",
        "mortgage"
    ]
},
  "bbox": [
    -74.198696,
    40.640385,
    -74.198696,
    40.640385
],
  "geometry": {"coordinates":[-74.198696,40.640385],"type":"Point"}
}