{
  "id": 554937945,
  "type": "Feature",
  "properties": {
    "edtf:cessation":"uuuu",
    "edtf:inception":"uuuu",
    "geom:area":0.0,
    "geom:bbox":"-73.667815,41.035263,-73.667815,41.035263",
    "geom:latitude":41.035263,
    "geom:longitude":-73.667815,
    "iso:country":"US",
    "sg:address":"204 River W",
    "sg:city":"Greenwich",
    "sg:classifiers":[
        {
            "category":"Banks & Credit Unions",
            "subcategory":"Bank",
            "type":"Services"
        }
    ],
    "sg:owner":"simplegeo",
    "sg:phone":"+1 203 531 5623",
    "sg:postcode":"06831",
    "sg:province":"NY",
    "sg:tags":[
        "loan"
    ],
    "src:geom":"simplegeo",
    "wof:belongsto":[
        420555461,
        102191575,
        404495949,
        85633793,
        85930937,
        102084283,
        85688629
    ],
    "wof:breaches":[],
    "wof:concordances":{
        "sg:id":"SG_2XanlxA6ivcdX8fTVULkji_41.035263_-73.667815@1294177022"
    },
    "wof:country":"US",
    "wof:geomhash":"287f86baf293000bfcc368e3d3f1905c",
    "wof:hierarchy":[
        {
            "continent_id":102191575,
            "country_id":85633793,
            "county_id":102084283,
            "localadmin_id":404495949,
            "locality_id":85930937,
            "neighbourhood_id":420555461,
            "region_id":85688629,
            "venue_id":554937945
        }
    ],
    "wof:id":554937945,
    "wof:lastmodified":1461017431,
    "wof:name":"Private Equity Funding",
    "wof:parent_id":420555461,
    "wof:placetype":"venue",
    "wof:superseded_by":[],
    "wof:supersedes":[],
    "wof:tags":[
        "loan"
    ]
},
  "bbox": [
    -73.667815,
    41.035263,
    -73.667815,
    41.035263
],
  "geometry": {"coordinates":[-73.667815,41.035263],"type":"Point"}
}