{
  "id": 555204423,
  "type": "Feature",
  "properties": {
    "edtf:cessation":"uuuu",
    "edtf:inception":"uuuu",
    "geom:area":0.0,
    "geom:bbox":"-78.937752,42.464473,-78.937752,42.464473",
    "geom:latitude":42.464473,
    "geom:longitude":-78.937752,
    "iso:country":"US",
    "sg:address":"44 Center St",
    "sg:city":"Gowanda",
    "sg:classifiers":[
        {
            "category":"Retail",
            "subcategory":"Funeral Services",
            "type":"Services"
        }
    ],
    "sg:owner":"simplegeo",
    "sg:phone":"+1 716 532 4200",
    "sg:postcode":"14070",
    "sg:province":"NY",
    "sg:tags":[
        "director"
    ],
    "src:geom":"simplegeo",
    "wof:belongsto":[],
    "wof:breaches":[],
    "wof:concordances":{
        "sg:id":"SG_6a0lrdPkwqRIJksCHOBYz5_42.464473_-78.937752@1294177022"
    },
    "wof:country":"US",
    "wof:geomhash":"939a205c0c7b4844fa3e1f20fd089954",
    "wof:hierarchy":[],
    "wof:id":555204423,
    "wof:lastmodified":1461024331,
    "wof:name":"Schindler Funeral Home",
    "wof:parent_id":-1,
    "wof:placetype":"venue",
    "wof:superseded_by":[],
    "wof:supersedes":[],
    "wof:tags":[
        "director"
    ]
},
  "bbox": [
    -78.937752,
    42.464473,
    -78.937752,
    42.464473
],
  "geometry": {"coordinates":[-78.937752,42.464473],"type":"Point"}
}