{
  "id": 554941519,
  "type": "Feature",
  "properties": {
    "edtf:cessation":"uuuu",
    "edtf:inception":"uuuu",
    "geom:area":0.0,
    "geom:bbox":"-74.099263,41.087818,-74.099263,41.087818",
    "geom:latitude":41.087818,
    "geom:longitude":-74.099263,
    "iso:country":"US",
    "sg:address":"5 Shulman Ct",
    "sg:city":"Airmont",
    "sg:classifiers":[
        {
            "category":"Organizations",
            "subcategory":"Non-profit Organization",
            "type":"Services"
        }
    ],
    "sg:owner":"simplegeo",
    "sg:phone":"+1 518 435 1239",
    "sg:postcode":"10952",
    "sg:province":"NY",
    "sg:tags":[
        "fund",
        "counselor",
        "raising"
    ],
    "src:geom":"simplegeo",
    "wof:belongsto":[
        85832837,
        102191575,
        404523097,
        85633793,
        85978559,
        102082385,
        85688543
    ],
    "wof:breaches":[],
    "wof:concordances":{
        "sg:id":"SG_55rfsePOHHCie9LD8yClbQ_41.087818_-74.099263@1294177022"
    },
    "wof:country":"US",
    "wof:geomhash":"7249fb3ba02374c66b0e7b3d3512ebb5",
    "wof:hierarchy":[
        {
            "continent_id":102191575,
            "country_id":85633793,
            "county_id":102082385,
            "localadmin_id":404523097,
            "locality_id":85978559,
            "neighbourhood_id":85832837,
            "region_id":85688543,
            "venue_id":554941519
        }
    ],
    "wof:id":554941519,
    "wof:lastmodified":1461017768,
    "wof:name":"Chrysanthemum Associates",
    "wof:parent_id":85832837,
    "wof:placetype":"venue",
    "wof:superseded_by":[],
    "wof:supersedes":[],
    "wof:tags":[
        "fund",
        "counselor",
        "raising"
    ]
},
  "bbox": [
    -74.099263,
    41.087818,
    -74.099263,
    41.087818
],
  "geometry": {"coordinates":[-74.09926299999999,41.087818],"type":"Point"}
}