{
  "id": 555310909,
  "type": "Feature",
  "properties": {
    "edtf:cessation":"uuuu",
    "edtf:inception":"uuuu",
    "geom:area":0.0,
    "geom:bbox":"-74.954927,41.479198,-74.954927,41.479198",
    "geom:latitude":41.479198,
    "geom:longitude":-74.954927,
    "iso:country":"US",
    "sg:address":"34 Dry Brook Rd",
    "sg:city":"Barryville",
    "sg:classifiers":[
        {
            "category":"Autos & Motor Vehicles",
            "subcategory":"Automobile Sales",
            "type":"Retail Goods"
        }
    ],
    "sg:owner":"simplegeo",
    "sg:phone":"+1   ",
    "sg:postcode":"12719",
    "sg:province":"NY",
    "sg:tags":[
        "used"
    ],
    "src:geom":"simplegeo",
    "wof:belongsto":[],
    "wof:breaches":[],
    "wof:concordances":{
        "sg:id":"SG_0BvRg2slIPiJA4tWA1HtDg_41.479198_-74.954927@1294177022"
    },
    "wof:country":"US",
    "wof:geomhash":"70918171500109c57b08a0bb31188102",
    "wof:hierarchy":[],
    "wof:id":555310909,
    "wof:lastmodified":1461026809,
    "wof:name":"Minisink Ford Auto Sales",
    "wof:parent_id":-1,
    "wof:placetype":"venue",
    "wof:superseded_by":[],
    "wof:supersedes":[],
    "wof:tags":[
        "used"
    ]
},
  "bbox": [
    -74.954927,
    41.479198,
    -74.954927,
    41.479198
],
  "geometry": {"coordinates":[-74.954927,41.479198],"type":"Point"}
}