{
  "id": 554938913,
  "type": "Feature",
  "properties": {
    "edtf:cessation":"uuuu",
    "edtf:inception":"uuuu",
    "geom:area":0.0,
    "geom:bbox":"-73.500347,41.145466,-73.500347,41.145466",
    "geom:latitude":41.145466,
    "geom:longitude":-73.500347,
    "iso:country":"US",
    "sg:address":"282 Elm St",
    "sg:city":"New Canaan",
    "sg:classifiers":[
        {
            "category":"Food & Beverages",
            "subcategory":"Liquor & Beverages",
            "type":"Retail Goods"
        }
    ],
    "sg:owner":"simplegeo",
    "sg:phone":"+1 203 966 7236",
    "sg:postcode":"06840",
    "sg:province":"NY",
    "src:geom":"simplegeo",
    "wof:belongsto":[
        85688629,
        85633793,
        85851779,
        102084283
    ],
    "wof:breaches":[],
    "wof:concordances":{
        "sg:id":"SG_7RhIphISGy0PRm14OxgLan_41.145466_-73.500347@1294177022"
    },
    "wof:country":"US",
    "wof:geomhash":"9a03a24d274d81b7f437a9295e0e2a68",
    "wof:hierarchy":[
        {
            "country_id":85633793,
            "county_id":102084283,
            "neighbourhood_id":85851779,
            "region_id":85688629,
            "venue_id":554938913
        }
    ],
    "wof:id":554938913,
    "wof:lastmodified":1461017511,
    "wof:name":"A&P Wine and Spirits Inc",
    "wof:parent_id":85851779,
    "wof:placetype":"venue",
    "wof:superseded_by":[],
    "wof:supersedes":[],
    "wof:tags":[]
},
  "bbox": [
    -73.500347,
    41.145466,
    -73.500347,
    41.145466
],
  "geometry": {"coordinates":[-73.500347,41.145466],"type":"Point"}
}