{
  "id": 554934787,
  "type": "Feature",
  "properties": {
    "edtf:cessation":"uuuu",
    "edtf:inception":"uuuu",
    "geom:area":0.0,
    "geom:bbox":"-73.650053,41.018508,-73.650053,41.018508",
    "geom:latitude":41.018508,
    "geom:longitude":-73.650053,
    "iso:country":"US",
    "sg:address":"51 Weaver St",
    "sg:city":"Greenwich",
    "sg:classifiers":[
        {
            "category":"Banks & Credit Unions",
            "subcategory":"Investment Brokerage",
            "type":"Services"
        }
    ],
    "sg:owner":"simplegeo",
    "sg:phone":"+1 203 532 2000",
    "sg:postcode":"06831",
    "sg:province":"NY",
    "sg:tags":[
        "security"
    ],
    "src:geom":"simplegeo",
    "wof:belongsto":[
        85885307,
        102191575,
        404495949,
        85633793,
        85930941,
        102084283,
        85688629,
        420555529
    ],
    "wof:breaches":[],
    "wof:concordances":{
        "sg:id":"SG_4B0Yjx982NeqLy5VTGDWtj_41.018508_-73.650053@1294177022"
    },
    "wof:country":"US",
    "wof:geomhash":"454236da076a48508801b5a2cbd54315",
    "wof:hierarchy":[
        {
            "continent_id":102191575,
            "country_id":85633793,
            "county_id":102084283,
            "localadmin_id":404495949,
            "locality_id":85930941,
            "neighbourhood_id":85885307,
            "region_id":85688629,
            "venue_id":554934787
        },
        {
            "continent_id":102191575,
            "country_id":85633793,
            "county_id":102084283,
            "localadmin_id":404495949,
            "locality_id":85930941,
            "neighbourhood_id":420555529,
            "region_id":85688629,
            "venue_id":554934787
        }
    ],
    "wof:id":554934787,
    "wof:lastmodified":1461016984,
    "wof:name":"Ambase Corp",
    "wof:parent_id":-1,
    "wof:placetype":"venue",
    "wof:superseded_by":[],
    "wof:supersedes":[],
    "wof:tags":[
        "security"
    ]
},
  "bbox": [
    -73.650053,
    41.018508,
    -73.650053,
    41.018508
],
  "geometry": {"coordinates":[-73.650053,41.018508],"type":"Point"}
}