{
  "id": 554937807,
  "type": "Feature",
  "properties": {
    "edtf:cessation":"uuuu",
    "edtf:inception":"uuuu",
    "geom:area":0.0,
    "geom:bbox":"-73.656496,41.085469,-73.656496,41.085469",
    "geom:latitude":41.085469,
    "geom:longitude":-73.656496,
    "iso:country":"US",
    "sg:address":"51 Baldwin Farms N",
    "sg:city":"Greenwich",
    "sg:classifiers":[
        {
            "category":"Wholesale",
            "subcategory":"Non-durable Goods",
            "type":"Manufacturing & Wholesale Goods"
        }
    ],
    "sg:owner":"simplegeo",
    "sg:phone":"+1 203 861 2164",
    "sg:postcode":"06831",
    "sg:province":"NY",
    "sg:tags":[
        "representative",
        "advertising"
    ],
    "src:geom":"simplegeo",
    "wof:belongsto":[],
    "wof:breaches":[],
    "wof:concordances":{
        "sg:id":"SG_5MvvNi1i0TCYJKqmsDC9uT_41.085469_-73.656496@1294177022"
    },
    "wof:country":"US",
    "wof:geomhash":"254799f0d437234b5bf53d6956ba66b2",
    "wof:hierarchy":[],
    "wof:id":554937807,
    "wof:lastmodified":1461017420,
    "wof:name":"Birdsong Company",
    "wof:parent_id":-1,
    "wof:placetype":"venue",
    "wof:superseded_by":[],
    "wof:supersedes":[],
    "wof:tags":[
        "representative",
        "advertising"
    ]
},
  "bbox": [
    -73.656496,
    41.085469,
    -73.656496,
    41.085469
],
  "geometry": {"coordinates":[-73.656496,41.085469],"type":"Point"}
}