{
  "id": 572078607,
  "type": "Feature",
  "properties": {
    "edtf:cessation":"uuuu",
    "edtf:inception":"uuuu",
    "geom:area":0.0,
    "geom:bbox":"-73.726753,41.207384,-73.726753,41.207384",
    "geom:latitude":41.207384,
    "geom:longitude":-73.726753,
    "iso:country":"US",
    "sg:address":"50 Main St",
    "sg:city":"Mount Kisco",
    "sg:classifiers":[
        {
            "category":"Professional",
            "subcategory":"Lawyer & Legal Services",
            "type":"Services"
        }
    ],
    "sg:owner":"simplegeo",
    "sg:phone":"+1 914 666 4400",
    "sg:postcode":"10549",
    "sg:province":"NY",
    "src:geom":"simplegeo",
    "wof:belongsto":[],
    "wof:breaches":[],
    "wof:concordances":{
        "sg:id":"SG_27mqRvfuacDjDVOrUiJtwJ_41.207384_-73.726753@1303262326"
    },
    "wof:country":"US",
    "wof:geomhash":"443b4d1e82b31861de4757dcac3eb06c",
    "wof:hierarchy":[],
    "wof:id":572078607,
    "wof:lastmodified":1461049454,
    "wof:name":"Singleton Thomas J Lwyr",
    "wof:parent_id":-1,
    "wof:placetype":"venue",
    "wof:superseded_by":[],
    "wof:supersedes":[],
    "wof:tags":[]
},
  "bbox": [
    -73.726753,
    41.207384,
    -73.726753,
    41.207384
],
  "geometry": {"coordinates":[-73.726753,41.207384],"type":"Point"}
}