{
  "id": 554934233,
  "type": "Feature",
  "properties": {
    "edtf:cessation":"uuuu",
    "edtf:inception":"uuuu",
    "geom:area":0.0,
    "geom:bbox":"-73.643526,41.030196,-73.643526,41.030196",
    "geom:latitude":41.030196,
    "geom:longitude":-73.643526,
    "iso:country":"US",
    "sg:address":"52 Upland Dr",
    "sg:city":"Greenwich",
    "sg:classifiers":[
        {
            "category":"Professional",
            "subcategory":"",
            "type":"Services"
        }
    ],
    "sg:owner":"simplegeo",
    "sg:phone":"+1 203 661 0277",
    "sg:postcode":"06831",
    "sg:province":"NY",
    "src:geom":"simplegeo",
    "wof:belongsto":[
        420555529,
        102191575,
        404495949,
        85633793,
        85930941,
        102084283,
        85688629
    ],
    "wof:breaches":[],
    "wof:concordances":{
        "sg:id":"SG_5KiUBMHjBMxXR5U53DU29b_41.030196_-73.643526@1294177022"
    },
    "wof:country":"US",
    "wof:geomhash":"7bc1375d9f59f80921cab6f2669bb10a",
    "wof:hierarchy":[
        {
            "continent_id":102191575,
            "country_id":85633793,
            "county_id":102084283,
            "localadmin_id":404495949,
            "locality_id":85930941,
            "neighbourhood_id":420555529,
            "region_id":85688629,
            "venue_id":554934233
        }
    ],
    "wof:id":554934233,
    "wof:lastmodified":1461016915,
    "wof:name":"G Michael Stevens",
    "wof:parent_id":420555529,
    "wof:placetype":"venue",
    "wof:superseded_by":[],
    "wof:supersedes":[],
    "wof:tags":[]
},
  "bbox": [
    -73.643526,
    41.030196,
    -73.643526,
    41.030196
],
  "geometry": {"coordinates":[-73.64352599999999,41.030196],"type":"Point"}
}