{
  "id": 554939845,
  "type": "Feature",
  "properties": {
    "edtf:cessation":"uuuu",
    "edtf:inception":"uuuu",
    "geom:area":0.0,
    "geom:bbox":"-73.495772,41.148779,-73.495772,41.148779",
    "geom:latitude":41.148779,
    "geom:longitude":-73.495772,
    "iso:country":"US",
    "sg:address":"23 Park St",
    "sg:city":"New Canaan",
    "sg:classifiers":[
        {
            "category":"Organizations",
            "subcategory":"Religious Organization",
            "type":"Services"
        }
    ],
    "sg:owner":"simplegeo",
    "sg:phone":"+1   ",
    "sg:postcode":"06840",
    "sg:province":"NY",
    "src:geom":"simplegeo",
    "wof:belongsto":[
        85688629,
        85633793,
        85851779,
        102084283
    ],
    "wof:breaches":[],
    "wof:concordances":{
        "sg:id":"SG_5nBadpi5iWUy1KHiGd5Csr_41.148779_-73.495772@1294177022"
    },
    "wof:country":"US",
    "wof:geomhash":"847ab0e873d5224cad8af026db5f7729",
    "wof:hierarchy":[
        {
            "country_id":85633793,
            "county_id":102084283,
            "neighbourhood_id":85851779,
            "region_id":85688629,
            "venue_id":554939845
        }
    ],
    "wof:id":554939845,
    "wof:lastmodified":1461017600,
    "wof:name":"Congregational Church",
    "wof:parent_id":85851779,
    "wof:placetype":"venue",
    "wof:superseded_by":[],
    "wof:supersedes":[],
    "wof:tags":[]
},
  "bbox": [
    -73.495772,
    41.148779,
    -73.495772,
    41.148779
],
  "geometry": {"coordinates":[-73.495772,41.148779],"type":"Point"}
}