{
  "id": 554937747,
  "type": "Feature",
  "properties": {
    "edtf:cessation":"uuuu",
    "edtf:inception":"uuuu",
    "geom:area":0.0,
    "geom:bbox":"-73.498222,41.14584,-73.498222,41.14584",
    "geom:latitude":41.14584,
    "geom:longitude":-73.498222,
    "iso:country":"US",
    "sg:address":"198 Elm St",
    "sg:city":"New Canaan",
    "sg:classifiers":[
        {
            "category":"Railroad",
            "subcategory":"",
            "type":"Transportation"
        }
    ],
    "sg:owner":"simplegeo",
    "sg:phone":"+1 203 966 6430",
    "sg:postcode":"06840",
    "sg:province":"NY",
    "sg:tags":[
        "train"
    ],
    "src:geom":"simplegeo",
    "wof:belongsto":[
        85688629,
        85633793,
        85851779,
        102084283
    ],
    "wof:breaches":[],
    "wof:concordances":{
        "sg:id":"SG_2DGJoTyJtCVOHFQzD2WJuY_41.145840_-73.498222@1294177022"
    },
    "wof:country":"US",
    "wof:geomhash":"550016821f37891c80dab5bc85027bbc",
    "wof:hierarchy":[
        {
            "country_id":85633793,
            "county_id":102084283,
            "neighbourhood_id":85851779,
            "region_id":85688629,
            "venue_id":554937747
        }
    ],
    "wof:id":554937747,
    "wof:lastmodified":1461017414,
    "wof:name":"Station Services",
    "wof:parent_id":85851779,
    "wof:placetype":"venue",
    "wof:superseded_by":[],
    "wof:supersedes":[],
    "wof:tags":[
        "train"
    ]
},
  "bbox": [
    -73.498222,
    41.14584,
    -73.498222,
    41.14584
],
  "geometry": {"coordinates":[-73.498222,41.14584],"type":"Point"}
}