{
  "id": 554937307,
  "type": "Feature",
  "properties": {
    "edtf:cessation":"uuuu",
    "edtf:inception":"uuuu",
    "geom:area":0.0,
    "geom:bbox":"-73.494933,41.146748,-73.494933,41.146748",
    "geom:latitude":41.146748,
    "geom:longitude":-73.494933,
    "iso:country":"US",
    "sg:address":"81 Elm St",
    "sg:city":"New Canaan",
    "sg:classifiers":[
        {
            "category":"Home & Garden",
            "subcategory":"Carpets & Floor Coverings",
            "type":"Retail Goods"
        }
    ],
    "sg:owner":"simplegeo",
    "sg:phone":"+1 203 972 3478",
    "sg:postcode":"06840",
    "sg:province":"NY",
    "sg:tags":[
        "dealer",
        "rug"
    ],
    "src:geom":"simplegeo",
    "wof:belongsto":[
        85688629,
        85633793,
        85851779,
        102084283
    ],
    "wof:breaches":[],
    "wof:concordances":{
        "sg:id":"SG_77RASs8pa2x1n8RU7YAOQ2_41.146748_-73.494933@1294177022"
    },
    "wof:country":"US",
    "wof:geomhash":"afdc4c5f86c429af4bb0d72a2c010016",
    "wof:hierarchy":[
        {
            "country_id":85633793,
            "county_id":102084283,
            "neighbourhood_id":85851779,
            "region_id":85688629,
            "venue_id":554937307
        }
    ],
    "wof:id":554937307,
    "wof:lastmodified":1461017349,
    "wof:name":"Kaoud Brothers Oriental Rugs",
    "wof:parent_id":85851779,
    "wof:placetype":"venue",
    "wof:superseded_by":[],
    "wof:supersedes":[],
    "wof:tags":[
        "dealer",
        "rug"
    ]
},
  "bbox": [
    -73.494933,
    41.146748,
    -73.494933,
    41.146748
],
  "geometry": {"coordinates":[-73.494933,41.146748],"type":"Point"}
}