{
  "id": 571665107,
  "type": "Feature",
  "properties": {
    "edtf:cessation":"uuuu",
    "edtf:inception":"uuuu",
    "geom:area":0.0,
    "geom:bbox":"-73.995499,40.733398,-73.995499,40.733398",
    "geom:latitude":40.733398,
    "geom:longitude":-73.995499,
    "iso:country":"US",
    "sg:address":"30 5th Ave",
    "sg:city":"New York",
    "sg:classifiers":[
        {
            "category":"Real Estate",
            "subcategory":"Real Estate Operator",
            "type":"Services"
        }
    ],
    "sg:owner":"simplegeo",
    "sg:phone":"+1 212 477 3765",
    "sg:postcode":"10011",
    "sg:province":"NY",
    "sg:tags":[
        "building",
        "apartment"
    ],
    "src:geom":"simplegeo",
    "wof:belongsto":[
        420529189,
        102191575,
        85633793,
        85977539,
        421205771,
        102081863,
        85688543
    ],
    "wof:breaches":[],
    "wof:concordances":{
        "sg:id":"SG_7IYAgJBe2yn9ew5id9KVzT_40.733001_-73.995812@1293134755"
    },
    "wof:country":"US",
    "wof:geomhash":"15dca276aa916e2f59ffc413779a9445",
    "wof:hierarchy":[
        {
            "borough_id":421205771,
            "continent_id":102191575,
            "country_id":85633793,
            "county_id":102081863,
            "locality_id":85977539,
            "neighbourhood_id":420529189,
            "region_id":85688543,
            "venue_id":571665107
        }
    ],
    "wof:id":571665107,
    "wof:lastmodified":1461040841,
    "wof:name":"30 Fifth Av Owners Inc",
    "wof:parent_id":420529189,
    "wof:placetype":"venue",
    "wof:superseded_by":[],
    "wof:supersedes":[],
    "wof:tags":[
        "building",
        "apartment"
    ]
},
  "bbox": [
    -73.995499,
    40.733398,
    -73.995499,
    40.733398
],
  "geometry": {"coordinates":[-73.995499,40.733398],"type":"Point"}
}