{
  "id": 554939221,
  "type": "Feature",
  "properties": {
    "edtf:cessation":"uuuu",
    "edtf:inception":"uuuu",
    "geom:area":0.0,
    "geom:bbox":"-77.310009,41.986594,-77.310009,41.986594",
    "geom:latitude":41.986594,
    "geom:longitude":-77.310009,
    "iso:country":"US",
    "sg:address":"102 E Main St",
    "sg:city":"Elkland",
    "sg:classifiers":[
        {
            "category":"Organizations",
            "subcategory":"Community Association",
            "type":"Services"
        }
    ],
    "sg:owner":"simplegeo",
    "sg:phone":"+1 814 258 5143",
    "sg:postcode":"16920",
    "sg:province":"NY",
    "sg:tags":[
        "fraternal"
    ],
    "src:geom":"simplegeo",
    "wof:belongsto":[
        85688481,
        85633793,
        101717081,
        102080937,
        85807903
    ],
    "wof:breaches":[],
    "wof:concordances":{
        "sg:id":"SG_4Hop4Q3fzm2O3H1eftPuSI_41.986594_-77.310009@1294177022"
    },
    "wof:country":"US",
    "wof:geomhash":"a95d3f9d5e95e5d350483b8e9ec0b26e",
    "wof:hierarchy":[
        {
            "country_id":85633793,
            "county_id":102080937,
            "locality_id":101717081,
            "neighbourhood_id":85807903,
            "region_id":85688481,
            "venue_id":554939221
        }
    ],
    "wof:id":554939221,
    "wof:lastmodified":1461017535,
    "wof:name":"Loyal Order Of Moose",
    "wof:parent_id":85807903,
    "wof:placetype":"venue",
    "wof:superseded_by":[],
    "wof:supersedes":[],
    "wof:tags":[
        "fraternal"
    ]
},
  "bbox": [
    -77.310009,
    41.986594,
    -77.310009,
    41.986594
],
  "geometry": {"coordinates":[-77.31000899999999,41.986594],"type":"Point"}
}