{
  "id": 554935685,
  "type": "Feature",
  "properties": {
    "edtf:cessation":"uuuu",
    "edtf:inception":"uuuu",
    "geom:area":0.0,
    "geom:bbox":"-73.464791,41.161356,-73.464791,41.161356",
    "geom:latitude":41.161356,
    "geom:longitude":-73.464791,
    "iso:country":"US",
    "sg:address":"300 Valley Rd",
    "sg:city":"Greenwich",
    "sg:classifiers":[
        {
            "category":"Recreation",
            "subcategory":"",
            "type":"Entertainment"
        }
    ],
    "sg:owner":"simplegeo",
    "sg:phone":"+1 203 622 7827",
    "sg:postcode":"06840",
    "sg:province":"NY",
    "sg:tags":[
        "hall",
        "auditorium"
    ],
    "src:geom":"simplegeo",
    "wof:belongsto":[],
    "wof:breaches":[],
    "wof:concordances":{
        "sg:id":"SG_0ePLz4RaUZgmV8Rj20HH6M_41.161356_-73.464791@1294177022"
    },
    "wof:country":"US",
    "wof:geomhash":"3cc81a229fa2acae65ac23b0c85a3aae",
    "wof:hierarchy":[],
    "wof:id":554935685,
    "wof:lastmodified":1461017108,
    "wof:name":"North Mianus Community Ctr",
    "wof:parent_id":-1,
    "wof:placetype":"venue",
    "wof:superseded_by":[],
    "wof:supersedes":[],
    "wof:tags":[
        "hall",
        "auditorium"
    ]
},
  "bbox": [
    -73.464791,
    41.161356,
    -73.464791,
    41.161356
],
  "geometry": {"coordinates":[-73.46479100000001,41.161356],"type":"Point"}
}