{
  "id": 554934593,
  "type": "Feature",
  "properties": {
    "edtf:cessation":"uuuu",
    "edtf:inception":"uuuu",
    "geom:area":0.0,
    "geom:bbox":"-73.48576,41.140983,-73.48576,41.140983",
    "geom:latitude":41.140983,
    "geom:longitude":-73.48576,
    "iso:country":"US",
    "sg:address":"76 Harrison Ave",
    "sg:city":"New Canaan",
    "sg:classifiers":[
        {
            "category":"Shopping",
            "subcategory":"Clothing, Apparel, & Fashions",
            "type":"Retail Goods"
        }
    ],
    "sg:owner":"simplegeo",
    "sg:phone":"+1 203 966 1498",
    "sg:postcode":"06840",
    "sg:province":"NY",
    "sg:tags":[
        "accessory"
    ],
    "src:geom":"simplegeo",
    "wof:belongsto":[
        85688629,
        85633793,
        85851779,
        102084283
    ],
    "wof:breaches":[],
    "wof:concordances":{
        "sg:id":"SG_4PrTTW4zh4vTONIhOwGGed_41.140983_-73.485760@1294177022"
    },
    "wof:country":"US",
    "wof:geomhash":"2b675e2c460e44edd4c3bcc094f02aa4",
    "wof:hierarchy":[
        {
            "country_id":85633793,
            "county_id":102084283,
            "neighbourhood_id":85851779,
            "region_id":85688629,
            "venue_id":554934593
        }
    ],
    "wof:id":554934593,
    "wof:lastmodified":1461016961,
    "wof:name":"Katherine McCarthy",
    "wof:parent_id":85851779,
    "wof:placetype":"venue",
    "wof:superseded_by":[],
    "wof:supersedes":[],
    "wof:tags":[
        "accessory"
    ]
},
  "bbox": [
    -73.48576,
    41.140983,
    -73.48576,
    41.140983
],
  "geometry": {"coordinates":[-73.48576,41.140983],"type":"Point"}
}