{
  "id": 555623781,
  "type": "Feature",
  "properties": {
    "edtf:cessation":"uuuu",
    "edtf:inception":"uuuu",
    "geom:area":0.0,
    "geom:bbox":"-74.079415,41.111399,-74.079415,41.111399",
    "geom:latitude":41.111399,
    "geom:longitude":-74.079415,
    "iso:country":"US",
    "sg:address":"39 Albert Dr",
    "sg:city":"Monsey",
    "sg:classifiers":[
        {
            "category":"Organizations",
            "subcategory":"Religious Organization",
            "type":"Services"
        }
    ],
    "sg:owner":"simplegeo",
    "sg:phone":"+1 845 425 1566",
    "sg:postcode":"10952",
    "sg:province":"NY",
    "sg:tags":[
        "clergy"
    ],
    "src:geom":"simplegeo",
    "wof:belongsto":[
        85893019,
        102191575,
        404523097,
        85633793,
        85978531,
        102082385,
        85688543
    ],
    "wof:breaches":[],
    "wof:concordances":{
        "sg:id":"SG_5D2BXLEE2woLliK0dn9jap_41.111399_-74.079415@1294177022"
    },
    "wof:country":"US",
    "wof:geomhash":"2f5fc05254335a22d8ef699afddca743",
    "wof:hierarchy":[
        {
            "continent_id":102191575,
            "country_id":85633793,
            "county_id":102082385,
            "localadmin_id":404523097,
            "locality_id":85978531,
            "neighbourhood_id":85893019,
            "region_id":85688543,
            "venue_id":555623781
        }
    ],
    "wof:id":555623781,
    "wof:lastmodified":1461034081,
    "wof:name":"Eliezer Kriger",
    "wof:parent_id":85893019,
    "wof:placetype":"venue",
    "wof:superseded_by":[],
    "wof:supersedes":[],
    "wof:tags":[
        "clergy"
    ]
},
  "bbox": [
    -74.079415,
    41.111399,
    -74.079415,
    41.111399
],
  "geometry": {"coordinates":[-74.079415,41.111399],"type":"Point"}
}