{
  "id": 554934991,
  "type": "Feature",
  "properties": {
    "edtf:cessation":"uuuu",
    "edtf:inception":"uuuu",
    "geom:area":0.0,
    "geom:bbox":"-74.075195,41.075069,-74.075195,41.075069",
    "geom:latitude":41.075069,
    "geom:longitude":-74.075195,
    "iso:country":"US",
    "sg:address":"1 Jacqueline Rd",
    "sg:city":"Chestnut Ridge",
    "sg:classifiers":[
        {
            "category":"Professional",
            "subcategory":"Computer Services",
            "type":"Services"
        }
    ],
    "sg:owner":"simplegeo",
    "sg:phone":"+1 845 356 4732",
    "sg:postcode":"10952",
    "sg:province":"NY",
    "sg:tags":[
        "consultant",
        "designer",
        "datum",
        "system"
    ],
    "sg:website":"www.pinebrook.com",
    "src:geom":"simplegeo",
    "wof:belongsto":[
        85853261,
        102191575,
        404523097,
        85633793,
        85978555,
        102082385,
        85688543
    ],
    "wof:breaches":[],
    "wof:concordances":{
        "sg:id":"SG_6W7vpHwlcOKGjOZTMKjodH_41.075069_-74.075195@1294177022"
    },
    "wof:country":"US",
    "wof:geomhash":"cb7b9a799ff54f4a18d687a1a379fa7f",
    "wof:hierarchy":[
        {
            "continent_id":102191575,
            "country_id":85633793,
            "county_id":102082385,
            "localadmin_id":404523097,
            "locality_id":85978555,
            "neighbourhood_id":85853261,
            "region_id":85688543,
            "venue_id":554934991
        }
    ],
    "wof:id":554934991,
    "wof:lastmodified":1461017008,
    "wof:name":"Pinebrook Consulting Inc",
    "wof:parent_id":85853261,
    "wof:placetype":"venue",
    "wof:superseded_by":[],
    "wof:supersedes":[],
    "wof:tags":[
        "consultant",
        "designer",
        "datum",
        "system"
    ]
},
  "bbox": [
    -74.075195,
    41.075069,
    -74.075195,
    41.075069
],
  "geometry": {"coordinates":[-74.07519499999999,41.075069],"type":"Point"}
}