{
  "id": 572170807,
  "type": "Feature",
  "properties": {
    "edtf:cessation":"uuuu",
    "edtf:inception":"uuuu",
    "geom:area":0.0,
    "geom:bbox":"-74.285488,40.647049,-74.285488,40.647049",
    "geom:latitude":40.647049,
    "geom:longitude":-74.285488,
    "iso:country":"US",
    "sg:address":"5620 1st Ave",
    "sg:city":"Brooklyn",
    "sg:classifiers":[
        {
            "category":"Shopping",
            "subcategory":"Crafts & Fabrics",
            "type":"Retail Goods"
        }
    ],
    "sg:owner":"simplegeo",
    "sg:phone":"+1 718 833 5800",
    "sg:postcode":"11220",
    "sg:province":"NY",
    "sg:tags":[
        "store"
    ],
    "src:geom":"simplegeo",
    "wof:belongsto":[
        85688607,
        85633793,
        85850963,
        102085995
    ],
    "wof:breaches":[],
    "wof:concordances":{
        "sg:id":"SG_1D2r85uwRaGgwuY236fvGg_40.647049_-74.285488@1303262344"
    },
    "wof:country":"US",
    "wof:geomhash":"e40af75b876cbd87f88de89a79b789a2",
    "wof:hierarchy":[
        {
            "country_id":85633793,
            "county_id":102085995,
            "neighbourhood_id":85850963,
            "region_id":85688607,
            "venue_id":572170807
        }
    ],
    "wof:id":572170807,
    "wof:lastmodified":1461051433,
    "wof:name":"Tylatex Fabrics",
    "wof:parent_id":85850963,
    "wof:placetype":"venue",
    "wof:superseded_by":[],
    "wof:supersedes":[],
    "wof:tags":[
        "store"
    ]
},
  "bbox": [
    -74.285488,
    40.647049,
    -74.285488,
    40.647049
],
  "geometry": {"coordinates":[-74.285488,40.647049],"type":"Point"}
}