{
  "id": 554941289,
  "type": "Feature",
  "properties": {
    "edtf:cessation":"uuuu",
    "edtf:inception":"uuuu",
    "geom:area":0.0,
    "geom:bbox":"-79.738517,42.255024,-79.738517,42.255024",
    "geom:latitude":42.255024,
    "geom:longitude":-79.738517,
    "iso:country":"US",
    "sg:address":"10356 W Main Rd",
    "sg:city":"Ripley",
    "sg:classifiers":[
        {
            "category":"Farming",
            "subcategory":"Farm",
            "type":"Manufacturing & Wholesale Goods"
        }
    ],
    "sg:owner":"simplegeo",
    "sg:phone":"+1 716 736 6049",
    "sg:postcode":"14775",
    "sg:province":"NY",
    "src:geom":"simplegeo",
    "wof:belongsto":[
        85688481,
        85633793,
        85850957,
        102080955
    ],
    "wof:breaches":[],
    "wof:concordances":{
        "sg:id":"SG_47PHZmGDlQRIefOIWKOQWg_42.255024_-79.738517@1294177022"
    },
    "wof:country":"US",
    "wof:geomhash":"71e56ed581e1e2d6c5a339b53cd405a7",
    "wof:hierarchy":[
        {
            "country_id":85633793,
            "county_id":102080955,
            "neighbourhood_id":85850957,
            "region_id":85688481,
            "venue_id":554941289
        }
    ],
    "wof:id":554941289,
    "wof:lastmodified":1461017726,
    "wof:name":"Cochrane Farms Inc",
    "wof:parent_id":85850957,
    "wof:placetype":"venue",
    "wof:superseded_by":[],
    "wof:supersedes":[],
    "wof:tags":[]
},
  "bbox": [
    -79.738517,
    42.255024,
    -79.738517,
    42.255024
],
  "geometry": {"coordinates":[-79.738517,42.255024],"type":"Point"}
}