{
  "id": 554937551,
  "type": "Feature",
  "properties": {
    "edtf:cessation":"uuuu",
    "edtf:inception":"uuuu",
    "geom:area":0.0,
    "geom:bbox":"-73.492995,41.146867,-73.492995,41.146867",
    "geom:latitude":41.146867,
    "geom:longitude":-73.492995,
    "iso:country":"US",
    "sg:address":"18 Elm St",
    "sg:city":"New Canaan",
    "sg:classifiers":[
        {
            "category":"Personal",
            "subcategory":"",
            "type":"Services"
        }
    ],
    "sg:owner":"simplegeo",
    "sg:phone":"+1 203 966 8662",
    "sg:postcode":"06840",
    "sg:province":"NY",
    "sg:tags":[
        "program",
        "physical",
        "exercise",
        "fitness"
    ],
    "src:geom":"simplegeo",
    "wof:belongsto":[
        85688629,
        85633793,
        85851779,
        102084283
    ],
    "wof:breaches":[],
    "wof:concordances":{
        "sg:id":"SG_4laSFosHgs7f5lyoi9raOn_41.146867_-73.492995@1294177022"
    },
    "wof:country":"US",
    "wof:geomhash":"dd8121cab27c5c463ada979b7358d865",
    "wof:hierarchy":[
        {
            "country_id":85633793,
            "county_id":102084283,
            "neighbourhood_id":85851779,
            "region_id":85688629,
            "venue_id":554937551
        }
    ],
    "wof:id":554937551,
    "wof:lastmodified":1461017387,
    "wof:name":"Go Figure",
    "wof:parent_id":85851779,
    "wof:placetype":"venue",
    "wof:superseded_by":[],
    "wof:supersedes":[],
    "wof:tags":[
        "program",
        "physical",
        "exercise",
        "fitness"
    ]
},
  "bbox": [
    -73.492995,
    41.146867,
    -73.492995,
    41.146867
],
  "geometry": {"coordinates":[-73.49299499999999,41.146867],"type":"Point"}
}