{
  "id": 572170867,
  "type": "Feature",
  "properties": {
    "edtf:cessation":"uuuu",
    "edtf:inception":"uuuu",
    "geom:area":0.0,
    "geom:bbox":"-74.33034,40.637834,-74.33034,40.637834",
    "geom:latitude":40.637834,
    "geom:longitude":-74.33034,
    "iso:country":"US",
    "sg:address":"5604 8th Ave",
    "sg:city":"Brooklyn",
    "sg:classifiers":[
        {
            "category":"Restaurant",
            "subcategory":"",
            "type":"Food & Drink"
        }
    ],
    "sg:owner":"simplegeo",
    "sg:phone":"+1 718 492 1592",
    "sg:postcode":"11220",
    "sg:province":"NY",
    "sg:tags":[
        "vietnamese"
    ],
    "src:geom":"simplegeo",
    "wof:belongsto":[
        85892559,
        102191575,
        404478409,
        85633793,
        85975827,
        102085995,
        85688607
    ],
    "wof:breaches":[],
    "wof:concordances":{
        "sg:id":"SG_0WdmxeQCrShQxiCmSiQncK_40.637834_-74.330340@1303262344"
    },
    "wof:country":"US",
    "wof:geomhash":"ce211159e0b830d539364d0f415c4867",
    "wof:hierarchy":[
        {
            "continent_id":102191575,
            "country_id":85633793,
            "county_id":102085995,
            "localadmin_id":404478409,
            "locality_id":85975827,
            "neighbourhood_id":85892559,
            "region_id":85688607,
            "venue_id":572170867
        }
    ],
    "wof:id":572170867,
    "wof:lastmodified":1461051435,
    "wof:name":"Bik-Bay Vietnamese Restrnt",
    "wof:parent_id":85892559,
    "wof:placetype":"venue",
    "wof:superseded_by":[],
    "wof:supersedes":[],
    "wof:tags":[
        "vietnamese"
    ]
},
  "bbox": [
    -74.33034,
    40.637834,
    -74.33034,
    40.637834
],
  "geometry": {"coordinates":[-74.33034000000001,40.637834],"type":"Point"}
}