{
  "id": 554936507,
  "type": "Feature",
  "properties": {
    "edtf:cessation":"uuuu",
    "edtf:inception":"uuuu",
    "geom:area":0.0,
    "geom:bbox":"-73.6231,41.119731,-73.6231,41.119731",
    "geom:latitude":41.119731,
    "geom:longitude":-73.6231,
    "iso:country":"US",
    "sg:address":"22 N Stanwich Rd",
    "sg:city":"Greenwich",
    "sg:classifiers":[
        {
            "category":"Professional",
            "subcategory":"Business Services",
            "type":"Services"
        }
    ],
    "sg:owner":"simplegeo",
    "sg:phone":"+1   ",
    "sg:postcode":"06831",
    "sg:province":"NY",
    "src:geom":"simplegeo",
    "wof:belongsto":[
        85688629,
        85633793,
        85850923,
        102084283
    ],
    "wof:breaches":[],
    "wof:concordances":{
        "sg:id":"SG_6S05PUcwVppZxWRtg20fnY_41.119731_-73.623100@1294177022"
    },
    "wof:country":"US",
    "wof:geomhash":"3a56d0b83e5fdabb4fab9a9acc6af7ff",
    "wof:hierarchy":[
        {
            "country_id":85633793,
            "county_id":102084283,
            "neighbourhood_id":85850923,
            "region_id":85688629,
            "venue_id":554936507
        }
    ],
    "wof:id":554936507,
    "wof:lastmodified":1461017233,
    "wof:name":"JM Enterprises",
    "wof:parent_id":85850923,
    "wof:placetype":"venue",
    "wof:superseded_by":[],
    "wof:supersedes":[],
    "wof:tags":[]
},
  "bbox": [
    -73.6231,
    41.119731,
    -73.6231,
    41.119731
],
  "geometry": {"coordinates":[-73.62309999999999,41.119731],"type":"Point"}
}