{
  "id": 554937019,
  "type": "Feature",
  "properties": {
    "edtf:cessation":"uuuu",
    "edtf:inception":"uuuu",
    "geom:area":0.0,
    "geom:bbox":"-73.650111,41.01743,-73.650111,41.01743",
    "geom:latitude":41.01743,
    "geom:longitude":-73.650111,
    "iso:country":"US",
    "sg:address":"1 E Weaver St",
    "sg:city":"Greenwich",
    "sg:classifiers":[
        {
            "category":"Manufacturing",
            "subcategory":"Retail Goods",
            "type":"Manufacturing & Wholesale Goods"
        }
    ],
    "sg:owner":"simplegeo",
    "sg:phone":"+1 203 661 1926",
    "sg:postcode":"06831",
    "sg:province":"NY",
    "sg:tags":[
        "candle"
    ],
    "sg:website":"www.blyth.com",
    "src:geom":"simplegeo",
    "wof:belongsto":[
        85885307,
        102191575,
        404495949,
        85633793,
        85930941,
        102084283,
        85688629,
        420555461,
        85930937
    ],
    "wof:breaches":[],
    "wof:concordances":{
        "sg:id":"SG_3IRIo0pSpGtQYx0cgxbMfl_41.017430_-73.650111@1294177022"
    },
    "wof:country":"US",
    "wof:geomhash":"d283b50d1eb9bf63fb29d439f95d1647",
    "wof:hierarchy":[
        {
            "continent_id":102191575,
            "country_id":85633793,
            "county_id":102084283,
            "localadmin_id":404495949,
            "locality_id":85930941,
            "neighbourhood_id":85885307,
            "region_id":85688629,
            "venue_id":554937019
        },
        {
            "continent_id":102191575,
            "country_id":85633793,
            "county_id":102084283,
            "localadmin_id":404495949,
            "locality_id":85930937,
            "neighbourhood_id":420555461,
            "region_id":85688629,
            "venue_id":554937019
        }
    ],
    "wof:id":554937019,
    "wof:lastmodified":1461017307,
    "wof:name":"Blyth Inc",
    "wof:parent_id":-1,
    "wof:placetype":"venue",
    "wof:superseded_by":[],
    "wof:supersedes":[],
    "wof:tags":[
        "candle"
    ]
},
  "bbox": [
    -73.650111,
    41.01743,
    -73.650111,
    41.01743
],
  "geometry": {"coordinates":[-73.650111,41.01743],"type":"Point"}
}