{
  "id": 554934909,
  "type": "Feature",
  "properties": {
    "edtf:cessation":"uuuu",
    "edtf:inception":"uuuu",
    "geom:area":0.0,
    "geom:bbox":"-73.497813,41.157279,-73.497813,41.157279",
    "geom:latitude":41.157279,
    "geom:longitude":-73.497813,
    "iso:country":"US",
    "sg:address":"21 Rural Dr",
    "sg:city":"New Canaan",
    "sg:classifiers":[
        {
            "category":"Building & Trades",
            "subcategory":"Landscaping Services",
            "type":"Services"
        }
    ],
    "sg:owner":"simplegeo",
    "sg:phone":"+1 203 972 6368",
    "sg:postcode":"06840",
    "sg:province":"NY",
    "src:geom":"simplegeo",
    "wof:belongsto":[],
    "wof:breaches":[],
    "wof:concordances":{
        "sg:id":"SG_1Juwvysji0bDOheNhZdMKW_41.157279_-73.497813@1294177022"
    },
    "wof:country":"US",
    "wof:geomhash":"81cd38b120398706db6f4b13770eb6d3",
    "wof:hierarchy":[],
    "wof:id":554934909,
    "wof:lastmodified":1461016998,
    "wof:name":"Greenwich Grdng Lawn Maint",
    "wof:parent_id":-1,
    "wof:placetype":"venue",
    "wof:superseded_by":[],
    "wof:supersedes":[],
    "wof:tags":[]
},
  "bbox": [
    -73.497813,
    41.157279,
    -73.497813,
    41.157279
],
  "geometry": {"coordinates":[-73.49781299999999,41.157279],"type":"Point"}
}