{
  "id": 572170759,
  "type": "Feature",
  "properties": {
    "edtf:cessation":"uuuu",
    "edtf:inception":"uuuu",
    "geom:area":0.0,
    "geom:bbox":"-74.213381,40.643312,-74.213381,40.643312",
    "geom:latitude":40.643312,
    "geom:longitude":-74.213381,
    "iso:country":"US",
    "sg:address":"500 53rd St",
    "sg:city":"Brooklyn",
    "sg:classifiers":[
        {
            "category":"Personal",
            "subcategory":"Barber",
            "type":"Services"
        }
    ],
    "sg:owner":"simplegeo",
    "sg:phone":"+1 718 439 8012",
    "sg:postcode":"11220",
    "sg:province":"NY",
    "src:geom":"simplegeo",
    "wof:belongsto":[
        85868017,
        102191575,
        404478497,
        85633793,
        85975847,
        102085995,
        85688607
    ],
    "wof:breaches":[],
    "wof:concordances":{
        "sg:id":"SG_7LviTxytWb8ZniKtTXlvdL_40.643312_-74.213381@1303262344"
    },
    "wof:country":"US",
    "wof:geomhash":"25f9615788a62d96e31d35cf42d9ba40",
    "wof:hierarchy":[
        {
            "continent_id":102191575,
            "country_id":85633793,
            "county_id":102085995,
            "localadmin_id":404478497,
            "locality_id":85975847,
            "neighbourhood_id":85868017,
            "region_id":85688607,
            "venue_id":572170759
        }
    ],
    "wof:id":572170759,
    "wof:lastmodified":1461051432,
    "wof:name":"R & V Barbershop",
    "wof:parent_id":85868017,
    "wof:placetype":"venue",
    "wof:superseded_by":[],
    "wof:supersedes":[],
    "wof:tags":[]
},
  "bbox": [
    -74.213381,
    40.643312,
    -74.213381,
    40.643312
],
  "geometry": {"coordinates":[-74.213381,40.643312],"type":"Point"}
}