{
  "id": 554941599,
  "type": "Feature",
  "properties": {
    "edtf:cessation":"uuuu",
    "edtf:inception":"uuuu",
    "geom:area":0.0,
    "geom:bbox":"-73.4954,41.146202,-73.4954,41.146202",
    "geom:latitude":41.146202,
    "geom:longitude":-73.4954,
    "iso:country":"US",
    "sg:address":"95 Park St",
    "sg:city":"New Canaan",
    "sg:classifiers":[
        {
            "category":"Banks & Credit Unions",
            "subcategory":"Bank",
            "type":"Services"
        }
    ],
    "sg:owner":"simplegeo",
    "sg:phone":"+1 203 462 4200",
    "sg:postcode":"06840",
    "sg:province":"NY",
    "src:geom":"simplegeo",
    "wof:belongsto":[
        85688629,
        85633793,
        85851779,
        102084283
    ],
    "wof:breaches":[],
    "wof:concordances":{
        "sg:id":"SG_2ZJt6GgcNj6UJ5gaGsDNi6_41.146202_-73.495400@1294177022"
    },
    "wof:country":"US",
    "wof:geomhash":"aabf2a0da0fc431e13a393d1b89e1f00",
    "wof:hierarchy":[
        {
            "country_id":85633793,
            "county_id":102084283,
            "neighbourhood_id":85851779,
            "region_id":85688629,
            "venue_id":554941599
        }
    ],
    "wof:id":554941599,
    "wof:lastmodified":1461017775,
    "wof:name":"First County Bank",
    "wof:parent_id":85851779,
    "wof:placetype":"venue",
    "wof:superseded_by":[],
    "wof:supersedes":[],
    "wof:tags":[]
},
  "bbox": [
    -73.4954,
    41.146202,
    -73.4954,
    41.146202
],
  "geometry": {"coordinates":[-73.4954,41.146202],"type":"Point"}
}