{
  "id": 554934889,
  "type": "Feature",
  "properties": {
    "edtf:cessation":"uuuu",
    "edtf:inception":"uuuu",
    "geom:area":0.0,
    "geom:bbox":"-79.761195,42.267608,-79.761195,42.267608",
    "geom:latitude":42.267608,
    "geom:longitude":-79.761195,
    "iso:country":"US",
    "sg:address":"10775 W Lake Rd",
    "sg:city":"Ripley",
    "sg:classifiers":[
        {
            "category":"Sports & Exercise",
            "subcategory":"Golf",
            "type":"Entertainment"
        }
    ],
    "sg:owner":"simplegeo",
    "sg:phone":"+1 716 736 7637",
    "sg:postcode":"14775",
    "sg:province":"NY",
    "sg:tags":[
        "course"
    ],
    "src:geom":"simplegeo",
    "wof:belongsto":[
        85688481,
        85633793,
        85850957,
        102080955
    ],
    "wof:breaches":[],
    "wof:concordances":{
        "sg:id":"SG_4IfckaR6lutlD2eaxCliaB_42.267608_-79.761195@1294177022"
    },
    "wof:country":"US",
    "wof:geomhash":"9d05d29a27baadbff654d0593455a99e",
    "wof:hierarchy":[
        {
            "country_id":85633793,
            "county_id":102080955,
            "neighbourhood_id":85850957,
            "region_id":85688481,
            "venue_id":554934889
        }
    ],
    "wof:id":554934889,
    "wof:lastmodified":1461016995,
    "wof:name":"Lakeside Vineyards",
    "wof:parent_id":85850957,
    "wof:placetype":"venue",
    "wof:superseded_by":[],
    "wof:supersedes":[],
    "wof:tags":[
        "course"
    ]
},
  "bbox": [
    -79.761195,
    42.267608,
    -79.761195,
    42.267608
],
  "geometry": {"coordinates":[-79.761195,42.267608],"type":"Point"}
}