{
  "id": 554940529,
  "type": "Feature",
  "properties": {
    "edtf:cessation":"uuuu",
    "edtf:inception":"uuuu",
    "geom:area":0.0,
    "geom:bbox":"-73.49229,41.147436,-73.49229,41.147436",
    "geom:latitude":41.147436,
    "geom:longitude":-73.49229,
    "iso:country":"US",
    "sg:address":"112 Main St",
    "sg:city":"New Canaan",
    "sg:classifiers":[
        {
            "category":"Real Estate",
            "subcategory":"Architect",
            "type":"Services"
        }
    ],
    "sg:owner":"simplegeo",
    "sg:phone":"+1 203 966 2190",
    "sg:postcode":"06840",
    "sg:province":"NY",
    "src:geom":"simplegeo",
    "wof:belongsto":[
        85688629,
        85633793,
        85851779,
        102084283
    ],
    "wof:breaches":[],
    "wof:concordances":{
        "sg:id":"SG_76qj09yvodyLhsEglR2HTi_41.147436_-73.492290@1294177022"
    },
    "wof:country":"US",
    "wof:geomhash":"65a55d64acb007f32b4ec0b19d8debbf",
    "wof:hierarchy":[
        {
            "country_id":85633793,
            "county_id":102084283,
            "neighbourhood_id":85851779,
            "region_id":85688629,
            "venue_id":554940529
        }
    ],
    "wof:id":554940529,
    "wof:lastmodified":1461017660,
    "wof:name":"Grayson Group",
    "wof:parent_id":85851779,
    "wof:placetype":"venue",
    "wof:superseded_by":[],
    "wof:supersedes":[],
    "wof:tags":[]
},
  "bbox": [
    -73.49229,
    41.147436,
    -73.49229,
    41.147436
],
  "geometry": {"coordinates":[-73.49229,41.147436],"type":"Point"}
}