{
  "id": 554935885,
  "type": "Feature",
  "properties": {
    "edtf:cessation":"uuuu",
    "edtf:inception":"uuuu",
    "geom:area":0.0,
    "geom:bbox":"-73.483656,41.136663,-73.483656,41.136663",
    "geom:latitude":41.136663,
    "geom:longitude":-73.483656,
    "iso:country":"US",
    "sg:address":"140 Elm Pl",
    "sg:city":"New Canaan",
    "sg:classifiers":[
        {
            "category":"Professional",
            "subcategory":"Lawyer & Legal Services",
            "type":"Services"
        }
    ],
    "sg:owner":"simplegeo",
    "sg:phone":"+1 203 966 9547",
    "sg:postcode":"06840",
    "sg:province":"NY",
    "sg:tags":[
        "attorney"
    ],
    "src:geom":"simplegeo",
    "wof:belongsto":[
        85688629,
        85633793,
        85851779,
        102084283
    ],
    "wof:breaches":[],
    "wof:concordances":{
        "sg:id":"SG_65pms2UXaG2wa3SVzo5TK0_41.136663_-73.483656@1294177022"
    },
    "wof:country":"US",
    "wof:geomhash":"ebf74c21c413a14a0f329e429367d7a6",
    "wof:hierarchy":[
        {
            "country_id":85633793,
            "county_id":102084283,
            "neighbourhood_id":85851779,
            "region_id":85688629,
            "venue_id":554935885
        }
    ],
    "wof:id":554935885,
    "wof:lastmodified":1461017132,
    "wof:name":"Silverberg Law Offices",
    "wof:parent_id":85851779,
    "wof:placetype":"venue",
    "wof:superseded_by":[],
    "wof:supersedes":[],
    "wof:tags":[
        "attorney"
    ]
},
  "bbox": [
    -73.483656,
    41.136663,
    -73.483656,
    41.136663
],
  "geometry": {"coordinates":[-73.483656,41.136663],"type":"Point"}
}