{
  "id": 554935399,
  "type": "Feature",
  "properties": {
    "edtf:cessation":"uuuu",
    "edtf:inception":"uuuu",
    "geom:area":0.0,
    "geom:bbox":"-73.495662,41.133857,-73.495662,41.133857",
    "geom:latitude":41.133857,
    "geom:longitude":-73.495662,
    "iso:country":"US",
    "sg:address":"165 Orchard Dr",
    "sg:city":"New Canaan",
    "sg:classifiers":[
        {
            "category":"Building & Trades",
            "subcategory":"Electrical",
            "type":"Services"
        }
    ],
    "sg:owner":"simplegeo",
    "sg:phone":"+1 203 324 7935",
    "sg:postcode":"06840",
    "sg:province":"NY",
    "sg:tags":[
        "electric",
        "contractor"
    ],
    "src:geom":"simplegeo",
    "wof:belongsto":[
        85688629,
        85633793,
        85851779,
        102084283
    ],
    "wof:breaches":[],
    "wof:concordances":{
        "sg:id":"SG_7L495i6jZjnJBzVdNbplFH_41.133857_-73.495662@1294177022"
    },
    "wof:country":"US",
    "wof:geomhash":"629b17acc7d80c94d68fb3be4fa2a074",
    "wof:hierarchy":[
        {
            "country_id":85633793,
            "county_id":102084283,
            "neighbourhood_id":85851779,
            "region_id":85688629,
            "venue_id":554935399
        }
    ],
    "wof:id":554935399,
    "wof:lastmodified":1461017065,
    "wof:name":"Edward A Coutermash Electrical",
    "wof:parent_id":85851779,
    "wof:placetype":"venue",
    "wof:superseded_by":[],
    "wof:supersedes":[],
    "wof:tags":[
        "electric",
        "contractor"
    ]
},
  "bbox": [
    -73.495662,
    41.133857,
    -73.495662,
    41.133857
],
  "geometry": {"coordinates":[-73.495662,41.133857],"type":"Point"}
}