{
  "id": 554937349,
  "type": "Feature",
  "properties": {
    "edtf:cessation":"uuuu",
    "edtf:inception":"uuuu",
    "geom:area":0.0,
    "geom:bbox":"-73.511611,44.077419,-73.511611,44.077419",
    "geom:latitude":44.077419,
    "geom:longitude":-73.511611,
    "iso:country":"US",
    "sg:address":"106 Plank Rd",
    "sg:city":"Mineville",
    "sg:classifiers":[
        {
            "category":"Building & Trades",
            "subcategory":"Construction",
            "type":"Services"
        }
    ],
    "sg:owner":"simplegeo",
    "sg:phone":"+1 518 942 7545",
    "sg:postcode":"12956",
    "sg:province":"NY",
    "sg:tags":[
        "siding",
        "contractor"
    ],
    "src:geom":"simplegeo",
    "wof:belongsto":[
        85688763,
        85633793,
        85857981,
        102080765
    ],
    "wof:breaches":[],
    "wof:concordances":{
        "sg:id":"SG_2BehxKBGw1o1JaSWfoSBmz_44.077419_-73.511611@1294177022"
    },
    "wof:country":"US",
    "wof:geomhash":"53bc43391378b40c06d8ad33c01942dd",
    "wof:hierarchy":[
        {
            "country_id":85633793,
            "county_id":102080765,
            "neighbourhood_id":85857981,
            "region_id":85688763,
            "venue_id":554937349
        }
    ],
    "wof:id":554937349,
    "wof:lastmodified":1461017355,
    "wof:name":"Residential Specialist",
    "wof:parent_id":85857981,
    "wof:placetype":"venue",
    "wof:superseded_by":[],
    "wof:supersedes":[],
    "wof:tags":[
        "siding",
        "contractor"
    ]
},
  "bbox": [
    -73.511611,
    44.077419,
    -73.511611,
    44.077419
],
  "geometry": {"coordinates":[-73.511611,44.077419],"type":"Point"}
}