{
  "id": 554940929,
  "type": "Feature",
  "properties": {
    "edtf:cessation":"uuuu",
    "edtf:inception":"uuuu",
    "geom:area":0.0,
    "geom:bbox":"-73.49552,41.146947,-73.49552,41.146947",
    "geom:latitude":41.146947,
    "geom:longitude":-73.49552,
    "iso:country":"US",
    "sg:address":"63 Park St",
    "sg:city":"New Canaan",
    "sg:classifiers":[
        {
            "category":"Real Estate",
            "subcategory":"Architect",
            "type":"Services"
        }
    ],
    "sg:owner":"simplegeo",
    "sg:phone":"+1   ",
    "sg:postcode":"06840",
    "sg:province":"NY",
    "sg:tags":[
        "architectural"
    ],
    "src:geom":"simplegeo",
    "wof:belongsto":[
        85688629,
        85633793,
        85851779,
        102084283
    ],
    "wof:breaches":[],
    "wof:concordances":{
        "sg:id":"SG_3nS5BgeCeZdh5CVSQ8txzi_41.146947_-73.495520@1294177022"
    },
    "wof:country":"US",
    "wof:geomhash":"b46f1dd9b52ad1c0948f719cb617d235",
    "wof:hierarchy":[
        {
            "country_id":85633793,
            "county_id":102084283,
            "neighbourhood_id":85851779,
            "region_id":85688629,
            "venue_id":554940929
        }
    ],
    "wof:id":554940929,
    "wof:lastmodified":1461017690,
    "wof:name":"Richard Bergmann Architects",
    "wof:parent_id":85851779,
    "wof:placetype":"venue",
    "wof:superseded_by":[],
    "wof:supersedes":[],
    "wof:tags":[
        "architectural"
    ]
},
  "bbox": [
    -73.49552,
    41.146947,
    -73.49552,
    41.146947
],
  "geometry": {"coordinates":[-73.49552,41.146947],"type":"Point"}
}