{
  "id": 572170187,
  "type": "Feature",
  "properties": {
    "edtf:cessation":"uuuu",
    "edtf:inception":"uuuu",
    "geom:area":0.0,
    "geom:bbox":"-74.289301,40.633581,-74.289301,40.633581",
    "geom:latitude":40.633581,
    "geom:longitude":-74.289301,
    "iso:country":"US",
    "sg:address":"97 74th St",
    "sg:city":"Brooklyn",
    "sg:classifiers":[
        {
            "category":"Health Services",
            "subcategory":"Doctor",
            "type":"Services"
        }
    ],
    "sg:owner":"simplegeo",
    "sg:phone":"+1 718 238 6204",
    "sg:postcode":"11209",
    "sg:province":"NY",
    "sg:website":"www.alkasimipediatrics.com",
    "src:geom":"simplegeo",
    "wof:belongsto":[
        85802619,
        102191575,
        404477587,
        85633793,
        85975833,
        102085995,
        85688607
    ],
    "wof:breaches":[],
    "wof:concordances":{
        "sg:id":"SG_6yBbaaRyMKI30dWysLReui_40.633581_-74.289301@1303262338"
    },
    "wof:country":"US",
    "wof:geomhash":"ad5712cdfaced362489b153ce529259e",
    "wof:hierarchy":[
        {
            "continent_id":102191575,
            "country_id":85633793,
            "county_id":102085995,
            "localadmin_id":404477587,
            "locality_id":85975833,
            "neighbourhood_id":85802619,
            "region_id":85688607,
            "venue_id":572170187
        }
    ],
    "wof:id":572170187,
    "wof:lastmodified":1461051413,
    "wof:name":"Alkasimi Pediatrics",
    "wof:parent_id":85802619,
    "wof:placetype":"venue",
    "wof:superseded_by":[],
    "wof:supersedes":[],
    "wof:tags":[]
},
  "bbox": [
    -74.289301,
    40.633581,
    -74.289301,
    40.633581
],
  "geometry": {"coordinates":[-74.28930099999999,40.633581],"type":"Point"}
}