{
  "id": 554934899,
  "type": "Feature",
  "properties": {
    "edtf:cessation":"uuuu",
    "edtf:inception":"uuuu",
    "geom:area":0.0,
    "geom:bbox":"-73.459673,44.047851,-73.459673,44.047851",
    "geom:latitude":44.047851,
    "geom:longitude":-73.459673,
    "iso:country":"US",
    "sg:address":"16 Main St",
    "sg:city":"Port Henry",
    "sg:classifiers":[
        {
            "category":"Real Estate",
            "subcategory":"Real Estate Operator",
            "type":"Services"
        }
    ],
    "sg:owner":"simplegeo",
    "sg:phone":"+1 518 546 7605",
    "sg:postcode":"12974",
    "sg:province":"NY",
    "sg:tags":[
        "apartment"
    ],
    "src:geom":"simplegeo",
    "wof:belongsto":[
        85688763,
        85633793,
        85857981,
        102080765
    ],
    "wof:breaches":[],
    "wof:concordances":{
        "sg:id":"SG_24kAdllYROlJDYmusQRorD_44.047851_-73.459673@1294177022"
    },
    "wof:country":"US",
    "wof:geomhash":"901e78cfb2345b559a91022e3a82d512",
    "wof:hierarchy":[
        {
            "country_id":85633793,
            "county_id":102080765,
            "neighbourhood_id":85857981,
            "region_id":85688763,
            "venue_id":554934899
        }
    ],
    "wof:id":554934899,
    "wof:lastmodified":1461016997,
    "wof:name":"Lee House Apts",
    "wof:parent_id":85857981,
    "wof:placetype":"venue",
    "wof:superseded_by":[],
    "wof:supersedes":[],
    "wof:tags":[
        "apartment"
    ]
},
  "bbox": [
    -73.459673,
    44.047851,
    -73.459673,
    44.047851
],
  "geometry": {"coordinates":[-73.459673,44.047851],"type":"Point"}
}