{
  "id": 554936611,
  "type": "Feature",
  "properties": {
    "edtf:cessation":"uuuu",
    "edtf:inception":"uuuu",
    "geom:area":0.0,
    "geom:bbox":"-74.148914,41.109248,-74.148914,41.109248",
    "geom:latitude":41.109248,
    "geom:longitude":-74.148914,
    "iso:country":"US",
    "sg:address":"34 Prairie Ave",
    "sg:city":"Suffern",
    "sg:classifiers":[
        {
            "category":"Building & Trades",
            "subcategory":"Plumbing",
            "type":"Services"
        }
    ],
    "sg:owner":"simplegeo",
    "sg:phone":"+1 845 357 1125",
    "sg:postcode":"10901",
    "sg:province":"NY",
    "sg:tags":[
        "contractor"
    ],
    "src:geom":"simplegeo",
    "wof:belongsto":[
        85855885,
        102191575,
        404523097,
        85633793,
        85978523,
        102082385,
        85688543
    ],
    "wof:breaches":[],
    "wof:concordances":{
        "sg:id":"SG_15juBMdcYHrFjiADGvwady_41.109248_-74.148914@1294177022"
    },
    "wof:country":"US",
    "wof:geomhash":"f5ef906ef2aa1e667d003ce4191758db",
    "wof:hierarchy":[
        {
            "continent_id":102191575,
            "country_id":85633793,
            "county_id":102082385,
            "localadmin_id":404523097,
            "locality_id":85978523,
            "neighbourhood_id":85855885,
            "region_id":85688543,
            "venue_id":554936611
        }
    ],
    "wof:id":554936611,
    "wof:lastmodified":1461017247,
    "wof:name":"Ace Mechanical",
    "wof:parent_id":85855885,
    "wof:placetype":"venue",
    "wof:superseded_by":[],
    "wof:supersedes":[],
    "wof:tags":[
        "contractor"
    ]
},
  "bbox": [
    -74.148914,
    41.109248,
    -74.148914,
    41.109248
],
  "geometry": {"coordinates":[-74.148914,41.109248],"type":"Point"}
}