{
  "id": 554941591,
  "type": "Feature",
  "properties": {
    "edtf:cessation":"uuuu",
    "edtf:inception":"uuuu",
    "geom:area":0.0,
    "geom:bbox":"-73.492119,41.148213,-73.492119,41.148213",
    "geom:latitude":41.148213,
    "geom:longitude":-73.492119,
    "iso:country":"US",
    "sg:address":"20 Forest St",
    "sg:city":"New Canaan",
    "sg:classifiers":[
        {
            "category":"Organizations",
            "subcategory":"Membership Organization",
            "type":"Services"
        }
    ],
    "sg:owner":"simplegeo",
    "sg:phone":"+1 203 966 0122",
    "sg:postcode":"06840",
    "sg:province":"NY",
    "sg:tags":[
        "science",
        "reading",
        "christian",
        "rooms"
    ],
    "src:geom":"simplegeo",
    "wof:belongsto":[
        85688629,
        85633793,
        85851779,
        102084283
    ],
    "wof:breaches":[],
    "wof:concordances":{
        "sg:id":"SG_4poMSu3plS1greozDqrXDA_41.148213_-73.492119@1294177022"
    },
    "wof:country":"US",
    "wof:geomhash":"1ce1fd91e175ab02e223056261b90c8b",
    "wof:hierarchy":[
        {
            "country_id":85633793,
            "county_id":102084283,
            "neighbourhood_id":85851779,
            "region_id":85688629,
            "venue_id":554941591
        }
    ],
    "wof:id":554941591,
    "wof:lastmodified":1461017775,
    "wof:name":"Christian Science Reading Room",
    "wof:parent_id":85851779,
    "wof:placetype":"venue",
    "wof:superseded_by":[],
    "wof:supersedes":[],
    "wof:tags":[
        "science",
        "reading",
        "christian",
        "rooms"
    ]
},
  "bbox": [
    -73.492119,
    41.148213,
    -73.492119,
    41.148213
],
  "geometry": {"coordinates":[-73.492119,41.148213],"type":"Point"}
}