{
  "id": 554937725,
  "type": "Feature",
  "properties": {
    "edtf:cessation":"uuuu",
    "edtf:inception":"uuuu",
    "geom:area":0.0,
    "geom:bbox":"-73.476261,41.130978,-73.476261,41.130978",
    "geom:latitude":41.130978,
    "geom:longitude":-73.476261,
    "iso:country":"US",
    "sg:address":"43 Green Meadow Ln",
    "sg:city":"New Canaan",
    "sg:classifiers":[
        {
            "category":"Professional",
            "subcategory":"Management & Consulting",
            "type":"Services"
        }
    ],
    "sg:owner":"simplegeo",
    "sg:phone":"+1   ",
    "sg:postcode":"06840",
    "sg:province":"NY",
    "sg:tags":[
        "pension"
    ],
    "src:geom":"simplegeo",
    "wof:belongsto":[
        85688629,
        85633793,
        85851779,
        102084283
    ],
    "wof:breaches":[],
    "wof:concordances":{
        "sg:id":"SG_173pRssHgDfmLRgGMs2tmG_41.130978_-73.476261@1294177022"
    },
    "wof:country":"US",
    "wof:geomhash":"41dec8460d62ca563d90e4743c9e5214",
    "wof:hierarchy":[
        {
            "country_id":85633793,
            "county_id":102084283,
            "neighbourhood_id":85851779,
            "region_id":85688629,
            "venue_id":554937725
        }
    ],
    "wof:id":554937725,
    "wof:lastmodified":1461017410,
    "wof:name":"Carusi & Associates Inc",
    "wof:parent_id":85851779,
    "wof:placetype":"venue",
    "wof:superseded_by":[],
    "wof:supersedes":[],
    "wof:tags":[
        "pension"
    ]
},
  "bbox": [
    -73.476261,
    41.130978,
    -73.476261,
    41.130978
],
  "geometry": {"coordinates":[-73.47626099999999,41.130978],"type":"Point"}
}