{
  "id": 554934711,
  "type": "Feature",
  "properties": {
    "edtf:cessation":"uuuu",
    "edtf:inception":"uuuu",
    "geom:area":0.0,
    "geom:bbox":"-73.656922,41.008551,-73.656922,41.008551",
    "geom:latitude":41.008551,
    "geom:longitude":-73.656922,
    "iso:country":"US",
    "sg:address":"6 Edison Pl",
    "sg:city":"Port Chester",
    "sg:classifiers":[
        {
            "category":"Building & Trades",
            "subcategory":"Construction",
            "type":"Services"
        }
    ],
    "sg:owner":"simplegeo",
    "sg:phone":"+1 914 939 1994",
    "sg:postcode":"10573",
    "sg:province":"NY",
    "sg:tags":[
        "residential",
        "commercial",
        "carpentry"
    ],
    "src:geom":"simplegeo",
    "wof:belongsto":[
        85885307,
        102191575,
        404495949,
        85633793,
        85930941,
        102084283,
        85688629,
        420530431,
        404523389,
        85978705,
        102082373,
        85688543
    ],
    "wof:breaches":[],
    "wof:concordances":{
        "sg:id":"SG_2duz7VqBrJSS9LRwERwwbp_41.008551_-73.656922@1294177022"
    },
    "wof:country":"US",
    "wof:geomhash":"e66ea89982402df1045f218171069b0a",
    "wof:hierarchy":[
        {
            "continent_id":102191575,
            "country_id":85633793,
            "county_id":102084283,
            "localadmin_id":404495949,
            "locality_id":85930941,
            "neighbourhood_id":85885307,
            "region_id":85688629,
            "venue_id":554934711
        },
        {
            "continent_id":102191575,
            "country_id":85633793,
            "county_id":102082373,
            "localadmin_id":404523389,
            "locality_id":85978705,
            "neighbourhood_id":420530431,
            "region_id":85688543,
            "venue_id":554934711
        }
    ],
    "wof:id":554934711,
    "wof:lastmodified":1461016974,
    "wof:name":"Varamo Brothers Inc",
    "wof:parent_id":-1,
    "wof:placetype":"venue",
    "wof:superseded_by":[],
    "wof:supersedes":[],
    "wof:tags":[
        "residential",
        "commercial",
        "carpentry"
    ]
},
  "bbox": [
    -73.656922,
    41.008551,
    -73.656922,
    41.008551
],
  "geometry": {"coordinates":[-73.65692199999999,41.008551],"type":"Point"}
}