{
  "id": 555664557,
  "type": "Feature",
  "properties": {
    "edtf:cessation":"uuuu",
    "edtf:inception":"uuuu",
    "geom:area":0.0,
    "geom:bbox":"-74.010701,41.248314,-74.010701,41.248314",
    "geom:latitude":41.248314,
    "geom:longitude":-74.010701,
    "iso:country":"US",
    "sg:address":"52 Franck Rd",
    "sg:city":"Stony Point",
    "sg:classifiers":[
        {
            "category":"Building & Trades",
            "subcategory":"Plumbing",
            "type":"Services"
        }
    ],
    "sg:owner":"simplegeo",
    "sg:phone":"+1 845 786 2288",
    "sg:postcode":"10980",
    "sg:province":"NY",
    "sg:tags":[
        "conditioning",
        "air",
        "system",
        "contractor"
    ],
    "src:geom":"simplegeo",
    "wof:belongsto":[],
    "wof:breaches":[],
    "wof:concordances":{
        "sg:id":"SG_2nZvhnjCbEqNEifaxsJ5nb_41.248314_-74.010701@1294177022"
    },
    "wof:country":"US",
    "wof:geomhash":"7feca014023639d57fcdba494dedc5b3",
    "wof:hierarchy":[],
    "wof:id":555664557,
    "wof:lastmodified":1461034917,
    "wof:name":"Bates Heating & Cooling",
    "wof:parent_id":420529775,
    "wof:placetype":"venue",
    "wof:superseded_by":[],
    "wof:supersedes":[],
    "wof:tags":[
        "conditioning",
        "air",
        "system",
        "contractor"
    ]
},
  "bbox": [
    -74.010701,
    41.248314,
    -74.010701,
    41.248314
],
  "geometry": {"coordinates":[-74.010701,41.248314],"type":"Point"}
}