{
  "id": 554938547,
  "type": "Feature",
  "properties": {
    "edtf:cessation":"uuuu",
    "edtf:inception":"uuuu",
    "geom:area":0.0,
    "geom:bbox":"-73.458782,41.140087,-73.458782,41.140087",
    "geom:latitude":41.140087,
    "geom:longitude":-73.458782,
    "iso:country":"US",
    "sg:address":"104 Pocconock Trl",
    "sg:city":"New Canaan",
    "sg:classifiers":[
        {
            "category":"Professional",
            "subcategory":"Art Services",
            "type":"Services"
        }
    ],
    "sg:owner":"simplegeo",
    "sg:phone":"+1   ",
    "sg:postcode":"06840",
    "sg:province":"NY",
    "sg:tags":[
        "commercial",
        "design"
    ],
    "src:geom":"simplegeo",
    "wof:belongsto":[
        85879307,
        102191575,
        404495959,
        85633793,
        85930795,
        102084283,
        85688629,
        85848785
    ],
    "wof:breaches":[],
    "wof:concordances":{
        "sg:id":"SG_0w0DGiY5arKeUcswP6J6P9_41.140087_-73.458782@1294177022"
    },
    "wof:country":"US",
    "wof:geomhash":"ef13f4b8c783fbd788c8d07324804d1f",
    "wof:hierarchy":[
        {
            "continent_id":102191575,
            "country_id":85633793,
            "county_id":102084283,
            "localadmin_id":404495959,
            "locality_id":85930795,
            "neighbourhood_id":85879307,
            "region_id":85688629,
            "venue_id":554938547
        },
        {
            "country_id":85633793,
            "county_id":102084283,
            "neighbourhood_id":85848785,
            "region_id":85688629,
            "venue_id":554938547
        }
    ],
    "wof:id":554938547,
    "wof:lastmodified":1461017486,
    "wof:name":"Impact Design",
    "wof:parent_id":-1,
    "wof:placetype":"venue",
    "wof:superseded_by":[],
    "wof:supersedes":[],
    "wof:tags":[
        "commercial",
        "design"
    ]
},
  "bbox": [
    -73.458782,
    41.140087,
    -73.458782,
    41.140087
],
  "geometry": {"coordinates":[-73.458782,41.140087],"type":"Point"}
}