{
  "id": 554942073,
  "type": "Feature",
  "properties": {
    "edtf:cessation":"uuuu",
    "edtf:inception":"uuuu",
    "geom:area":0.0,
    "geom:bbox":"-74.038806,41.076647,-74.038806,41.076647",
    "geom:latitude":41.076647,
    "geom:longitude":-74.038806,
    "iso:country":"US",
    "sg:address":"11 Lomond Ave",
    "sg:city":"Spring Valley",
    "sg:classifiers":[
        {
            "category":"Professional",
            "subcategory":"",
            "type":"Services"
        }
    ],
    "sg:owner":"simplegeo",
    "sg:phone":"+1 845 623 7976",
    "sg:postcode":"10977",
    "sg:province":"NY",
    "sg:tags":[
        "establishment"
    ],
    "src:geom":"simplegeo",
    "wof:belongsto":[
        85853261,
        102191575,
        404523097,
        85633793,
        85978555,
        102082385,
        85688543
    ],
    "wof:breaches":[],
    "wof:concordances":{
        "sg:id":"SG_06wpaylmk4NJURelkJYv7p_41.076647_-74.038806@1294177022"
    },
    "wof:country":"US",
    "wof:geomhash":"491c05dcfe577580ad8bc0b0bcc47f47",
    "wof:hierarchy":[
        {
            "continent_id":102191575,
            "country_id":85633793,
            "county_id":102082385,
            "localadmin_id":404523097,
            "locality_id":85978555,
            "neighbourhood_id":85853261,
            "region_id":85688543,
            "venue_id":554942073
        }
    ],
    "wof:id":554942073,
    "wof:lastmodified":1461017841,
    "wof:name":"Greenwald Wm",
    "wof:parent_id":85853261,
    "wof:placetype":"venue",
    "wof:superseded_by":[],
    "wof:supersedes":[],
    "wof:tags":[
        "establishment"
    ]
},
  "bbox": [
    -74.038806,
    41.076647,
    -74.038806,
    41.076647
],
  "geometry": {"coordinates":[-74.03880599999999,41.076647],"type":"Point"}
}