{
  "id": 554938481,
  "type": "Feature",
  "properties": {
    "edtf:cessation":"uuuu",
    "edtf:inception":"uuuu",
    "geom:area":0.0,
    "geom:bbox":"-73.47437,41.127007,-73.47437,41.127007",
    "geom:latitude":41.127007,
    "geom:longitude":-73.47437,
    "iso:country":"US",
    "sg:address":"290 White Oak Shade Rd",
    "sg:city":"New Canaan",
    "sg:classifiers":[
        {
            "category":"Professional",
            "subcategory":"Management & Consulting",
            "type":"Services"
        }
    ],
    "sg:owner":"simplegeo",
    "sg:phone":"+1   ",
    "sg:postcode":"06840",
    "sg:province":"NY",
    "sg:tags":[
        "business"
    ],
    "src:geom":"simplegeo",
    "wof:belongsto":[
        85688629,
        85633793,
        85851779,
        102084283
    ],
    "wof:breaches":[],
    "wof:concordances":{
        "sg:id":"SG_5QLJys0V2IoqujdVMNVheg_41.127007_-73.474370@1294177022"
    },
    "wof:country":"US",
    "wof:geomhash":"a51cb4a0408c3528caf8e3e218ba05c6",
    "wof:hierarchy":[
        {
            "country_id":85633793,
            "county_id":102084283,
            "neighbourhood_id":85851779,
            "region_id":85688629,
            "venue_id":554938481
        }
    ],
    "wof:id":554938481,
    "wof:lastmodified":1461017481,
    "wof:name":"Hollstein Brian & Assoc LLC",
    "wof:parent_id":85851779,
    "wof:placetype":"venue",
    "wof:superseded_by":[],
    "wof:supersedes":[],
    "wof:tags":[
        "business"
    ]
},
  "bbox": [
    -73.47437,
    41.127007,
    -73.47437,
    41.127007
],
  "geometry": {"coordinates":[-73.47436999999999,41.127007],"type":"Point"}
}