{
  "id": 554937107,
  "type": "Feature",
  "properties": {
    "edtf:cessation":"uuuu",
    "edtf:inception":"uuuu",
    "geom:area":0.0,
    "geom:bbox":"-73.502708,41.150751,-73.502708,41.150751",
    "geom:latitude":41.150751,
    "geom:longitude":-73.502708,
    "iso:country":"US",
    "sg:address":"24 Gerrish Ln",
    "sg:city":"New Canaan",
    "sg:classifiers":[
        {
            "category":"Real Estate",
            "subcategory":"Real Estate Agent",
            "type":"Services"
        }
    ],
    "sg:owner":"simplegeo",
    "sg:phone":"+1 203 966 3621",
    "sg:postcode":"06840",
    "sg:province":"NY",
    "src:geom":"simplegeo",
    "wof:belongsto":[
        85688629,
        85633793,
        85851779,
        102084283
    ],
    "wof:breaches":[],
    "wof:concordances":{
        "sg:id":"SG_1Ozwnv99wLWakrO4BEdoVZ_41.150751_-73.502708@1294177022"
    },
    "wof:country":"US",
    "wof:geomhash":"5ff426cf25f180c7fe756ffba8789f17",
    "wof:hierarchy":[
        {
            "country_id":85633793,
            "county_id":102084283,
            "neighbourhood_id":85851779,
            "region_id":85688629,
            "venue_id":554937107
        }
    ],
    "wof:id":554937107,
    "wof:lastmodified":1461017318,
    "wof:name":"Catherine Cody Est of",
    "wof:parent_id":85851779,
    "wof:placetype":"venue",
    "wof:superseded_by":[],
    "wof:supersedes":[],
    "wof:tags":[]
},
  "bbox": [
    -73.502708,
    41.150751,
    -73.502708,
    41.150751
],
  "geometry": {"coordinates":[-73.502708,41.150751],"type":"Point"}
}