{
  "id": 554936111,
  "type": "Feature",
  "properties": {
    "edtf:cessation":"uuuu",
    "edtf:inception":"uuuu",
    "geom:area":0.0,
    "geom:bbox":"-73.505692,44.103408,-73.505692,44.103408",
    "geom:latitude":44.103408,
    "geom:longitude":-73.505692,
    "iso:country":"US",
    "sg:address":"111 Bartlett Pond Rd",
    "sg:city":"Mineville",
    "sg:classifiers":[
        {
            "category":"Shopping",
            "subcategory":"Crafts & Fabrics",
            "type":"Retail Goods"
        }
    ],
    "sg:owner":"simplegeo",
    "sg:phone":"+1   ",
    "sg:postcode":"12956",
    "sg:province":"NY",
    "sg:tags":[
        "sewing",
        "business"
    ],
    "src:geom":"simplegeo",
    "wof:belongsto":[
        85688763,
        85633793,
        85857981,
        102080765
    ],
    "wof:breaches":[],
    "wof:concordances":{
        "sg:id":"SG_3WaMo54hWztsUVThdCUkVh_44.103408_-73.505692@1294177022"
    },
    "wof:country":"US",
    "wof:geomhash":"0e9a05e019f20f5cb4420f9c61a5bbc0",
    "wof:hierarchy":[
        {
            "country_id":85633793,
            "county_id":102080765,
            "neighbourhood_id":85857981,
            "region_id":85688763,
            "venue_id":554936111
        }
    ],
    "wof:id":554936111,
    "wof:lastmodified":1461017167,
    "wof:name":"Rose Maidread",
    "wof:parent_id":85857981,
    "wof:placetype":"venue",
    "wof:superseded_by":[],
    "wof:supersedes":[],
    "wof:tags":[
        "sewing",
        "business"
    ]
},
  "bbox": [
    -73.505692,
    44.103408,
    -73.505692,
    44.103408
],
  "geometry": {"coordinates":[-73.505692,44.103408],"type":"Point"}
}