{
  "id": 554937245,
  "type": "Feature",
  "properties": {
    "edtf:cessation":"uuuu",
    "edtf:inception":"uuuu",
    "geom:area":0.0,
    "geom:bbox":"-73.527359,41.144085,-73.527359,41.144085",
    "geom:latitude":41.144085,
    "geom:longitude":-73.527359,
    "iso:country":"US",
    "sg:address":"913 Ponus Ridge",
    "sg:city":"New Canaan",
    "sg:classifiers":[
        {
            "category":"Professional",
            "subcategory":"Business Services",
            "type":"Services"
        }
    ],
    "sg:owner":"simplegeo",
    "sg:phone":"+1   ",
    "sg:postcode":"06840",
    "sg:province":"NY",
    "src:geom":"simplegeo",
    "wof:belongsto":[
        85688629,
        85633793,
        85842701,
        102084283
    ],
    "wof:breaches":[],
    "wof:concordances":{
        "sg:id":"SG_2aEce21ik8jDWXPVITCQvJ_41.144085_-73.527359@1294177022"
    },
    "wof:country":"US",
    "wof:geomhash":"7c1f6376ef96571087060ee3b5bc92e8",
    "wof:hierarchy":[
        {
            "country_id":85633793,
            "county_id":102084283,
            "neighbourhood_id":85842701,
            "region_id":85688629,
            "venue_id":554937245
        }
    ],
    "wof:id":554937245,
    "wof:lastmodified":1461017340,
    "wof:name":"Lynn Dowd Interiors",
    "wof:parent_id":85842701,
    "wof:placetype":"venue",
    "wof:superseded_by":[],
    "wof:supersedes":[],
    "wof:tags":[]
},
  "bbox": [
    -73.527359,
    41.144085,
    -73.527359,
    41.144085
],
  "geometry": {"coordinates":[-73.527359,41.144085],"type":"Point"}
}