{
  "id": 555062735,
  "type": "Feature",
  "properties": {
    "edtf:cessation":"uuuu",
    "edtf:inception":"uuuu",
    "geom:area":0.0,
    "geom:bbox":"-73.854547,40.89789,-73.854547,40.89789",
    "geom:latitude":40.89789,
    "geom:longitude":-73.854547,
    "iso:country":"US",
    "sg:address":"4372 White Plains Rd",
    "sg:city":"Bronx",
    "sg:classifiers":[
        {
            "category":"Personal",
            "subcategory":"Barber",
            "type":"Services"
        }
    ],
    "sg:owner":"simplegeo",
    "sg:phone":"+1 718 324 5556",
    "sg:postcode":"10466",
    "sg:province":"NY",
    "src:geom":"simplegeo",
    "wof:belongsto":[],
    "wof:breaches":[],
    "wof:concordances":{
        "sg:id":"SG_4m4E9XnX2RIE8PPAxJi9Nb_40.897890_-73.854547@1294177022"
    },
    "wof:country":"US",
    "wof:geomhash":"49d40aad0e051804c6fdfc11cfee7d8f",
    "wof:hierarchy":[],
    "wof:id":555062735,
    "wof:lastmodified":1461020971,
    "wof:name":"Uptown Beauty Salon",
    "wof:parent_id":-1,
    "wof:placetype":"venue",
    "wof:superseded_by":[],
    "wof:supersedes":[],
    "wof:tags":[]
},
  "bbox": [
    -73.854547,
    40.89789,
    -73.854547,
    40.89789
],
  "geometry": {"coordinates":[-73.854547,40.89789],"type":"Point"}
}