{
  "id": 554941573,
  "type": "Feature",
  "properties": {
    "edtf:cessation":"uuuu",
    "edtf:inception":"uuuu",
    "geom:area":0.0,
    "geom:bbox":"-73.642756,41.024587,-73.642756,41.024587",
    "geom:latitude":41.024587,
    "geom:longitude":-73.642756,
    "iso:country":"US",
    "sg:address":"8 Oak St",
    "sg:city":"Greenwich",
    "sg:classifiers":[
        {
            "category":"Building & Trades",
            "subcategory":"Construction",
            "type":"Services"
        }
    ],
    "sg:owner":"simplegeo",
    "sg:phone":"+1 203 531 4066",
    "sg:postcode":"06831",
    "sg:province":"NY",
    "sg:tags":[
        "repairing",
        "remodeling",
        "contractor"
    ],
    "src:geom":"simplegeo",
    "wof:belongsto":[
        85885307,
        102191575,
        404495949,
        85633793,
        85930941,
        102084283,
        85688629,
        420555529
    ],
    "wof:breaches":[],
    "wof:concordances":{
        "sg:id":"SG_0hSZjK1J6rnk7Bgwz278N9_41.024587_-73.642756@1294177022"
    },
    "wof:country":"US",
    "wof:geomhash":"5fa3fe2295c841e00191c5af3cde24ea",
    "wof:hierarchy":[
        {
            "continent_id":102191575,
            "country_id":85633793,
            "county_id":102084283,
            "localadmin_id":404495949,
            "locality_id":85930941,
            "neighbourhood_id":85885307,
            "region_id":85688629,
            "venue_id":554941573
        },
        {
            "continent_id":102191575,
            "country_id":85633793,
            "county_id":102084283,
            "localadmin_id":404495949,
            "locality_id":85930941,
            "neighbourhood_id":420555529,
            "region_id":85688629,
            "venue_id":554941573
        }
    ],
    "wof:id":554941573,
    "wof:lastmodified":1461017773,
    "wof:name":"Xhema Remodeling Inc",
    "wof:parent_id":-1,
    "wof:placetype":"venue",
    "wof:superseded_by":[],
    "wof:supersedes":[],
    "wof:tags":[
        "repairing",
        "remodeling",
        "contractor"
    ]
},
  "bbox": [
    -73.642756,
    41.024587,
    -73.642756,
    41.024587
],
  "geometry": {"coordinates":[-73.64275600000001,41.024587],"type":"Point"}
}