{
  "id": 554946725,
  "type": "Feature",
  "properties": {
    "edtf:cessation":"uuuu",
    "edtf:inception":"uuuu",
    "geom:area":0.0,
    "geom:bbox":"-73.673518,40.641347,-73.673518,40.641347",
    "geom:latitude":40.641347,
    "geom:longitude":-73.673518,
    "iso:country":"US",
    "sg:address":"263 E Rockaway Rd",
    "sg:city":"East Rockaway",
    "sg:classifiers":[
        {
            "category":"Education",
            "subcategory":"School",
            "type":"Public Place"
        }
    ],
    "sg:owner":"simplegeo",
    "sg:phone":"+1 516 593 9010",
    "sg:postcode":"11518",
    "sg:province":"NY",
    "src:geom":"simplegeo",
    "wof:belongsto":[],
    "wof:breaches":[],
    "wof:concordances":{
        "sg:id":"SG_5eAzvPoJpasQMy8zwfg8jt_40.641347_-73.673518@1294177022"
    },
    "wof:country":"US",
    "wof:geomhash":"ece5e7f42b3b622c3e901764180f5186",
    "wof:hierarchy":[],
    "wof:id":554946725,
    "wof:lastmodified":1461018065,
    "wof:name":"St Raymond's Parochial School",
    "wof:parent_id":-1,
    "wof:placetype":"venue",
    "wof:superseded_by":[],
    "wof:supersedes":[],
    "wof:tags":[]
},
  "bbox": [
    -73.673518,
    40.641347,
    -73.673518,
    40.641347
],
  "geometry": {"coordinates":[-73.673518,40.641347],"type":"Point"}
}