{
  "id": 554938971,
  "type": "Feature",
  "properties": {
    "edtf:cessation":"uuuu",
    "edtf:inception":"uuuu",
    "geom:area":0.0,
    "geom:bbox":"-73.633765,41.173403,-73.633765,41.173403",
    "geom:latitude":41.173403,
    "geom:longitude":-73.633765,
    "iso:country":"US",
    "sg:address":"50 Hickory Kingdom Rd",
    "sg:city":"Bedford",
    "sg:classifiers":[
        {
            "category":"Professional",
            "subcategory":"Management & Consulting",
            "type":"Services"
        }
    ],
    "sg:owner":"simplegeo",
    "sg:phone":"+1 914 234 0217",
    "sg:postcode":"10506",
    "sg:province":"NY",
    "sg:tags":[
        "business"
    ],
    "src:geom":"simplegeo",
    "wof:belongsto":[
        85688629,
        85633793,
        85930787,
        102084283,
        85838073
    ],
    "wof:breaches":[],
    "wof:concordances":{
        "sg:id":"SG_6u8ONfeOTin2DKKLnbmQDT_41.173403_-73.633765@1294177022"
    },
    "wof:country":"US",
    "wof:geomhash":"ccca47fe2ae20bba86d02e384d2cc9f4",
    "wof:hierarchy":[
        {
            "country_id":85633793,
            "county_id":102084283,
            "locality_id":85930787,
            "neighbourhood_id":85838073,
            "region_id":85688629,
            "venue_id":554938971
        }
    ],
    "wof:id":554938971,
    "wof:lastmodified":1461017516,
    "wof:name":"Novacon Energy Systems Inc",
    "wof:parent_id":85838073,
    "wof:placetype":"venue",
    "wof:superseded_by":[],
    "wof:supersedes":[],
    "wof:tags":[
        "business"
    ]
},
  "bbox": [
    -73.633765,
    41.173403,
    -73.633765,
    41.173403
],
  "geometry": {"coordinates":[-73.633765,41.173403],"type":"Point"}
}