{
  "id": 554938943,
  "type": "Feature",
  "properties": {
    "edtf:cessation":"uuuu",
    "edtf:inception":"uuuu",
    "geom:area":0.0,
    "geom:bbox":"-73.494834,41.144193,-73.494834,41.144193",
    "geom:latitude":41.144193,
    "geom:longitude":-73.494834,
    "iso:country":"US",
    "sg:address":"172 Park St",
    "sg:city":"New Canaan",
    "sg:classifiers":[
        {
            "category":"Education",
            "subcategory":"Special Training",
            "type":"Public Place"
        }
    ],
    "sg:owner":"simplegeo",
    "sg:phone":"+1   ",
    "sg:postcode":"06840",
    "sg:province":"NY",
    "src:geom":"simplegeo",
    "wof:belongsto":[
        85688629,
        85633793,
        85851779,
        102084283
    ],
    "wof:breaches":[],
    "wof:concordances":{
        "sg:id":"SG_0esarAVSf1Zo2pwZ8idKwP_41.144193_-73.494834@1294177022"
    },
    "wof:country":"US",
    "wof:geomhash":"7436541b661db1970b30923f45889899",
    "wof:hierarchy":[
        {
            "country_id":85633793,
            "county_id":102084283,
            "neighbourhood_id":85851779,
            "region_id":85688629,
            "venue_id":554938943
        }
    ],
    "wof:id":554938943,
    "wof:lastmodified":1461017514,
    "wof:name":"Florence Skinner",
    "wof:parent_id":85851779,
    "wof:placetype":"venue",
    "wof:superseded_by":[],
    "wof:supersedes":[],
    "wof:tags":[]
},
  "bbox": [
    -73.494834,
    41.144193,
    -73.494834,
    41.144193
],
  "geometry": {"coordinates":[-73.494834,41.144193],"type":"Point"}
}