{
  "id": 554938495,
  "type": "Feature",
  "properties": {
    "edtf:cessation":"uuuu",
    "edtf:inception":"uuuu",
    "geom:area":0.0,
    "geom:bbox":"-73.458409,44.050479,-73.458409,44.050479",
    "geom:latitude":44.050479,
    "geom:longitude":-73.458409,
    "iso:country":"US",
    "sg:address":"31 Main St",
    "sg:city":"Port Henry",
    "sg:classifiers":[
        {
            "category":"Personal",
            "subcategory":"Beauty Salon",
            "type":"Services"
        }
    ],
    "sg:owner":"simplegeo",
    "sg:phone":"+1 518 546 7717",
    "sg:postcode":"12974",
    "sg:province":"NY",
    "src:geom":"simplegeo",
    "wof:belongsto":[
        85688763,
        85633793,
        85857981,
        102080765
    ],
    "wof:breaches":[],
    "wof:concordances":{
        "sg:id":"SG_5CtLKMuX9bzEdqoPAkHk1N_44.050479_-73.458409@1294177022"
    },
    "wof:country":"US",
    "wof:geomhash":"77adcab25ad570bae5b5c531c623e12b",
    "wof:hierarchy":[
        {
            "country_id":85633793,
            "county_id":102080765,
            "neighbourhood_id":85857981,
            "region_id":85688763,
            "venue_id":554938495
        }
    ],
    "wof:id":554938495,
    "wof:lastmodified":1461017482,
    "wof:name":"Adirondack Hair Assoc",
    "wof:parent_id":85857981,
    "wof:placetype":"venue",
    "wof:superseded_by":[],
    "wof:supersedes":[],
    "wof:tags":[]
},
  "bbox": [
    -73.458409,
    44.050479,
    -73.458409,
    44.050479
],
  "geometry": {"coordinates":[-73.458409,44.050479],"type":"Point"}
}