{
  "id": 572175861,
  "type": "Feature",
  "properties": {
    "edtf:cessation":"uuuu",
    "edtf:inception":"uuuu",
    "geom:area":0.0,
    "geom:bbox":"-72.392897,41.37248,-72.392897,41.37248",
    "geom:latitude":41.37248,
    "geom:longitude":-72.392897,
    "iso:country":"US",
    "sg:address":"67380 Route 25",
    "sg:city":"Southold",
    "sg:classifiers":[
        {
            "category":"Building & Trades",
            "subcategory":"Landscaping Services",
            "type":"Services"
        }
    ],
    "sg:owner":"simplegeo",
    "sg:phone":"+1 631 477 2772",
    "sg:postcode":"11971",
    "sg:province":"NY",
    "sg:tags":[
        "gardener"
    ],
    "src:geom":"simplegeo",
    "wof:belongsto":[],
    "wof:breaches":[],
    "wof:concordances":{
        "sg:id":"SG_3XVamt8F988nKoNrNK5BDt_41.372480_-72.392897@1303262384"
    },
    "wof:country":"US",
    "wof:geomhash":"d54f0323ed36420a3c0f4cafc60397c8",
    "wof:hierarchy":[],
    "wof:id":572175861,
    "wof:lastmodified":1461051593,
    "wof:name":"Green Depot Greenport",
    "wof:parent_id":-1,
    "wof:placetype":"venue",
    "wof:superseded_by":[],
    "wof:supersedes":[],
    "wof:tags":[
        "gardener"
    ]
},
  "bbox": [
    -72.392897,
    41.37248,
    -72.392897,
    41.37248
],
  "geometry": {"coordinates":[-72.392897,41.37248],"type":"Point"}
}