{
  "id": 554936343,
  "type": "Feature",
  "properties": {
    "edtf:cessation":"uuuu",
    "edtf:inception":"uuuu",
    "geom:area":0.0,
    "geom:bbox":"-73.492027,41.156633,-73.492027,41.156633",
    "geom:latitude":41.156633,
    "geom:longitude":-73.492027,
    "iso:country":"US",
    "sg:address":"34 Strawberry Hill Rd",
    "sg:city":"New Canaan",
    "sg:classifiers":[
        {
            "category":"Building & Trades",
            "subcategory":"Landscaping Services",
            "type":"Services"
        }
    ],
    "sg:owner":"simplegeo",
    "sg:phone":"+1 203 966 8394",
    "sg:postcode":"06840",
    "sg:province":"NY",
    "sg:tags":[
        "tree"
    ],
    "src:geom":"simplegeo",
    "wof:belongsto":[
        85688629,
        85633793,
        85851779,
        102084283
    ],
    "wof:breaches":[],
    "wof:concordances":{
        "sg:id":"SG_5clnBBXaTRBjipDioI9KhI_41.156633_-73.492027@1294177022"
    },
    "wof:country":"US",
    "wof:geomhash":"a02538b4cb035a267fe7b8220b267841",
    "wof:hierarchy":[
        {
            "country_id":85633793,
            "county_id":102084283,
            "neighbourhood_id":85851779,
            "region_id":85688629,
            "venue_id":554936343
        }
    ],
    "wof:id":554936343,
    "wof:lastmodified":1461017206,
    "wof:name":"Artistic Arburists",
    "wof:parent_id":85851779,
    "wof:placetype":"venue",
    "wof:superseded_by":[],
    "wof:supersedes":[],
    "wof:tags":[
        "tree"
    ]
},
  "bbox": [
    -73.492027,
    41.156633,
    -73.492027,
    41.156633
],
  "geometry": {"coordinates":[-73.49202699999999,41.156633],"type":"Point"}
}