{
  "id": 554935061,
  "type": "Feature",
  "properties": {
    "edtf:cessation":"uuuu",
    "edtf:inception":"uuuu",
    "geom:area":0.0,
    "geom:bbox":"-73.502928,41.136935,-73.502928,41.136935",
    "geom:latitude":41.136935,
    "geom:longitude":-73.502928,
    "iso:country":"US",
    "sg:address":"43 Marshall Ridge Rd",
    "sg:city":"New Canaan",
    "sg:classifiers":[
        {
            "category":"Professional",
            "subcategory":"",
            "type":"Services"
        }
    ],
    "sg:owner":"simplegeo",
    "sg:phone":"+1   ",
    "sg:postcode":"06840",
    "sg:province":"NY",
    "src:geom":"simplegeo",
    "wof:belongsto":[
        85688629,
        85633793,
        85851779,
        102084283
    ],
    "wof:breaches":[],
    "wof:concordances":{
        "sg:id":"SG_61i8yYmPxBToFE6BKrelK7_41.136935_-73.502928@1294177022"
    },
    "wof:country":"US",
    "wof:geomhash":"2004c7a3d005e7280fa98e8d4c521c1d",
    "wof:hierarchy":[
        {
            "country_id":85633793,
            "county_id":102084283,
            "neighbourhood_id":85851779,
            "region_id":85688629,
            "venue_id":554935061
        }
    ],
    "wof:id":554935061,
    "wof:lastmodified":1461017019,
    "wof:name":"Lester Brooks Patricia Brooks",
    "wof:parent_id":85851779,
    "wof:placetype":"venue",
    "wof:superseded_by":[],
    "wof:supersedes":[],
    "wof:tags":[]
},
  "bbox": [
    -73.502928,
    41.136935,
    -73.502928,
    41.136935
],
  "geometry": {"coordinates":[-73.502928,41.136935],"type":"Point"}
}