{
  "id": 554941445,
  "type": "Feature",
  "properties": {
    "edtf:cessation":"uuuu",
    "edtf:inception":"uuuu",
    "geom:area":0.0,
    "geom:bbox":"-73.469057,41.133214,-73.469057,41.133214",
    "geom:latitude":41.133214,
    "geom:longitude":-73.469057,
    "iso:country":"US",
    "sg:address":"24 Nubel Ln",
    "sg:city":"New Canaan",
    "sg:classifiers":[
        {
            "category":"Banks & Credit Unions",
            "subcategory":"Investment Brokerage",
            "type":"Services"
        }
    ],
    "sg:owner":"simplegeo",
    "sg:phone":"+1 203 966 0100",
    "sg:postcode":"06840",
    "sg:province":"NY",
    "sg:tags":[
        "consultant",
        "planning",
        "financial"
    ],
    "src:geom":"simplegeo",
    "wof:belongsto":[
        85688629,
        85633793,
        85851779,
        102084283
    ],
    "wof:breaches":[],
    "wof:concordances":{
        "sg:id":"SG_04P5q3xTm67exsZLtpVziO_41.133214_-73.469057@1294177022"
    },
    "wof:country":"US",
    "wof:geomhash":"d6ab0035d32762ddfe4679a78f67c3f9",
    "wof:hierarchy":[
        {
            "country_id":85633793,
            "county_id":102084283,
            "neighbourhood_id":85851779,
            "region_id":85688629,
            "venue_id":554941445
        }
    ],
    "wof:id":554941445,
    "wof:lastmodified":1461017750,
    "wof:name":"Woodall Financial Svc",
    "wof:parent_id":85851779,
    "wof:placetype":"venue",
    "wof:superseded_by":[],
    "wof:supersedes":[],
    "wof:tags":[
        "consultant",
        "planning",
        "financial"
    ]
},
  "bbox": [
    -73.469057,
    41.133214,
    -73.469057,
    41.133214
],
  "geometry": {"coordinates":[-73.46905700000001,41.133214],"type":"Point"}
}