{
  "id": 554934283,
  "type": "Feature",
  "properties": {
    "edtf:cessation":"uuuu",
    "edtf:inception":"uuuu",
    "geom:area":0.0,
    "geom:bbox":"-74.055808,41.082302,-74.055808,41.082302",
    "geom:latitude":41.082302,
    "geom:longitude":-74.055808,
    "iso:country":"US",
    "sg:address":"70 Red Schoolhouse Rd",
    "sg:city":"Spring Valley",
    "sg:classifiers":[
        {
            "category":"Wholesale",
            "subcategory":"Construction Materials",
            "type":"Manufacturing & Wholesale Goods"
        }
    ],
    "sg:owner":"simplegeo",
    "sg:phone":"+1 845 356 0629",
    "sg:postcode":"10977",
    "sg:province":"NY",
    "sg:tags":[
        "hardware",
        "door"
    ],
    "src:geom":"simplegeo",
    "wof:belongsto":[
        85853261,
        102191575,
        404523097,
        85633793,
        85978555,
        102082385,
        85688543
    ],
    "wof:breaches":[],
    "wof:concordances":{
        "sg:id":"SG_7KXz0PaieMkhofTMmFYN9y_41.082302_-74.055808@1294177022"
    },
    "wof:country":"US",
    "wof:geomhash":"97ff69c5300cd7cad6e3b32678c38d8e",
    "wof:hierarchy":[
        {
            "continent_id":102191575,
            "country_id":85633793,
            "county_id":102082385,
            "localadmin_id":404523097,
            "locality_id":85978555,
            "neighbourhood_id":85853261,
            "region_id":85688543,
            "venue_id":554934283
        }
    ],
    "wof:id":554934283,
    "wof:lastmodified":1461016922,
    "wof:name":"H & W Door & Hardware",
    "wof:parent_id":85853261,
    "wof:placetype":"venue",
    "wof:superseded_by":[],
    "wof:supersedes":[],
    "wof:tags":[
        "hardware",
        "door"
    ]
},
  "bbox": [
    -74.055808,
    41.082302,
    -74.055808,
    41.082302
],
  "geometry": {"coordinates":[-74.055808,41.082302],"type":"Point"}
}