{
  "id": 572170205,
  "type": "Feature",
  "properties": {
    "edtf:cessation":"uuuu",
    "edtf:inception":"uuuu",
    "geom:area":0.0,
    "geom:bbox":"-74.309672,40.627857,-74.309672,40.627857",
    "geom:latitude":40.627857,
    "geom:longitude":-74.309672,
    "iso:country":"US",
    "sg:address":"7709 5th Ave",
    "sg:city":"Brooklyn",
    "sg:classifiers":[
        {
            "category":"Shopping",
            "subcategory":"Department Store",
            "type":"Retail Goods"
        }
    ],
    "sg:owner":"simplegeo",
    "sg:phone":"+1 718 921 4311",
    "sg:postcode":"11209",
    "sg:province":"NY",
    "sg:website":"www.jcpenney.com",
    "src:geom":"simplegeo",
    "wof:belongsto":[],
    "wof:breaches":[],
    "wof:concordances":{
        "sg:id":"SG_31iBvFRiHfzl11Y4YVFaDs_40.627857_-74.309672@1303262338"
    },
    "wof:country":"US",
    "wof:geomhash":"df9cbe446cb40f6cf0ac13886af555db",
    "wof:hierarchy":[],
    "wof:id":572170205,
    "wof:lastmodified":1461051414,
    "wof:name":"JC Penney Sales Merchant",
    "wof:parent_id":-1,
    "wof:placetype":"venue",
    "wof:superseded_by":[],
    "wof:supersedes":[],
    "wof:tags":[]
},
  "bbox": [
    -74.309672,
    40.627857,
    -74.309672,
    40.627857
],
  "geometry": {"coordinates":[-74.30967200000001,40.627857],"type":"Point"}
}