{
  "id": 554940385,
  "type": "Feature",
  "properties": {
    "edtf:cessation":"uuuu",
    "edtf:inception":"uuuu",
    "geom:area":0.0,
    "geom:bbox":"-73.702574,41.074858,-73.702574,41.074858",
    "geom:latitude":41.074858,
    "geom:longitude":-73.702574,
    "iso:country":"US",
    "sg:address":"1100 King St",
    "sg:city":"Port Chester",
    "sg:classifiers":[
        {
            "category":"Insurance",
            "subcategory":"Insurance Agent",
            "type":"Services"
        }
    ],
    "sg:owner":"simplegeo",
    "sg:phone":"+1 914 934 9113",
    "sg:postcode":"06831",
    "sg:province":"NY",
    "src:geom":"simplegeo",
    "wof:belongsto":[],
    "wof:breaches":[],
    "wof:concordances":{
        "sg:id":"SG_3BQamnQ0RUhR9AULqIl7cg_41.074858_-73.702574@1294177022"
    },
    "wof:country":"US",
    "wof:geomhash":"fe4e6cc3822a5cfa91564c358d608117",
    "wof:hierarchy":[],
    "wof:id":554940385,
    "wof:lastmodified":1461017650,
    "wof:name":"Guardian Life Insurance Co",
    "wof:parent_id":-1,
    "wof:placetype":"venue",
    "wof:superseded_by":[],
    "wof:supersedes":[],
    "wof:tags":[]
},
  "bbox": [
    -73.702574,
    41.074858,
    -73.702574,
    41.074858
],
  "geometry": {"coordinates":[-73.702574,41.074858],"type":"Point"}
}