{
  "id": 554934515,
  "type": "Feature",
  "properties": {
    "edtf:cessation":"uuuu",
    "edtf:inception":"uuuu",
    "geom:area":0.0,
    "geom:bbox":"-74.148029,41.107513,-74.148029,41.107513",
    "geom:latitude":41.107513,
    "geom:longitude":-74.148029,
    "iso:country":"US",
    "sg:address":"2 South St",
    "sg:city":"Suffern",
    "sg:classifiers":[
        {
            "category":"Retail",
            "subcategory":"Car Wash",
            "type":"Services"
        }
    ],
    "sg:owner":"simplegeo",
    "sg:phone":"+1 845 369 3078",
    "sg:postcode":"10901",
    "sg:province":"NY",
    "sg:tags":[
        "automobile",
        "detail",
        "clean"
    ],
    "src:geom":"simplegeo",
    "wof:belongsto":[
        85855885,
        102191575,
        404523097,
        85633793,
        85978523,
        102082385,
        85688543
    ],
    "wof:breaches":[],
    "wof:concordances":{
        "sg:id":"SG_0fPXHyxKgbZG7nPAJcjSjH_41.107513_-74.148029@1294177022"
    },
    "wof:country":"US",
    "wof:geomhash":"cbaa18e93df580dcd6b2b32536b25dc2",
    "wof:hierarchy":[
        {
            "continent_id":102191575,
            "country_id":85633793,
            "county_id":102082385,
            "localadmin_id":404523097,
            "locality_id":85978523,
            "neighbourhood_id":85855885,
            "region_id":85688543,
            "venue_id":554934515
        }
    ],
    "wof:id":554934515,
    "wof:lastmodified":1461016948,
    "wof:name":"Car Care Plus",
    "wof:parent_id":85855885,
    "wof:placetype":"venue",
    "wof:superseded_by":[],
    "wof:supersedes":[],
    "wof:tags":[
        "automobile",
        "detail",
        "clean"
    ]
},
  "bbox": [
    -74.148029,
    41.107513,
    -74.148029,
    41.107513
],
  "geometry": {"coordinates":[-74.14802899999999,41.107513],"type":"Point"}
}