{
  "id": 572171667,
  "type": "Feature",
  "properties": {
    "edtf:cessation":"uuuu",
    "edtf:inception":"uuuu",
    "geom:area":0.0,
    "geom:bbox":"-74.072245,40.64883,-74.072245,40.64883",
    "geom:latitude":40.64883,
    "geom:longitude":-74.072245,
    "iso:country":"US",
    "sg:address":"5 53rd St",
    "sg:city":"Brooklyn",
    "sg:classifiers":[
        {
            "category":"Personal",
            "subcategory":"",
            "type":"Services"
        }
    ],
    "sg:owner":"simplegeo",
    "sg:phone":"+1 718 836 0407",
    "sg:postcode":"11232",
    "sg:province":"NY",
    "sg:tags":[
        "mover"
    ],
    "src:geom":"simplegeo",
    "wof:belongsto":[
        85865889,
        102191575,
        404478127,
        85633793,
        85975307,
        102080719,
        85688607
    ],
    "wof:breaches":[],
    "wof:concordances":{
        "sg:id":"SG_2AnNEvc3476YQdyNtElXM0_40.648830_-74.072245@1303262348"
    },
    "wof:country":"US",
    "wof:geomhash":"a563db454f496691395e071d1959715b",
    "wof:hierarchy":[
        {
            "continent_id":102191575,
            "country_id":85633793,
            "county_id":102080719,
            "localadmin_id":404478127,
            "locality_id":85975307,
            "neighbourhood_id":85865889,
            "region_id":85688607,
            "venue_id":572171667
        }
    ],
    "wof:id":572171667,
    "wof:lastmodified":1461051460,
    "wof:name":"Exclusive Vanlines",
    "wof:parent_id":85865889,
    "wof:placetype":"venue",
    "wof:superseded_by":[],
    "wof:supersedes":[],
    "wof:tags":[
        "mover"
    ]
},
  "bbox": [
    -74.072245,
    40.64883,
    -74.072245,
    40.64883
],
  "geometry": {"coordinates":[-74.072245,40.64883],"type":"Point"}
}