{
  "id": 554935207,
  "type": "Feature",
  "properties": {
    "edtf:cessation":"uuuu",
    "edtf:inception":"uuuu",
    "geom:area":0.0,
    "geom:bbox":"-73.484637,41.147334,-73.484637,41.147334",
    "geom:latitude":41.147334,
    "geom:longitude":-73.484637,
    "iso:country":"US",
    "sg:address":"173 East Ave",
    "sg:city":"New Canaan",
    "sg:classifiers":[
        {
            "category":"Health Services",
            "subcategory":"Doctor",
            "type":"Services"
        }
    ],
    "sg:owner":"simplegeo",
    "sg:phone":"+1   ",
    "sg:postcode":"06840",
    "sg:province":"NY",
    "sg:tags":[
        "medical"
    ],
    "src:geom":"simplegeo",
    "wof:belongsto":[
        85688629,
        85633793,
        85851779,
        102084283
    ],
    "wof:breaches":[],
    "wof:concordances":{
        "sg:id":"SG_4SmfaXMhoxZts6SHAkfdul_41.147334_-73.484637@1294177022"
    },
    "wof:country":"US",
    "wof:geomhash":"cb8d5e134508399939c29f2b9ec33ba4",
    "wof:hierarchy":[
        {
            "country_id":85633793,
            "county_id":102084283,
            "neighbourhood_id":85851779,
            "region_id":85688629,
            "venue_id":554935207
        }
    ],
    "wof:id":554935207,
    "wof:lastmodified":1461017038,
    "wof:name":"Harrison J Pierce MD",
    "wof:parent_id":85851779,
    "wof:placetype":"venue",
    "wof:superseded_by":[],
    "wof:supersedes":[],
    "wof:tags":[
        "medical"
    ]
},
  "bbox": [
    -73.484637,
    41.147334,
    -73.484637,
    41.147334
],
  "geometry": {"coordinates":[-73.48463700000001,41.147334],"type":"Point"}
}