{
  "id": 554935865,
  "type": "Feature",
  "properties": {
    "edtf:cessation":"uuuu",
    "edtf:inception":"uuuu",
    "geom:area":0.0,
    "geom:bbox":"-73.524138,41.17815,-73.524138,41.17815",
    "geom:latitude":41.17815,
    "geom:longitude":-73.524138,
    "iso:country":"US",
    "sg:address":"27 Turtle Back Ln E",
    "sg:city":"New Canaan",
    "sg:classifiers":[
        {
            "category":"Banks & Credit Unions",
            "subcategory":"Investment Brokerage",
            "type":"Services"
        }
    ],
    "sg:owner":"simplegeo",
    "sg:phone":"+1 203 972 8102",
    "sg:postcode":"06840",
    "sg:province":"NY",
    "sg:tags":[
        "advisory",
        "financial"
    ],
    "src:geom":"simplegeo",
    "wof:belongsto":[],
    "wof:breaches":[],
    "wof:concordances":{
        "sg:id":"SG_0cnJdzUjTLz1yIhFUxamR8_41.178150_-73.524138@1294177022"
    },
    "wof:country":"US",
    "wof:geomhash":"8338253f1f76f90115dc1d21cc9eb959",
    "wof:hierarchy":[],
    "wof:id":554935865,
    "wof:lastmodified":1461017130,
    "wof:name":"Mc Brearity & Co",
    "wof:parent_id":-1,
    "wof:placetype":"venue",
    "wof:superseded_by":[],
    "wof:supersedes":[],
    "wof:tags":[
        "advisory",
        "financial"
    ]
},
  "bbox": [
    -73.524138,
    41.17815,
    -73.524138,
    41.17815
],
  "geometry": {"coordinates":[-73.52413799999999,41.17815],"type":"Point"}
}