{
  "id": 554942093,
  "type": "Feature",
  "properties": {
    "edtf:cessation":"uuuu",
    "edtf:inception":"uuuu",
    "geom:area":0.0,
    "geom:bbox":"-73.696962,41.112212,-73.696962,41.112212",
    "geom:latitude":41.112212,
    "geom:longitude":-73.696962,
    "iso:country":"US",
    "sg:address":"15 Steeple Chase Rd",
    "sg:city":"Greenwich",
    "sg:classifiers":[
        {
            "category":"Banks & Credit Unions",
            "subcategory":"Financial Services",
            "type":"Services"
        }
    ],
    "sg:owner":"simplegeo",
    "sg:phone":"+1 203 661 6166",
    "sg:postcode":"06831",
    "sg:province":"NY",
    "sg:tags":[
        "company",
        "investment",
        "private",
        "equity"
    ],
    "src:geom":"simplegeo",
    "wof:belongsto":[
        85688629,
        85633793,
        85837667,
        102084283
    ],
    "wof:breaches":[],
    "wof:concordances":{
        "sg:id":"SG_02fmGk01wGOhYyrccapIM5_41.112212_-73.696962@1294177022"
    },
    "wof:country":"US",
    "wof:geomhash":"420030108f09958c3b6e1137fc0bd3c3",
    "wof:hierarchy":[
        {
            "country_id":85633793,
            "county_id":102084283,
            "neighbourhood_id":85837667,
            "region_id":85688629,
            "venue_id":554942093
        }
    ],
    "wof:id":554942093,
    "wof:lastmodified":1461017847,
    "wof:name":"W Capital Management LLC",
    "wof:parent_id":85837667,
    "wof:placetype":"venue",
    "wof:superseded_by":[],
    "wof:supersedes":[],
    "wof:tags":[
        "company",
        "investment",
        "private",
        "equity"
    ]
},
  "bbox": [
    -73.696962,
    41.112212,
    -73.696962,
    41.112212
],
  "geometry": {"coordinates":[-73.696962,41.112212],"type":"Point"}
}