{
  "id": 554936797,
  "type": "Feature",
  "properties": {
    "edtf:cessation":"uuuu",
    "edtf:inception":"uuuu",
    "geom:area":0.0,
    "geom:bbox":"-73.667015,41.035504,-73.667015,41.035504",
    "geom:latitude":41.035504,
    "geom:longitude":-73.667015,
    "iso:country":"US",
    "sg:address":"8 Sioux Pl",
    "sg:city":"Greenwich",
    "sg:classifiers":[
        {
            "category":"Utilities",
            "subcategory":"Fuel Oil & Lpg",
            "type":"Services"
        }
    ],
    "sg:owner":"simplegeo",
    "sg:phone":"+1 203 531 6128",
    "sg:postcode":"06831",
    "sg:province":"NY",
    "sg:tags":[
        "wood"
    ],
    "src:geom":"simplegeo",
    "wof:belongsto":[
        420555461,
        102191575,
        404495949,
        85633793,
        85930937,
        102084283,
        85688629
    ],
    "wof:breaches":[],
    "wof:concordances":{
        "sg:id":"SG_3CTBvG3kcwVqfKFXnNQImi_41.035504_-73.667015@1294177022"
    },
    "wof:country":"US",
    "wof:geomhash":"dd91dbb3be39e720dd9bbaaf5bc04736",
    "wof:hierarchy":[
        {
            "continent_id":102191575,
            "country_id":85633793,
            "county_id":102084283,
            "localadmin_id":404495949,
            "locality_id":85930937,
            "neighbourhood_id":420555461,
            "region_id":85688629,
            "venue_id":554936797
        }
    ],
    "wof:id":554936797,
    "wof:lastmodified":1461017276,
    "wof:name":"Teds Landscaping",
    "wof:parent_id":420555461,
    "wof:placetype":"venue",
    "wof:superseded_by":[],
    "wof:supersedes":[],
    "wof:tags":[
        "wood"
    ]
},
  "bbox": [
    -73.667015,
    41.035504,
    -73.667015,
    41.035504
],
  "geometry": {"coordinates":[-73.66701500000001,41.035504],"type":"Point"}
}