{
  "id": 554939695,
  "type": "Feature",
  "properties": {
    "edtf:cessation":"uuuu",
    "edtf:inception":"uuuu",
    "geom:area":0.0,
    "geom:bbox":"-73.499406,41.136286,-73.499406,41.136286",
    "geom:latitude":41.136286,
    "geom:longitude":-73.499406,
    "iso:country":"US",
    "sg:address":"128 Marshall Ridge Rd",
    "sg:city":"New Canaan",
    "sg:classifiers":[
        {
            "category":"Education",
            "subcategory":"Dance Studio",
            "type":"Public Place"
        }
    ],
    "sg:owner":"simplegeo",
    "sg:phone":"+1   ",
    "sg:postcode":"06840",
    "sg:province":"NY",
    "src:geom":"simplegeo",
    "wof:belongsto":[
        85688629,
        85633793,
        85851779,
        102084283
    ],
    "wof:breaches":[],
    "wof:concordances":{
        "sg:id":"SG_6L45vBPzW8bz0MKCPmerbd_41.136286_-73.499406@1294177022"
    },
    "wof:country":"US",
    "wof:geomhash":"4bcb4d5f38e840cadba1e90a82c57d4f",
    "wof:hierarchy":[
        {
            "country_id":85633793,
            "county_id":102084283,
            "neighbourhood_id":85851779,
            "region_id":85688629,
            "venue_id":554939695
        }
    ],
    "wof:id":554939695,
    "wof:lastmodified":1461017587,
    "wof:name":"New England Academy of Dance",
    "wof:parent_id":85851779,
    "wof:placetype":"venue",
    "wof:superseded_by":[],
    "wof:supersedes":[],
    "wof:tags":[]
},
  "bbox": [
    -73.499406,
    41.136286,
    -73.499406,
    41.136286
],
  "geometry": {"coordinates":[-73.49940599999999,41.136286],"type":"Point"}
}