{
  "id": 554935681,
  "type": "Feature",
  "properties": {
    "edtf:cessation":"uuuu",
    "edtf:inception":"uuuu",
    "geom:area":0.0,
    "geom:bbox":"-74.060856,41.07597,-74.060856,41.07597",
    "geom:latitude":41.07597,
    "geom:longitude":-74.060856,
    "iso:country":"US",
    "sg:address":"26 Summit Rd",
    "sg:city":"Spring Valley",
    "sg:classifiers":[
        {
            "category":"Building & Trades",
            "subcategory":"Landscaping Services",
            "type":"Services"
        }
    ],
    "sg:owner":"simplegeo",
    "sg:phone":"+1 845 429 5141",
    "sg:postcode":"10977",
    "sg:province":"NY",
    "sg:tags":[
        "lawn",
        "maintenance",
        "grounds"
    ],
    "src:geom":"simplegeo",
    "wof:belongsto":[
        85853261,
        102191575,
        404523097,
        85633793,
        85978555,
        102082385,
        85688543
    ],
    "wof:breaches":[],
    "wof:concordances":{
        "sg:id":"SG_3zPqqWjU3bMfSRxmD4MFbh_41.075970_-74.060856@1294177022"
    },
    "wof:country":"US",
    "wof:geomhash":"4a3523e58762e75c70f49484dbe8859a",
    "wof:hierarchy":[
        {
            "continent_id":102191575,
            "country_id":85633793,
            "county_id":102082385,
            "localadmin_id":404523097,
            "locality_id":85978555,
            "neighbourhood_id":85853261,
            "region_id":85688543,
            "venue_id":554935681
        }
    ],
    "wof:id":554935681,
    "wof:lastmodified":1461017107,
    "wof:name":"C M Lawn Svc Inc",
    "wof:parent_id":85853261,
    "wof:placetype":"venue",
    "wof:superseded_by":[],
    "wof:supersedes":[],
    "wof:tags":[
        "lawn",
        "maintenance",
        "grounds"
    ]
},
  "bbox": [
    -74.060856,
    41.07597,
    -74.060856,
    41.07597
],
  "geometry": {"coordinates":[-74.060856,41.07597],"type":"Point"}
}