{
  "id": 554936215,
  "type": "Feature",
  "properties": {
    "edtf:cessation":"uuuu",
    "edtf:inception":"uuuu",
    "geom:area":0.0,
    "geom:bbox":"-73.647747,41.063254,-73.647747,41.063254",
    "geom:latitude":41.063254,
    "geom:longitude":-73.647747,
    "iso:country":"US",
    "sg:address":"21 Khakum Wood Rd",
    "sg:city":"Greenwich",
    "sg:classifiers":[
        {
            "category":"Professional",
            "subcategory":"",
            "type":"Services"
        }
    ],
    "sg:owner":"simplegeo",
    "sg:phone":"+1   ",
    "sg:postcode":"06831",
    "sg:province":"NY",
    "src:geom":"simplegeo",
    "wof:belongsto":[
        420555529,
        102191575,
        404495949,
        85633793,
        85930941,
        102084283,
        85688629
    ],
    "wof:breaches":[],
    "wof:concordances":{
        "sg:id":"SG_3l1m5DOcu5GEcFe8lBus2Q_41.063254_-73.647747@1294177022"
    },
    "wof:country":"US",
    "wof:geomhash":"62e1e4c6e9e9a0f9ad2d23fd1aff4f4e",
    "wof:hierarchy":[
        {
            "continent_id":102191575,
            "country_id":85633793,
            "county_id":102084283,
            "localadmin_id":404495949,
            "locality_id":85930941,
            "neighbourhood_id":420555529,
            "region_id":85688629,
            "venue_id":554936215
        }
    ],
    "wof:id":554936215,
    "wof:lastmodified":1461017184,
    "wof:name":"David L Katsky",
    "wof:parent_id":420555529,
    "wof:placetype":"venue",
    "wof:superseded_by":[],
    "wof:supersedes":[],
    "wof:tags":[]
},
  "bbox": [
    -73.647747,
    41.063254,
    -73.647747,
    41.063254
],
  "geometry": {"coordinates":[-73.647747,41.063254],"type":"Point"}
}