{
  "id": 554937317,
  "type": "Feature",
  "properties": {
    "edtf:cessation":"uuuu",
    "edtf:inception":"uuuu",
    "geom:area":0.0,
    "geom:bbox":"-73.492441,41.147428,-73.492441,41.147428",
    "geom:latitude":41.147428,
    "geom:longitude":-73.492441,
    "iso:country":"US",
    "sg:address":"95 Main St",
    "sg:city":"New Canaan",
    "sg:classifiers":[
        {
            "category":"Banks & Credit Unions",
            "subcategory":"Bank",
            "type":"Services"
        }
    ],
    "sg:owner":"simplegeo",
    "sg:phone":"+1 203 966 3630",
    "sg:postcode":"06840",
    "sg:province":"NY",
    "sg:tags":[
        "federal",
        "savings",
        "institution"
    ],
    "src:geom":"simplegeo",
    "wof:belongsto":[
        85688629,
        85633793,
        85851779,
        102084283
    ],
    "wof:breaches":[],
    "wof:concordances":{
        "sg:id":"SG_0QGmTRsTK30VGPaxexfyIS_41.147428_-73.492441@1294177022"
    },
    "wof:country":"US",
    "wof:geomhash":"16a953362892d3957dd941074f44e332",
    "wof:hierarchy":[
        {
            "country_id":85633793,
            "county_id":102084283,
            "neighbourhood_id":85851779,
            "region_id":85688629,
            "venue_id":554937317
        }
    ],
    "wof:id":554937317,
    "wof:lastmodified":1461017351,
    "wof:name":"Peoples Bank 41",
    "wof:parent_id":85851779,
    "wof:placetype":"venue",
    "wof:superseded_by":[],
    "wof:supersedes":[],
    "wof:tags":[
        "federal",
        "savings",
        "institution"
    ]
},
  "bbox": [
    -73.492441,
    41.147428,
    -73.492441,
    41.147428
],
  "geometry": {"coordinates":[-73.492441,41.147428],"type":"Point"}
}