{
  "id": 554934859,
  "type": "Feature",
  "properties": {
    "edtf:cessation":"uuuu",
    "edtf:inception":"uuuu",
    "geom:area":0.0,
    "geom:bbox":"-73.607116,41.172669,-73.607116,41.172669",
    "geom:latitude":41.172669,
    "geom:longitude":-73.607116,
    "iso:country":"US",
    "sg:address":"10 Fox Hill Rd",
    "sg:city":"Pound Ridge",
    "sg:classifiers":[
        {
            "category":"Building & Trades",
            "subcategory":"Construction",
            "type":"Services"
        }
    ],
    "sg:owner":"simplegeo",
    "sg:phone":"+1 914 764 1417",
    "sg:postcode":"10576",
    "sg:province":"NY",
    "sg:tags":[
        "nonresidential"
    ],
    "src:geom":"simplegeo",
    "wof:belongsto":[
        85688629,
        85633793,
        85930787,
        102084283,
        85838073
    ],
    "wof:breaches":[],
    "wof:concordances":{
        "sg:id":"SG_6vO9sBSoLmh5meSn1tgp9e_41.172669_-73.607116@1294177022"
    },
    "wof:country":"US",
    "wof:geomhash":"c3aa6f992f63e0912753a3fb0024d666",
    "wof:hierarchy":[
        {
            "country_id":85633793,
            "county_id":102084283,
            "locality_id":85930787,
            "neighbourhood_id":85838073,
            "region_id":85688629,
            "venue_id":554934859
        }
    ],
    "wof:id":554934859,
    "wof:lastmodified":1461016992,
    "wof:name":"Oasis Construction",
    "wof:parent_id":85838073,
    "wof:placetype":"venue",
    "wof:superseded_by":[],
    "wof:supersedes":[],
    "wof:tags":[
        "nonresidential"
    ]
},
  "bbox": [
    -73.607116,
    41.172669,
    -73.607116,
    41.172669
],
  "geometry": {"coordinates":[-73.607116,41.172669],"type":"Point"}
}