{
  "id": 571644071,
  "type": "Feature",
  "properties": {
    "edtf:cessation":"uuuu",
    "edtf:inception":"uuuu",
    "geom:area":0.0,
    "geom:bbox":"-73.781027,41.121982,-73.781027,41.121982",
    "geom:latitude":41.121982,
    "geom:longitude":-73.781027,
    "iso:country":"US",
    "sg:address":"860 Commerce St",
    "sg:city":"Thornwood",
    "sg:classifiers":[
        {
            "category":"Professional",
            "subcategory":"Accounting & Tax Preparation",
            "type":"Services"
        }
    ],
    "sg:owner":"simplegeo",
    "sg:phone":"+1 914 747 6276",
    "sg:postcode":"10594",
    "sg:province":"NY",
    "sg:tags":[
        "accountant"
    ],
    "src:geom":"simplegeo",
    "wof:belongsto":[],
    "wof:breaches":[],
    "wof:concordances":{
        "sg:id":"SG_5Qt8Uz0dlORUWZOa5SBiA3_41.122373_-73.780915@1293134755"
    },
    "wof:country":"US",
    "wof:geomhash":"ca80bc993c26c9b15ee426c575aeadd8",
    "wof:hierarchy":[],
    "wof:id":571644071,
    "wof:lastmodified":1461040415,
    "wof:name":"Con-Tax Inc",
    "wof:parent_id":-1,
    "wof:placetype":"venue",
    "wof:superseded_by":[],
    "wof:supersedes":[],
    "wof:tags":[
        "accountant"
    ]
},
  "bbox": [
    -73.781027,
    41.121982,
    -73.781027,
    41.121982
],
  "geometry": {"coordinates":[-73.78102699999999,41.121982],"type":"Point"}
}