{
  "id": 554938997,
  "type": "Feature",
  "properties": {
    "edtf:cessation":"uuuu",
    "edtf:inception":"uuuu",
    "geom:area":0.0,
    "geom:bbox":"-73.503227,41.135549,-73.503227,41.135549",
    "geom:latitude":41.135549,
    "geom:longitude":-73.503227,
    "iso:country":"US",
    "sg:address":"484 Weed St",
    "sg:city":"New Canaan",
    "sg:classifiers":[
        {
            "category":"Banks & Credit Unions",
            "subcategory":"Investment Brokerage",
            "type":"Services"
        }
    ],
    "sg:owner":"simplegeo",
    "sg:phone":"+1 203 966 2926",
    "sg:postcode":"06840",
    "sg:province":"NY",
    "sg:tags":[
        "advisory"
    ],
    "src:geom":"simplegeo",
    "wof:belongsto":[
        85688629,
        85633793,
        85851779,
        102084283
    ],
    "wof:breaches":[],
    "wof:concordances":{
        "sg:id":"SG_1GvzEQTjLimtg0DFpzbpGm_41.135549_-73.503227@1294177022"
    },
    "wof:country":"US",
    "wof:geomhash":"acd497bd9fcad287967226f0d173c4e5",
    "wof:hierarchy":[
        {
            "country_id":85633793,
            "county_id":102084283,
            "neighbourhood_id":85851779,
            "region_id":85688629,
            "venue_id":554938997
        }
    ],
    "wof:id":554938997,
    "wof:lastmodified":1461017518,
    "wof:name":"Robert W Cruickshank & Co",
    "wof:parent_id":85851779,
    "wof:placetype":"venue",
    "wof:superseded_by":[],
    "wof:supersedes":[],
    "wof:tags":[
        "advisory"
    ]
},
  "bbox": [
    -73.503227,
    41.135549,
    -73.503227,
    41.135549
],
  "geometry": {"coordinates":[-73.503227,41.135549],"type":"Point"}
}