{
  "id": 554939491,
  "type": "Feature",
  "properties": {
    "edtf:cessation":"uuuu",
    "edtf:inception":"uuuu",
    "geom:area":0.0,
    "geom:bbox":"-73.500965,41.141453,-73.500965,41.141453",
    "geom:latitude":41.141453,
    "geom:longitude":-73.500965,
    "iso:country":"US",
    "sg:address":"110 Richmond Hill Rd",
    "sg:city":"New Canaan",
    "sg:classifiers":[
        {
            "category":"Manufacturing",
            "subcategory":"Printing",
            "type":"Manufacturing & Wholesale Goods"
        }
    ],
    "sg:owner":"simplegeo",
    "sg:phone":"+1 203 801 4387",
    "sg:postcode":"06840",
    "sg:province":"NY",
    "sg:tags":[
        "multimedia"
    ],
    "src:geom":"simplegeo",
    "wof:belongsto":[
        85688629,
        85633793,
        85851779,
        102084283
    ],
    "wof:breaches":[],
    "wof:concordances":{
        "sg:id":"SG_3HflxvtxzSnSUvaKX7gWZ5_41.141453_-73.500965@1294177022"
    },
    "wof:country":"US",
    "wof:geomhash":"8f9c914bbe93ebf0848a3ecb0edfebee",
    "wof:hierarchy":[
        {
            "country_id":85633793,
            "county_id":102084283,
            "neighbourhood_id":85851779,
            "region_id":85688629,
            "venue_id":554939491
        }
    ],
    "wof:id":554939491,
    "wof:lastmodified":1461017570,
    "wof:name":"Robert Hellmann Inc",
    "wof:parent_id":85851779,
    "wof:placetype":"venue",
    "wof:superseded_by":[],
    "wof:supersedes":[],
    "wof:tags":[
        "multimedia"
    ]
},
  "bbox": [
    -73.500965,
    41.141453,
    -73.500965,
    41.141453
],
  "geometry": {"coordinates":[-73.50096499999999,41.141453],"type":"Point"}
}