{
  "id": 572170497,
  "type": "Feature",
  "properties": {
    "edtf:cessation":"uuuu",
    "edtf:inception":"uuuu",
    "geom:area":0.0,
    "geom:bbox":"-74.268067,40.610499,-74.268067,40.610499",
    "geom:latitude":40.610499,
    "geom:longitude":-74.268067,
    "iso:country":"US",
    "sg:address":"8161 New Utrecht Ave",
    "sg:city":"Brooklyn",
    "sg:classifiers":[
        {
            "category":"Personal",
            "subcategory":"",
            "type":"Services"
        }
    ],
    "sg:owner":"simplegeo",
    "sg:phone":"+1 718 252 6120",
    "sg:postcode":"11214",
    "sg:province":"NY",
    "sg:tags":[
        "sewing",
        "alteration"
    ],
    "src:geom":"simplegeo",
    "wof:belongsto":[],
    "wof:breaches":[],
    "wof:concordances":{
        "sg:id":"SG_2VbFSZZXWp7zjhoFSuxfkb_40.610499_-74.268067@1303262341"
    },
    "wof:country":"US",
    "wof:geomhash":"71ac26ec1ea328695c825f1551a11c37",
    "wof:hierarchy":[],
    "wof:id":572170497,
    "wof:lastmodified":1461051423,
    "wof:name":"Listo Design Studio",
    "wof:parent_id":-1,
    "wof:placetype":"venue",
    "wof:superseded_by":[],
    "wof:supersedes":[],
    "wof:tags":[
        "sewing",
        "alteration"
    ]
},
  "bbox": [
    -74.268067,
    40.610499,
    -74.268067,
    40.610499
],
  "geometry": {"coordinates":[-74.268067,40.610499],"type":"Point"}
}