{
  "id": 555049513,
  "type": "Feature",
  "properties": {
    "edtf:cessation":"uuuu",
    "edtf:inception":"uuuu",
    "geom:area":0.0,
    "geom:bbox":"-73.833639,43.309002,-73.833639,43.309002",
    "geom:latitude":43.309002,
    "geom:longitude":-73.833639,
    "iso:country":"US",
    "sg:address":"69 Lake Ave",
    "sg:city":"Lake Luzerne",
    "sg:classifiers":[
        {
            "category":"Home & Garden",
            "subcategory":"Hardware",
            "type":"Retail Goods"
        }
    ],
    "sg:owner":"simplegeo",
    "sg:phone":"+1   ",
    "sg:postcode":"12846",
    "sg:province":"NY",
    "src:geom":"simplegeo",
    "wof:belongsto":[],
    "wof:breaches":[],
    "wof:concordances":{
        "sg:id":"SG_6Mw5nGZiGDKusaLf7xno62_43.309002_-73.833639@1294177022"
    },
    "wof:country":"US",
    "wof:geomhash":"f1692e7516a356983925900f8eb1587c",
    "wof:hierarchy":[],
    "wof:id":555049513,
    "wof:lastmodified":1461020627,
    "wof:name":"Hardware Store",
    "wof:parent_id":420530277,
    "wof:placetype":"venue",
    "wof:superseded_by":[],
    "wof:supersedes":[],
    "wof:tags":[]
},
  "bbox": [
    -73.833639,
    43.309002,
    -73.833639,
    43.309002
],
  "geometry": {"coordinates":[-73.83363900000001,43.309002],"type":"Point"}
}