{
  "id": 554941973,
  "type": "Feature",
  "properties": {
    "edtf:cessation":"uuuu",
    "edtf:inception":"uuuu",
    "geom:area":0.0,
    "geom:bbox":"-73.229911,42.538163,-73.229911,42.538163",
    "geom:latitude":42.538163,
    "geom:longitude":-73.229911,
    "iso:country":"US",
    "sg:address":"20 Williamstown Rd",
    "sg:city":"Lanesboro",
    "sg:classifiers":[
        {
            "category":"Travel",
            "subcategory":"Hotels & Motels",
            "type":"Entertainment"
        }
    ],
    "sg:owner":"simplegeo",
    "sg:phone":"+1 413 236 5885",
    "sg:postcode":"01237",
    "sg:province":"NY",
    "sg:tags":[
        "resort"
    ],
    "src:geom":"simplegeo",
    "wof:belongsto":[
        85688645,
        85633793,
        85829509,
        102084369
    ],
    "wof:breaches":[],
    "wof:concordances":{
        "sg:id":"SG_7BlkW7TyhFzYTmotukMRdb_42.538163_-73.229911@1294177022"
    },
    "wof:country":"US",
    "wof:geomhash":"ee08617e98e4ed1d09a89685d15200ee",
    "wof:hierarchy":[
        {
            "country_id":85633793,
            "county_id":102084369,
            "neighbourhood_id":85829509,
            "region_id":85688645,
            "venue_id":554941973
        }
    ],
    "wof:id":554941973,
    "wof:lastmodified":1461017826,
    "wof:name":"Vacation Village",
    "wof:parent_id":85829509,
    "wof:placetype":"venue",
    "wof:superseded_by":[],
    "wof:supersedes":[],
    "wof:tags":[
        "resort"
    ]
},
  "bbox": [
    -73.229911,
    42.538163,
    -73.229911,
    42.538163
],
  "geometry": {"coordinates":[-73.229911,42.538163],"type":"Point"}
}