{
  "id": 555116851,
  "type": "Feature",
  "properties": {
    "edtf:cessation":"uuuu",
    "edtf:inception":"uuuu",
    "geom:area":0.0,
    "geom:bbox":"-73.812983,42.475131,-73.812983,42.475131",
    "geom:latitude":42.475131,
    "geom:longitude":-73.812983,
    "iso:country":"US",
    "sg:address":"11 Pulver Ave",
    "sg:city":"Ravena",
    "sg:classifiers":[
        {
            "category":"Building & Trades",
            "subcategory":"Construction",
            "type":"Services"
        }
    ],
    "sg:owner":"simplegeo",
    "sg:phone":"+1 518 756 9780",
    "sg:postcode":"12143",
    "sg:province":"NY",
    "src:geom":"simplegeo",
    "wof:belongsto":[],
    "wof:breaches":[],
    "wof:concordances":{
        "sg:id":"SG_1mNMXnYKwW0N9kuDbP59yf_42.475131_-73.812983@1294177022"
    },
    "wof:country":"US",
    "wof:geomhash":"a6fe73a24606199e990157881c0ea0ce",
    "wof:hierarchy":[],
    "wof:id":555116851,
    "wof:lastmodified":1461022418,
    "wof:name":"S Stanley Paving",
    "wof:parent_id":420527993,
    "wof:placetype":"venue",
    "wof:superseded_by":[],
    "wof:supersedes":[],
    "wof:tags":[]
},
  "bbox": [
    -73.812983,
    42.475131,
    -73.812983,
    42.475131
],
  "geometry": {"coordinates":[-73.812983,42.475131],"type":"Point"}
}