{
  "id": 554936849,
  "type": "Feature",
  "properties": {
    "edtf:cessation":"uuuu",
    "edtf:inception":"uuuu",
    "geom:area":0.0,
    "geom:bbox":"-73.4891,41.148675,-73.4891,41.148675",
    "geom:latitude":41.148675,
    "geom:longitude":-73.4891,
    "iso:country":"US",
    "sg:address":"42 Vitti St",
    "sg:city":"New Canaan",
    "sg:classifiers":[
        {
            "category":"Manufacturing",
            "subcategory":"Printing",
            "type":"Manufacturing & Wholesale Goods"
        }
    ],
    "sg:owner":"simplegeo",
    "sg:phone":"+1 203 966 9541",
    "sg:postcode":"06840",
    "sg:province":"NY",
    "sg:tags":[
        "newspaper"
    ],
    "sg:website":"www.acorn-online.com",
    "src:geom":"simplegeo",
    "wof:belongsto":[
        85688629,
        85633793,
        85851779,
        102084283
    ],
    "wof:breaches":[],
    "wof:concordances":{
        "sg:id":"SG_0iuka2DS2T95ADpdL6tUWl_41.148675_-73.489100@1294177022"
    },
    "wof:country":"US",
    "wof:geomhash":"05fbf5810229ecdcebcc04525e27753c",
    "wof:hierarchy":[
        {
            "country_id":85633793,
            "county_id":102084283,
            "neighbourhood_id":85851779,
            "region_id":85688629,
            "venue_id":554936849
        }
    ],
    "wof:id":554936849,
    "wof:lastmodified":1461017282,
    "wof:name":"New Canaan Advertiser",
    "wof:parent_id":85851779,
    "wof:placetype":"venue",
    "wof:superseded_by":[],
    "wof:supersedes":[],
    "wof:tags":[
        "newspaper"
    ]
},
  "bbox": [
    -73.4891,
    41.148675,
    -73.4891,
    41.148675
],
  "geometry": {"coordinates":[-73.48909999999999,41.148675],"type":"Point"}
}