{
  "id": 554934013,
  "type": "Feature",
  "properties": {
    "edtf:cessation":"uuuu",
    "edtf:inception":"uuuu",
    "geom:area":0.0,
    "geom:bbox":"-73.665496,41.03679,-73.665496,41.03679",
    "geom:latitude":41.03679,
    "geom:longitude":-73.665496,
    "iso:country":"US",
    "sg:address":"340 Pemberwick Rd",
    "sg:city":"Greenwich",
    "sg:classifiers":[
        {
            "category":"Communications",
            "subcategory":"",
            "type":"Services"
        }
    ],
    "sg:owner":"simplegeo",
    "sg:phone":"+1 203 618 0603",
    "sg:postcode":"06831",
    "sg:province":"NY",
    "src:geom":"simplegeo",
    "wof:belongsto":[
        420555461,
        102191575,
        404495949,
        85633793,
        85930937,
        102084283,
        85688629
    ],
    "wof:breaches":[],
    "wof:concordances":{
        "sg:id":"SG_6W5bZqrPRCOyaB46J3I7iG_41.036790_-73.665496@1294177022"
    },
    "wof:country":"US",
    "wof:geomhash":"a46a454e6af068dcab996c324dd434ec",
    "wof:hierarchy":[
        {
            "continent_id":102191575,
            "country_id":85633793,
            "county_id":102084283,
            "localadmin_id":404495949,
            "locality_id":85930937,
            "neighbourhood_id":420555461,
            "region_id":85688629,
            "venue_id":554934013
        }
    ],
    "wof:id":554934013,
    "wof:lastmodified":1461016884,
    "wof:name":"Moonbeam Communications",
    "wof:parent_id":420555461,
    "wof:placetype":"venue",
    "wof:superseded_by":[],
    "wof:supersedes":[],
    "wof:tags":[]
},
  "bbox": [
    -73.665496,
    41.03679,
    -73.665496,
    41.03679
],
  "geometry": {"coordinates":[-73.665496,41.03679],"type":"Point"}
}