{
  "id": 554941149,
  "type": "Feature",
  "properties": {
    "edtf:cessation":"uuuu",
    "edtf:inception":"uuuu",
    "geom:area":0.0,
    "geom:bbox":"-73.665541,41.043088,-73.665541,41.043088",
    "geom:latitude":41.043088,
    "geom:longitude":-73.665541,
    "iso:country":"US",
    "sg:address":"17 Harkim Rd",
    "sg:city":"Greenwich",
    "sg:classifiers":[
        {
            "category":"Building & Trades",
            "subcategory":"Construction",
            "type":"Services"
        }
    ],
    "sg:owner":"simplegeo",
    "sg:phone":"+1 203 531 8552",
    "sg:postcode":"06831",
    "sg:province":"NY",
    "sg:tags":[
        "general",
        "contractor"
    ],
    "src:geom":"simplegeo",
    "wof:belongsto":[
        420555461,
        102191575,
        404495949,
        85633793,
        85930937,
        102084283,
        85688629
    ],
    "wof:breaches":[],
    "wof:concordances":{
        "sg:id":"SG_45K9Jo1uVy0W2jY3YHYjPv_41.043088_-73.665541@1294177022"
    },
    "wof:country":"US",
    "wof:geomhash":"f5cb08438b3e48420f57288d3b02ecba",
    "wof:hierarchy":[
        {
            "continent_id":102191575,
            "country_id":85633793,
            "county_id":102084283,
            "localadmin_id":404495949,
            "locality_id":85930937,
            "neighbourhood_id":420555461,
            "region_id":85688629,
            "venue_id":554941149
        }
    ],
    "wof:id":554941149,
    "wof:lastmodified":1461017715,
    "wof:name":"American Home Assocs Inc",
    "wof:parent_id":420555461,
    "wof:placetype":"venue",
    "wof:superseded_by":[],
    "wof:supersedes":[],
    "wof:tags":[
        "general",
        "contractor"
    ]
},
  "bbox": [
    -73.665541,
    41.043088,
    -73.665541,
    41.043088
],
  "geometry": {"coordinates":[-73.665541,41.043088],"type":"Point"}
}