{
  "id": 554938455,
  "type": "Feature",
  "properties": {
    "edtf:cessation":"uuuu",
    "edtf:inception":"uuuu",
    "geom:area":0.0,
    "geom:bbox":"-73.487744,41.150668,-73.487744,41.150668",
    "geom:latitude":41.150668,
    "geom:longitude":-73.487744,
    "iso:country":"US",
    "sg:address":"123 New Norwalk Rd",
    "sg:city":"New Canaan",
    "sg:classifiers":[
        {
            "category":"Government",
            "subcategory":"Office",
            "type":"Public Place"
        }
    ],
    "sg:owner":"simplegeo",
    "sg:phone":"+1 203 972 0181",
    "sg:postcode":"06840",
    "sg:province":"NY",
    "sg:tags":[
        "village"
    ],
    "src:geom":"simplegeo",
    "wof:belongsto":[
        85688629,
        85633793,
        85851779,
        102084283
    ],
    "wof:breaches":[],
    "wof:concordances":{
        "sg:id":"SG_1EKykLpy983OrxmcOvbbRb_41.150668_-73.487744@1294177022"
    },
    "wof:country":"US",
    "wof:geomhash":"81ca20707f514aadb2232600517ac5c3",
    "wof:hierarchy":[
        {
            "country_id":85633793,
            "county_id":102084283,
            "neighbourhood_id":85851779,
            "region_id":85688629,
            "venue_id":554938455
        }
    ],
    "wof:id":554938455,
    "wof:lastmodified":1461017480,
    "wof:name":"New Canaan Transfer Station",
    "wof:parent_id":85851779,
    "wof:placetype":"venue",
    "wof:superseded_by":[],
    "wof:supersedes":[],
    "wof:tags":[
        "village"
    ]
},
  "bbox": [
    -73.487744,
    41.150668,
    -73.487744,
    41.150668
],
  "geometry": {"coordinates":[-73.48774400000001,41.150668],"type":"Point"}
}