{
  "id": 554936969,
  "type": "Feature",
  "properties": {
    "edtf:cessation":"uuuu",
    "edtf:inception":"uuuu",
    "geom:area":0.0,
    "geom:bbox":"-73.645329,41.047607,-73.645329,41.047607",
    "geom:latitude":41.047607,
    "geom:longitude":-73.645329,
    "iso:country":"US",
    "sg:address":"32 Vineyard Ln",
    "sg:city":"Greenwich",
    "sg:classifiers":[
        {
            "category":"Professional",
            "subcategory":"",
            "type":"Services"
        }
    ],
    "sg:owner":"simplegeo",
    "sg:phone":"+1 203 625 9883",
    "sg:postcode":"06831",
    "sg:province":"NY",
    "src:geom":"simplegeo",
    "wof:belongsto":[
        420555529,
        102191575,
        404495949,
        85633793,
        85930941,
        102084283,
        85688629
    ],
    "wof:breaches":[],
    "wof:concordances":{
        "sg:id":"SG_3z0lDMYaTSUACknjC1F8P9_41.047607_-73.645329@1294177022"
    },
    "wof:country":"US",
    "wof:geomhash":"24a7358eccc9cfb7c7b46fc0560b51a7",
    "wof:hierarchy":[
        {
            "continent_id":102191575,
            "country_id":85633793,
            "county_id":102084283,
            "localadmin_id":404495949,
            "locality_id":85930941,
            "neighbourhood_id":420555529,
            "region_id":85688629,
            "venue_id":554936969
        }
    ],
    "wof:id":554936969,
    "wof:lastmodified":1461017299,
    "wof:name":"Ellsworth Ford Assoc LLC",
    "wof:parent_id":420555529,
    "wof:placetype":"venue",
    "wof:superseded_by":[],
    "wof:supersedes":[],
    "wof:tags":[]
},
  "bbox": [
    -73.645329,
    41.047607,
    -73.645329,
    41.047607
],
  "geometry": {"coordinates":[-73.645329,41.047607],"type":"Point"}
}