{
  "id": 572170745,
  "type": "Feature",
  "properties": {
    "edtf:cessation":"uuuu",
    "edtf:inception":"uuuu",
    "geom:area":0.0,
    "geom:bbox":"-74.205138,40.643204,-74.205138,40.643204",
    "geom:latitude":40.643204,
    "geom:longitude":-74.205138,
    "iso:country":"US",
    "sg:address":"5323 5th Ave",
    "sg:city":"Brooklyn",
    "sg:classifiers":[
        {
            "category":"Banks & Credit Unions",
            "subcategory":"Bank",
            "type":"Services"
        }
    ],
    "sg:owner":"simplegeo",
    "sg:phone":"+1 718 492 0650",
    "sg:postcode":"11220",
    "sg:province":"NY",
    "sg:website":"www.chase.com",
    "src:geom":"simplegeo",
    "wof:belongsto":[
        420527719,
        102191575,
        404478497,
        85633793,
        85975847,
        102085995,
        85688607
    ],
    "wof:breaches":[],
    "wof:concordances":{
        "sg:id":"SG_1w5cvvP6UXqjrwWRwwL8Kb_40.643204_-74.205138@1303262344"
    },
    "wof:country":"US",
    "wof:geomhash":"0d397f7191a50c0b53ca428fa980046e",
    "wof:hierarchy":[
        {
            "continent_id":102191575,
            "country_id":85633793,
            "county_id":102085995,
            "localadmin_id":404478497,
            "locality_id":85975847,
            "neighbourhood_id":420527719,
            "region_id":85688607,
            "venue_id":572170745
        }
    ],
    "wof:id":572170745,
    "wof:lastmodified":1461051431,
    "wof:name":"Chase",
    "wof:parent_id":420527719,
    "wof:placetype":"venue",
    "wof:superseded_by":[],
    "wof:supersedes":[],
    "wof:tags":[]
},
  "bbox": [
    -74.205138,
    40.643204,
    -74.205138,
    40.643204
],
  "geometry": {"coordinates":[-74.20513800000001,40.643204],"type":"Point"}
}