{
  "id": 554941981,
  "type": "Feature",
  "properties": {
    "edtf:cessation":"uuuu",
    "edtf:inception":"uuuu",
    "geom:area":0.0,
    "geom:bbox":"-73.499335,41.145343,-73.499335,41.145343",
    "geom:latitude":41.145343,
    "geom:longitude":-73.499335,
    "iso:country":"US",
    "sg:address":"41 Grove St",
    "sg:city":"New Canaan",
    "sg:classifiers":[
        {
            "category":"Manufacturing",
            "subcategory":"Printing",
            "type":"Manufacturing & Wholesale Goods"
        }
    ],
    "sg:owner":"simplegeo",
    "sg:phone":"+1 203 966 0077",
    "sg:postcode":"06840",
    "sg:province":"NY",
    "sg:tags":[
        "publisher"
    ],
    "src:geom":"simplegeo",
    "wof:belongsto":[
        85688629,
        85633793,
        85851779,
        102084283
    ],
    "wof:breaches":[],
    "wof:concordances":{
        "sg:id":"SG_2WkdUheIzXjqAHh7eYU13i_41.145343_-73.499335@1294177022"
    },
    "wof:country":"US",
    "wof:geomhash":"b132e4d73579ca606aa3c2b511d70f88",
    "wof:hierarchy":[
        {
            "country_id":85633793,
            "county_id":102084283,
            "neighbourhood_id":85851779,
            "region_id":85688629,
            "venue_id":554941981
        }
    ],
    "wof:id":554941981,
    "wof:lastmodified":1461017827,
    "wof:name":"New Canaan Darien Magazine",
    "wof:parent_id":85851779,
    "wof:placetype":"venue",
    "wof:superseded_by":[],
    "wof:supersedes":[],
    "wof:tags":[
        "publisher"
    ]
},
  "bbox": [
    -73.499335,
    41.145343,
    -73.499335,
    41.145343
],
  "geometry": {"coordinates":[-73.499335,41.145343],"type":"Point"}
}