{
  "id": 554936567,
  "type": "Feature",
  "properties": {
    "edtf:cessation":"uuuu",
    "edtf:inception":"uuuu",
    "geom:area":0.0,
    "geom:bbox":"-73.483788,41.144808,-73.483788,41.144808",
    "geom:latitude":41.144808,
    "geom:longitude":-73.483788,
    "iso:country":"US",
    "sg:address":"186 Lakeview Ave",
    "sg:city":"New Canaan",
    "sg:classifiers":[
        {
            "category":"Real Estate",
            "subcategory":"Real Estate Operator",
            "type":"Services"
        }
    ],
    "sg:owner":"simplegeo",
    "sg:phone":"+1 203 966 1150",
    "sg:postcode":"06840",
    "sg:province":"NY",
    "sg:tags":[
        "apartment"
    ],
    "src:geom":"simplegeo",
    "wof:belongsto":[
        85688629,
        85633793,
        85851779,
        102084283
    ],
    "wof:breaches":[],
    "wof:concordances":{
        "sg:id":"SG_6SX463FKSrtJF6aQPT4Xgr_41.144808_-73.483788@1294177022"
    },
    "wof:country":"US",
    "wof:geomhash":"a74c5112a1282373c11e97d20c704a03",
    "wof:hierarchy":[
        {
            "country_id":85633793,
            "county_id":102084283,
            "neighbourhood_id":85851779,
            "region_id":85688629,
            "venue_id":554936567
        }
    ],
    "wof:id":554936567,
    "wof:lastmodified":1461017241,
    "wof:name":"Canaan Parish Rental Office",
    "wof:parent_id":85851779,
    "wof:placetype":"venue",
    "wof:superseded_by":[],
    "wof:supersedes":[],
    "wof:tags":[
        "apartment"
    ]
},
  "bbox": [
    -73.483788,
    41.144808,
    -73.483788,
    41.144808
],
  "geometry": {"coordinates":[-73.483788,41.144808],"type":"Point"}
}