{
  "id": 554935359,
  "type": "Feature",
  "properties": {
    "edtf:cessation":"uuuu",
    "edtf:inception":"uuuu",
    "geom:area":0.0,
    "geom:bbox":"-79.738332,42.255172,-79.738332,42.255172",
    "geom:latitude":42.255172,
    "geom:longitude":-79.738332,
    "iso:country":"US",
    "sg:address":"10200 W Main Rd",
    "sg:city":"Ripley",
    "sg:classifiers":[
        {
            "category":"Mining & Drilling",
            "subcategory":"",
            "type":"Manufacturing & Wholesale Goods"
        }
    ],
    "sg:owner":"simplegeo",
    "sg:phone":"+1 716 736 5225",
    "sg:postcode":"14775",
    "sg:province":"NY",
    "sg:tags":[
        "oil",
        "gas",
        "producer"
    ],
    "src:geom":"simplegeo",
    "wof:belongsto":[
        85688481,
        85633793,
        85850957,
        102080955
    ],
    "wof:breaches":[],
    "wof:concordances":{
        "sg:id":"SG_3ckYNCSS3vCGBvLhVBHsl8_42.255172_-79.738332@1294177022"
    },
    "wof:country":"US",
    "wof:geomhash":"12283d794eed38d11fe1c99446fbabf0",
    "wof:hierarchy":[
        {
            "country_id":85633793,
            "county_id":102080955,
            "neighbourhood_id":85850957,
            "region_id":85688481,
            "venue_id":554935359
        }
    ],
    "wof:id":554935359,
    "wof:lastmodified":1461017059,
    "wof:name":"Davis Oil",
    "wof:parent_id":85850957,
    "wof:placetype":"venue",
    "wof:superseded_by":[],
    "wof:supersedes":[],
    "wof:tags":[
        "oil",
        "gas",
        "producer"
    ]
},
  "bbox": [
    -79.738332,
    42.255172,
    -79.738332,
    42.255172
],
  "geometry": {"coordinates":[-79.738332,42.255172],"type":"Point"}
}