{
  "id": 555627855,
  "type": "Feature",
  "properties": {
    "edtf:cessation":"uuuu",
    "edtf:inception":"uuuu",
    "geom:area":0.0,
    "geom:bbox":"-74.005301,40.728077,-74.005301,40.728077",
    "geom:latitude":40.728077,
    "geom:longitude":-74.005301,
    "iso:country":"US",
    "sg:address":"200 Varick St",
    "sg:city":"New York",
    "sg:classifiers":[
        {
            "category":"Professional",
            "subcategory":"Research",
            "type":"Services"
        }
    ],
    "sg:owner":"simplegeo",
    "sg:phone":"+1 212 481 8900",
    "sg:postcode":"10014",
    "sg:province":"NY",
    "sg:tags":[
        "environmental",
        "ecological"
    ],
    "src:geom":"simplegeo",
    "wof:belongsto":[
        85865687,
        102191575,
        85633793,
        85977539,
        421205771,
        102081863,
        85688543
    ],
    "wof:breaches":[],
    "wof:concordances":{
        "sg:id":"SG_7EzHiToxx7dhRm7kX44twQ_40.728077_-74.005301@1294177022"
    },
    "wof:country":"US",
    "wof:geomhash":"a0b51c11ef912cb725fc6ae9b4f12d12",
    "wof:hierarchy":[
        {
            "borough_id":421205771,
            "continent_id":102191575,
            "country_id":85633793,
            "county_id":102081863,
            "locality_id":85977539,
            "neighbourhood_id":85865687,
            "region_id":85688543,
            "venue_id":555627855
        }
    ],
    "wof:id":555627855,
    "wof:lastmodified":1461034165,
    "wof:name":"Environtron Limited",
    "wof:parent_id":85865687,
    "wof:placetype":"venue",
    "wof:superseded_by":[],
    "wof:supersedes":[],
    "wof:tags":[
        "environmental",
        "ecological"
    ]
},
  "bbox": [
    -74.005301,
    40.728077,
    -74.005301,
    40.728077
],
  "geometry": {"coordinates":[-74.005301,40.728077],"type":"Point"}
}