{
  "id": 571609873,
  "type": "Feature",
  "properties": {
    "edtf:cessation":"uuuu",
    "edtf:inception":"uuuu",
    "geom:area":0.0,
    "geom:bbox":"-78.283013,42.218316,-78.283013,42.218316",
    "geom:latitude":42.218316,
    "geom:longitude":-78.283013,
    "iso:country":"US",
    "sg:address":"29 Water St",
    "sg:city":"Cuba",
    "sg:classifiers":[],
    "sg:owner":"simplegeo",
    "sg:phone":"+1 585 968 3330",
    "sg:postcode":"14727",
    "sg:province":"NY",
    "sg:tags":[
        "oil"
    ],
    "sg:website":"www.rinkeroil.com",
    "src:geom":"simplegeo",
    "wof:belongsto":[],
    "wof:breaches":[],
    "wof:concordances":{
        "sg:id":"SG_2xL3JctsFGz22aKnZ2l8sQ_42.218316_-78.283013@1294177022"
    },
    "wof:country":"US",
    "wof:geomhash":"fc5578b104f3b19fe83b051f94675830",
    "wof:hierarchy":[],
    "wof:id":571609873,
    "wof:lastmodified":1461039649,
    "wof:name":"Rinker Oil",
    "wof:parent_id":420528023,
    "wof:placetype":"venue",
    "wof:superseded_by":[],
    "wof:supersedes":[],
    "wof:tags":[
        "oil"
    ]
},
  "bbox": [
    -78.283013,
    42.218316,
    -78.283013,
    42.218316
],
  "geometry": {"coordinates":[-78.283013,42.218316],"type":"Point"}
}