{
  "id": 554937973,
  "type": "Feature",
  "properties": {
    "edtf:cessation":"uuuu",
    "edtf:inception":"uuuu",
    "geom:area":0.0,
    "geom:bbox":"-73.487216,41.138981,-73.487216,41.138981",
    "geom:latitude":41.138981,
    "geom:longitude":-73.487216,
    "iso:country":"US",
    "sg:address":"32 Kelley Green",
    "sg:city":"New Canaan",
    "sg:classifiers":[
        {
            "category":"Real Estate",
            "subcategory":"Architect",
            "type":"Services"
        }
    ],
    "sg:owner":"simplegeo",
    "sg:phone":"+1   ",
    "sg:postcode":"06840",
    "sg:province":"NY",
    "sg:tags":[
        "architectural"
    ],
    "src:geom":"simplegeo",
    "wof:belongsto":[
        85688629,
        85633793,
        85851779,
        102084283
    ],
    "wof:breaches":[],
    "wof:concordances":{
        "sg:id":"SG_6kOnQJfnol1QgOlsvAwA6E_41.138981_-73.487216@1294177022"
    },
    "wof:country":"US",
    "wof:geomhash":"c34649755c21a388a4e603dbb76cc857",
    "wof:hierarchy":[
        {
            "country_id":85633793,
            "county_id":102084283,
            "neighbourhood_id":85851779,
            "region_id":85688629,
            "venue_id":554937973
        }
    ],
    "wof:id":554937973,
    "wof:lastmodified":1461017434,
    "wof:name":"Stephen B Rowley",
    "wof:parent_id":85851779,
    "wof:placetype":"venue",
    "wof:superseded_by":[],
    "wof:supersedes":[],
    "wof:tags":[
        "architectural"
    ]
},
  "bbox": [
    -73.487216,
    41.138981,
    -73.487216,
    41.138981
],
  "geometry": {"coordinates":[-73.487216,41.138981],"type":"Point"}
}