{
  "id": 572178295,
  "type": "Feature",
  "properties": {
    "edtf:cessation":"uuuu",
    "edtf:inception":"uuuu",
    "geom:area":0.0,
    "geom:bbox":"-79.227293,42.105444,-79.227293,42.105444",
    "geom:latitude":42.105444,
    "geom:longitude":-79.227293,
    "iso:country":"US",
    "sg:address":"112 Weeks St",
    "sg:city":"Jamestown",
    "sg:classifiers":[
        {
            "category":"Building & Trades",
            "subcategory":"Construction",
            "type":"Services"
        }
    ],
    "sg:owner":"simplegeo",
    "sg:phone":"+1 716 661 9391",
    "sg:postcode":"14701",
    "sg:province":"NY",
    "sg:tags":[
        "roofing",
        "industrial",
        "contractors-commercial",
        "contractor"
    ],
    "src:geom":"simplegeo",
    "wof:belongsto":[],
    "wof:breaches":[],
    "wof:concordances":{
        "sg:id":"SG_4Yu20GUHvYqcnA8gzOwzOp_42.105444_-79.227293@1303262403"
    },
    "wof:country":"US",
    "wof:geomhash":"d15f5bd43eecaccb3466d947c5cba614",
    "wof:hierarchy":[],
    "wof:id":572178295,
    "wof:lastmodified":1461051666,
    "wof:name":"Action Construction",
    "wof:parent_id":420528241,
    "wof:placetype":"venue",
    "wof:superseded_by":[],
    "wof:supersedes":[],
    "wof:tags":[
        "roofing",
        "industrial",
        "contractors-commercial",
        "contractor"
    ]
},
  "bbox": [
    -79.227293,
    42.105444,
    -79.227293,
    42.105444
],
  "geometry": {"coordinates":[-79.227293,42.105444],"type":"Point"}
}