{
  "id": 554939247,
  "type": "Feature",
  "properties": {
    "edtf:cessation":"uuuu",
    "edtf:inception":"uuuu",
    "geom:area":0.0,
    "geom:bbox":"-73.649342,41.036369,-73.649342,41.036369",
    "geom:latitude":41.036369,
    "geom:longitude":-73.649342,
    "iso:country":"US",
    "sg:address":"108 Glenville Rd",
    "sg:city":"Greenwich",
    "sg:classifiers":[
        {
            "category":"Building & Trades",
            "subcategory":"Plumbing",
            "type":"Services"
        }
    ],
    "sg:owner":"simplegeo",
    "sg:phone":"+1 203 869 9204",
    "sg:postcode":"06831",
    "sg:province":"NY",
    "sg:tags":[
        "conditioning",
        "air",
        "system",
        "contractor"
    ],
    "src:geom":"simplegeo",
    "wof:belongsto":[
        420555529,
        102191575,
        404495949,
        85633793,
        85930941,
        102084283,
        85688629
    ],
    "wof:breaches":[],
    "wof:concordances":{
        "sg:id":"SG_490xAQ0t1M7voHxnq21p3K_41.036369_-73.649342@1294177022"
    },
    "wof:country":"US",
    "wof:geomhash":"bda095eb47a69c4573ce02b6cb3ae5b3",
    "wof:hierarchy":[
        {
            "continent_id":102191575,
            "country_id":85633793,
            "county_id":102084283,
            "localadmin_id":404495949,
            "locality_id":85930941,
            "neighbourhood_id":420555529,
            "region_id":85688629,
            "venue_id":554939247
        }
    ],
    "wof:id":554939247,
    "wof:lastmodified":1461017544,
    "wof:name":"Smitty's Service Co",
    "wof:parent_id":420555529,
    "wof:placetype":"venue",
    "wof:superseded_by":[],
    "wof:supersedes":[],
    "wof:tags":[
        "conditioning",
        "air",
        "system",
        "contractor"
    ]
},
  "bbox": [
    -73.649342,
    41.036369,
    -73.649342,
    41.036369
],
  "geometry": {"coordinates":[-73.649342,41.036369],"type":"Point"}
}