{
  "id": 571803639,
  "type": "Feature",
  "properties": {
    "edtf:cessation":"uuuu",
    "edtf:inception":"uuuu",
    "geom:area":0.0,
    "geom:bbox":"-74.005615,40.744964,-74.005615,40.744964",
    "geom:latitude":40.744964,
    "geom:longitude":-74.005615,
    "iso:country":"US",
    "sg:address":"459 W 19th Street",
    "sg:city":"New York",
    "sg:classifiers":[
        {
            "category":"Arts & Performance",
            "subcategory":"Art Gallery",
            "type":"Entertainment"
        }
    ],
    "sg:owner":"simplegeo",
    "sg:phone":"+1 212 727 3323",
    "sg:postcode":"10011",
    "sg:province":"NY",
    "src:geom":"simplegeo",
    "wof:belongsto":[
        85810589,
        102191575,
        85633793,
        85977539,
        421205771,
        102081863,
        85688543
    ],
    "wof:breaches":[],
    "wof:concordances":{
        "sg:id":"SG_2CHaPn1PCkTCxK3xKHXVia_40.744964_-74.005615@1303262293"
    },
    "wof:country":"US",
    "wof:geomhash":"a213bcde6d15360bdabb6f82b18d6ed6",
    "wof:hierarchy":[
        {
            "borough_id":421205771,
            "continent_id":102191575,
            "country_id":85633793,
            "county_id":102081863,
            "locality_id":85977539,
            "neighbourhood_id":85810589,
            "region_id":85688543,
            "venue_id":571803639
        }
    ],
    "wof:id":571803639,
    "wof:lastmodified":1461043720,
    "wof:name":"Postmasters Gallery",
    "wof:parent_id":85810589,
    "wof:placetype":"venue",
    "wof:superseded_by":[],
    "wof:supersedes":[],
    "wof:tags":[]
},
  "bbox": [
    -74.005615,
    40.744964,
    -74.005615,
    40.744964
],
  "geometry": {"coordinates":[-74.00561500000001,40.744964],"type":"Point"}
}