{
  "id": 554935333,
  "type": "Feature",
  "properties": {
    "edtf:cessation":"uuuu",
    "edtf:inception":"uuuu",
    "geom:area":0.0,
    "geom:bbox":"-73.50649,41.154222,-73.50649,41.154222",
    "geom:latitude":41.154222,
    "geom:longitude":-73.50649,
    "iso:country":"US",
    "sg:address":"175 Sunset Hill Rd",
    "sg:city":"New Canaan",
    "sg:classifiers":[
        {
            "category":"Wholesale",
            "subcategory":"Construction Materials",
            "type":"Manufacturing & Wholesale Goods"
        }
    ],
    "sg:owner":"simplegeo",
    "sg:phone":"+1 203 966 3234",
    "sg:postcode":"06840",
    "sg:province":"NY",
    "sg:tags":[
        "marble"
    ],
    "src:geom":"simplegeo",
    "wof:belongsto":[
        85688629,
        85633793,
        85851779,
        102084283
    ],
    "wof:breaches":[],
    "wof:concordances":{
        "sg:id":"SG_0UMR1deT0PxdnrKJkDpx5d_41.154222_-73.506490@1294177022"
    },
    "wof:country":"US",
    "wof:geomhash":"9d0a02cfb39fc53959214a3b1e096e66",
    "wof:hierarchy":[
        {
            "country_id":85633793,
            "county_id":102084283,
            "neighbourhood_id":85851779,
            "region_id":85688629,
            "venue_id":554935333
        }
    ],
    "wof:id":554935333,
    "wof:lastmodified":1461017055,
    "wof:name":"Contract Marble Intl Inc",
    "wof:parent_id":85851779,
    "wof:placetype":"venue",
    "wof:superseded_by":[],
    "wof:supersedes":[],
    "wof:tags":[
        "marble"
    ]
},
  "bbox": [
    -73.50649,
    41.154222,
    -73.50649,
    41.154222
],
  "geometry": {"coordinates":[-73.50649,41.154222],"type":"Point"}
}