{
  "id": 572170937,
  "type": "Feature",
  "properties": {
    "edtf:cessation":"uuuu",
    "edtf:inception":"uuuu",
    "geom:area":0.0,
    "geom:bbox":"-74.220547,40.637039,-74.220547,40.637039",
    "geom:latitude":40.637039,
    "geom:longitude":-74.220547,
    "iso:country":"US",
    "sg:address":"821 57th St",
    "sg:city":"Brooklyn",
    "sg:classifiers":[
        {
            "category":"Health Services",
            "subcategory":"Dentist",
            "type":"Services"
        }
    ],
    "sg:owner":"simplegeo",
    "sg:phone":"+1 718 686 0210",
    "sg:postcode":"11220",
    "sg:province":"NY",
    "src:geom":"simplegeo",
    "wof:belongsto":[
        85804971,
        102191575,
        404478503,
        85633793,
        85975837,
        102085995,
        85688607
    ],
    "wof:breaches":[],
    "wof:concordances":{
        "sg:id":"SG_1CsdARxelOidyqHHBglAHS_40.637039_-74.220547@1303262344"
    },
    "wof:country":"US",
    "wof:geomhash":"c59e59282d0a76202e7aa1c053039f25",
    "wof:hierarchy":[
        {
            "continent_id":102191575,
            "country_id":85633793,
            "county_id":102085995,
            "localadmin_id":404478503,
            "locality_id":85975837,
            "neighbourhood_id":85804971,
            "region_id":85688607,
            "venue_id":572170937
        }
    ],
    "wof:id":572170937,
    "wof:lastmodified":1461051436,
    "wof:name":"Boss Dental PC",
    "wof:parent_id":85804971,
    "wof:placetype":"venue",
    "wof:superseded_by":[],
    "wof:supersedes":[],
    "wof:tags":[]
},
  "bbox": [
    -74.220547,
    40.637039,
    -74.220547,
    40.637039
],
  "geometry": {"coordinates":[-74.220547,40.637039],"type":"Point"}
}