{
  "id": 554955329,
  "type": "Feature",
  "properties": {
    "edtf:cessation":"uuuu",
    "edtf:inception":"uuuu",
    "geom:area":0.0,
    "geom:bbox":"-74.12987,41.896657,-74.12987,41.896657",
    "geom:latitude":41.896657,
    "geom:longitude":-74.12987,
    "iso:country":"US",
    "sg:address":"30 Lapla Rd",
    "sg:city":"Kingston",
    "sg:classifiers":[
        {
            "category":"Professional",
            "subcategory":"Management & Consulting",
            "type":"Services"
        }
    ],
    "sg:owner":"simplegeo",
    "sg:phone":"+1 845 339 7815",
    "sg:postcode":"12401",
    "sg:province":"NY",
    "src:geom":"simplegeo",
    "wof:belongsto":[],
    "wof:breaches":[],
    "wof:concordances":{
        "sg:id":"SG_4QGyUooYxi6tgrrD9l7mi8_41.896657_-74.129870@1294177022"
    },
    "wof:country":"US",
    "wof:geomhash":"a258e5d1eba175bd995d5fff92af15d6",
    "wof:hierarchy":[],
    "wof:id":554955329,
    "wof:lastmodified":1461018352,
    "wof:name":"Global Resource Mgmt Inc",
    "wof:parent_id":420530189,
    "wof:placetype":"venue",
    "wof:superseded_by":[],
    "wof:supersedes":[],
    "wof:tags":[]
},
  "bbox": [
    -74.12987,
    41.896657,
    -74.12987,
    41.896657
],
  "geometry": {"coordinates":[-74.12987,41.896657],"type":"Point"}
}