{
  "id": 554937743,
  "type": "Feature",
  "properties": {
    "edtf:cessation":"uuuu",
    "edtf:inception":"uuuu",
    "geom:area":0.0,
    "geom:bbox":"-73.494507,41.146839,-73.494507,41.146839",
    "geom:latitude":41.146839,
    "geom:longitude":-73.494507,
    "iso:country":"US",
    "sg:address":"111 Elm St",
    "sg:city":"New Canaan",
    "sg:classifiers":[
        {
            "category":"Building & Trades",
            "subcategory":"Construction",
            "type":"Services"
        }
    ],
    "sg:owner":"simplegeo",
    "sg:phone":"+1 203 972 7448",
    "sg:postcode":"06840",
    "sg:province":"NY",
    "sg:tags":[
        "repairing",
        "remodeling",
        "contractor"
    ],
    "src:geom":"simplegeo",
    "wof:belongsto":[
        85688629,
        85633793,
        85851779,
        102084283
    ],
    "wof:breaches":[],
    "wof:concordances":{
        "sg:id":"SG_7U1ILWyuRPU4VcwrrHPjeW_41.146839_-73.494507@1294177022"
    },
    "wof:country":"US",
    "wof:geomhash":"29e3dc08e272022711f9d67c4eabe9bd",
    "wof:hierarchy":[
        {
            "country_id":85633793,
            "county_id":102084283,
            "neighbourhood_id":85851779,
            "region_id":85688629,
            "venue_id":554937743
        }
    ],
    "wof:id":554937743,
    "wof:lastmodified":1461017413,
    "wof:name":"C J Lynch Builders",
    "wof:parent_id":85851779,
    "wof:placetype":"venue",
    "wof:superseded_by":[],
    "wof:supersedes":[],
    "wof:tags":[
        "repairing",
        "remodeling",
        "contractor"
    ]
},
  "bbox": [
    -73.494507,
    41.146839,
    -73.494507,
    41.146839
],
  "geometry": {"coordinates":[-73.494507,41.146839],"type":"Point"}
}