{
  "id": 554935385,
  "type": "Feature",
  "properties": {
    "edtf:cessation":"uuuu",
    "edtf:inception":"uuuu",
    "geom:area":0.0,
    "geom:bbox":"-73.490395,41.148065,-73.490395,41.148065",
    "geom:latitude":41.148065,
    "geom:longitude":-73.490395,
    "iso:country":"US",
    "sg:address":"149 Cherry St",
    "sg:city":"New Canaan",
    "sg:classifiers":[
        {
            "category":"Shopping",
            "subcategory":"Florist",
            "type":"Retail Goods"
        }
    ],
    "sg:owner":"simplegeo",
    "sg:phone":"+1 203 966 3180",
    "sg:postcode":"06840",
    "sg:province":"NY",
    "sg:website":"www.bonfleur.com",
    "src:geom":"simplegeo",
    "wof:belongsto":[
        85688629,
        85633793,
        85851779,
        102084283
    ],
    "wof:breaches":[],
    "wof:concordances":{
        "sg:id":"SG_0gpSvWmu9oTFBn1oCKJhUq_41.148065_-73.490395@1294177022"
    },
    "wof:country":"US",
    "wof:geomhash":"f13c00c43979e9760ee5d4236aefe6bb",
    "wof:hierarchy":[
        {
            "country_id":85633793,
            "county_id":102084283,
            "neighbourhood_id":85851779,
            "region_id":85688629,
            "venue_id":554935385
        }
    ],
    "wof:id":554935385,
    "wof:lastmodified":1461017063,
    "wof:name":"Bonfleur",
    "wof:parent_id":85851779,
    "wof:placetype":"venue",
    "wof:superseded_by":[],
    "wof:supersedes":[],
    "wof:tags":[]
},
  "bbox": [
    -73.490395,
    41.148065,
    -73.490395,
    41.148065
],
  "geometry": {"coordinates":[-73.49039500000001,41.148065],"type":"Point"}
}