{
  "id": 554940883,
  "type": "Feature",
  "properties": {
    "edtf:cessation":"uuuu",
    "edtf:inception":"uuuu",
    "geom:area":0.0,
    "geom:bbox":"-73.627678,41.160779,-73.627678,41.160779",
    "geom:latitude":41.160779,
    "geom:longitude":-73.627678,
    "iso:country":"US",
    "sg:address":"8 Hope Farms Rd",
    "sg:city":"Bedford",
    "sg:classifiers":[
        {
            "category":"Real Estate",
            "subcategory":"Real Estate Agent",
            "type":"Services"
        }
    ],
    "sg:owner":"simplegeo",
    "sg:phone":"+1 914 234 0468",
    "sg:postcode":"10506",
    "sg:province":"NY",
    "src:geom":"simplegeo",
    "wof:belongsto":[
        85688629,
        85633793,
        85930787,
        102084283,
        85838073
    ],
    "wof:breaches":[],
    "wof:concordances":{
        "sg:id":"SG_4UtBZSTBqw3vc2pPKRQ845_41.160779_-73.627678@1294177022"
    },
    "wof:country":"US",
    "wof:geomhash":"512a7ee5852d73f817a9a5968679576c",
    "wof:hierarchy":[
        {
            "country_id":85633793,
            "county_id":102084283,
            "locality_id":85930787,
            "neighbourhood_id":85838073,
            "region_id":85688629,
            "venue_id":554940883
        }
    ],
    "wof:id":554940883,
    "wof:lastmodified":1461017686,
    "wof:name":"A J L Development Corp",
    "wof:parent_id":85838073,
    "wof:placetype":"venue",
    "wof:superseded_by":[],
    "wof:supersedes":[],
    "wof:tags":[]
},
  "bbox": [
    -73.627678,
    41.160779,
    -73.627678,
    41.160779
],
  "geometry": {"coordinates":[-73.627678,41.160779],"type":"Point"}
}