{
  "id": 554941327,
  "type": "Feature",
  "properties": {
    "edtf:cessation":"uuuu",
    "edtf:inception":"uuuu",
    "geom:area":0.0,
    "geom:bbox":"-73.493666,41.146778,-73.493666,41.146778",
    "geom:latitude":41.146778,
    "geom:longitude":-73.493666,
    "iso:country":"US",
    "sg:address":"146 Elm St",
    "sg:city":"New Canaan",
    "sg:classifiers":[
        {
            "category":"Home & Garden",
            "subcategory":"Furniture",
            "type":"Retail Goods"
        }
    ],
    "sg:owner":"simplegeo",
    "sg:phone":"+1 203 966 3116",
    "sg:postcode":"06840",
    "sg:province":"NY",
    "sg:website":"www.designsolutionstore.com",
    "src:geom":"simplegeo",
    "wof:belongsto":[
        85688629,
        85633793,
        85851779,
        102084283
    ],
    "wof:breaches":[],
    "wof:concordances":{
        "sg:id":"SG_7Ti5nGuGbWnkUXXmCn6BNQ_41.146778_-73.493666@1294177022"
    },
    "wof:country":"US",
    "wof:geomhash":"1acc43370dcc35676c436198a45f7a08",
    "wof:hierarchy":[
        {
            "country_id":85633793,
            "county_id":102084283,
            "neighbourhood_id":85851779,
            "region_id":85688629,
            "venue_id":554941327
        }
    ],
    "wof:id":554941327,
    "wof:lastmodified":1461017729,
    "wof:name":"Design Solutions",
    "wof:parent_id":85851779,
    "wof:placetype":"venue",
    "wof:superseded_by":[],
    "wof:supersedes":[],
    "wof:tags":[]
},
  "bbox": [
    -73.493666,
    41.146778,
    -73.493666,
    41.146778
],
  "geometry": {"coordinates":[-73.493666,41.146778],"type":"Point"}
}