{
  "id": 554938513,
  "type": "Feature",
  "properties": {
    "edtf:cessation":"uuuu",
    "edtf:inception":"uuuu",
    "geom:area":0.0,
    "geom:bbox":"-73.640104,41.14205,-73.640104,41.14205",
    "geom:latitude":41.14205,
    "geom:longitude":-73.640104,
    "iso:country":"US",
    "sg:address":"1 Bedford-Banksville Rd",
    "sg:city":"Bedford",
    "sg:classifiers":[
        {
            "category":"Recreation",
            "subcategory":"",
            "type":"Entertainment"
        },
        {
            "category":"Organizations",
            "subcategory":"Community Association",
            "type":"Services"
        }
    ],
    "sg:owner":"simplegeo",
    "sg:phone":"+1 914 234 9206",
    "sg:postcode":"10506",
    "sg:province":"NY",
    "sg:tags":[
        "club",
        "tennis",
        "health"
    ],
    "sg:website":"www.grandslamtennisclub.com",
    "src:geom":"simplegeo",
    "wof:belongsto":[],
    "wof:breaches":[],
    "wof:concordances":{
        "sg:id":"SG_2BANdUGuQ2W9B5VMjfGayB_41.142050_-73.640104@1294177022"
    },
    "wof:country":"US",
    "wof:geomhash":"6aae65c32c5504d9827bb22e758a7225",
    "wof:hierarchy":[],
    "wof:id":554938513,
    "wof:lastmodified":1461017484,
    "wof:name":"Grand Slam At Banksville",
    "wof:parent_id":-1,
    "wof:placetype":"venue",
    "wof:superseded_by":[],
    "wof:supersedes":[],
    "wof:tags":[
        "club",
        "tennis",
        "health"
    ]
},
  "bbox": [
    -73.640104,
    41.14205,
    -73.640104,
    41.14205
],
  "geometry": {"coordinates":[-73.64010399999999,41.14205],"type":"Point"}
}