{
  "id": 554936691,
  "type": "Feature",
  "properties": {
    "edtf:cessation":"uuuu",
    "edtf:inception":"uuuu",
    "geom:area":0.0,
    "geom:bbox":"-73.656055,41.010847,-73.656055,41.010847",
    "geom:latitude":41.010847,
    "geom:longitude":-73.656055,
    "iso:country":"US",
    "sg:address":"500 N Main St",
    "sg:city":"Port Chester",
    "sg:classifiers":[
        {
            "category":"Shopping",
            "subcategory":"Bicycles & Sporting Goods",
            "type":"Retail Goods"
        }
    ],
    "sg:owner":"simplegeo",
    "sg:phone":"+1   ",
    "sg:postcode":"10573",
    "sg:province":"NY",
    "src:geom":"simplegeo",
    "wof:belongsto":[
        85808713,
        102191575,
        404523389,
        85633793,
        85978705,
        102082373,
        85688543,
        85885307,
        404495949,
        85930941,
        102084283,
        85688629
    ],
    "wof:breaches":[],
    "wof:concordances":{
        "sg:id":"SG_36CLg1eF0puxPMGpsUNwCL_41.010847_-73.656055@1294177022"
    },
    "wof:country":"US",
    "wof:geomhash":"58ca09222cd838b5516701e45d4aaa2f",
    "wof:hierarchy":[
        {
            "continent_id":102191575,
            "country_id":85633793,
            "county_id":102082373,
            "localadmin_id":404523389,
            "locality_id":85978705,
            "neighbourhood_id":85808713,
            "region_id":85688543,
            "venue_id":554936691
        },
        {
            "continent_id":102191575,
            "country_id":85633793,
            "county_id":102084283,
            "localadmin_id":404495949,
            "locality_id":85930941,
            "neighbourhood_id":85885307,
            "region_id":85688629,
            "venue_id":554936691
        }
    ],
    "wof:id":554936691,
    "wof:lastmodified":1461017257,
    "wof:name":"Byram Bay Sports",
    "wof:parent_id":-1,
    "wof:placetype":"venue",
    "wof:superseded_by":[],
    "wof:supersedes":[],
    "wof:tags":[]
},
  "bbox": [
    -73.656055,
    41.010847,
    -73.656055,
    41.010847
],
  "geometry": {"coordinates":[-73.65605499999999,41.010847],"type":"Point"}
}