{
  "id": 572171541,
  "type": "Feature",
  "properties": {
    "edtf:cessation":"uuuu",
    "edtf:inception":"uuuu",
    "geom:area":0.0,
    "geom:bbox":"-74.043455,40.679543,-74.043455,40.679543",
    "geom:latitude":40.679543,
    "geom:longitude":-74.043455,
    "iso:country":"US",
    "sg:address":"18 Commerce St",
    "sg:city":"Brooklyn",
    "sg:classifiers":[
        {
            "category":"Professional",
            "subcategory":"",
            "type":"Services"
        }
    ],
    "sg:owner":"simplegeo",
    "sg:phone":"+1 718 522 3600",
    "sg:postcode":"11231",
    "sg:province":"NY",
    "sg:tags":[
        "caterer"
    ],
    "src:geom":"simplegeo",
    "wof:belongsto":[
        85882065,
        102191575,
        404478139,
        85633793,
        85975295,
        102080719,
        85688607
    ],
    "wof:breaches":[],
    "wof:concordances":{
        "sg:id":"SG_2eEfIOHaKfZWwHkJPN1tzN_40.679543_-74.043455@1303262348"
    },
    "wof:country":"US",
    "wof:geomhash":"1ecf8d8d8a639bcfb0be76ba47c90f18",
    "wof:hierarchy":[
        {
            "continent_id":102191575,
            "country_id":85633793,
            "county_id":102080719,
            "localadmin_id":404478139,
            "locality_id":85975295,
            "neighbourhood_id":85882065,
            "region_id":85688607,
            "venue_id":572171541
        }
    ],
    "wof:id":572171541,
    "wof:lastmodified":1461051457,
    "wof:name":"Hello Brooklyn",
    "wof:parent_id":85882065,
    "wof:placetype":"venue",
    "wof:superseded_by":[],
    "wof:supersedes":[],
    "wof:tags":[
        "caterer"
    ]
},
  "bbox": [
    -74.043455,
    40.679543,
    -74.043455,
    40.679543
],
  "geometry": {"coordinates":[-74.04345499999999,40.679543],"type":"Point"}
}