{
  "id": 554934907,
  "type": "Feature",
  "properties": {
    "edtf:cessation":"uuuu",
    "edtf:inception":"uuuu",
    "geom:area":0.0,
    "geom:bbox":"-73.492195,41.147192,-73.492195,41.147192",
    "geom:latitude":41.147192,
    "geom:longitude":-73.492195,
    "iso:country":"US",
    "sg:address":"104 Main St",
    "sg:city":"New Canaan",
    "sg:classifiers":[
        {
            "category":"Shopping",
            "subcategory":"Clothing, Apparel, & Fashions",
            "type":"Retail Goods"
        }
    ],
    "sg:owner":"simplegeo",
    "sg:phone":"+1 203 966 0608",
    "sg:postcode":"06840",
    "sg:province":"NY",
    "src:geom":"simplegeo",
    "wof:belongsto":[
        85688629,
        85633793,
        85851779,
        102084283
    ],
    "wof:breaches":[],
    "wof:concordances":{
        "sg:id":"SG_7NjPOyFHrxElu7XczpHvpc_41.147192_-73.492195@1294177022"
    },
    "wof:country":"US",
    "wof:geomhash":"cdfe13ab9547632d971d1c77990b6cf9",
    "wof:hierarchy":[
        {
            "country_id":85633793,
            "county_id":102084283,
            "neighbourhood_id":85851779,
            "region_id":85688629,
            "venue_id":554934907
        }
    ],
    "wof:id":554934907,
    "wof:lastmodified":1461016997,
    "wof:name":"Irresistibles",
    "wof:parent_id":85851779,
    "wof:placetype":"venue",
    "wof:superseded_by":[],
    "wof:supersedes":[],
    "wof:tags":[]
},
  "bbox": [
    -73.492195,
    41.147192,
    -73.492195,
    41.147192
],
  "geometry": {"coordinates":[-73.492195,41.147192],"type":"Point"}
}