{
  "id": 554936361,
  "type": "Feature",
  "properties": {
    "edtf:cessation":"uuuu",
    "edtf:inception":"uuuu",
    "geom:area":0.0,
    "geom:bbox":"-73.485417,41.141201,-73.485417,41.141201",
    "geom:latitude":41.141201,
    "geom:longitude":-73.485417,
    "iso:country":"US",
    "sg:address":"66 Harrison Ave",
    "sg:city":"New Canaan",
    "sg:classifiers":[
        {
            "category":"Real Estate",
            "subcategory":"Real Estate Operator",
            "type":"Services"
        }
    ],
    "sg:owner":"simplegeo",
    "sg:phone":"+1 203 849 8100",
    "sg:postcode":"06840",
    "sg:province":"NY",
    "sg:tags":[
        "building",
        "nonresidential"
    ],
    "src:geom":"simplegeo",
    "wof:belongsto":[
        85688629,
        85633793,
        85851779,
        102084283
    ],
    "wof:breaches":[],
    "wof:concordances":{
        "sg:id":"SG_70AeUilrLDaFpzStidS65P_41.141201_-73.485417@1294177022"
    },
    "wof:country":"US",
    "wof:geomhash":"45712b6ae27b1e42732dcefa4f9de885",
    "wof:hierarchy":[
        {
            "country_id":85633793,
            "county_id":102084283,
            "neighbourhood_id":85851779,
            "region_id":85688629,
            "venue_id":554936361
        }
    ],
    "wof:id":554936361,
    "wof:lastmodified":1461017209,
    "wof:name":"Stoligan Properties LLC",
    "wof:parent_id":85851779,
    "wof:placetype":"venue",
    "wof:superseded_by":[],
    "wof:supersedes":[],
    "wof:tags":[
        "building",
        "nonresidential"
    ]
},
  "bbox": [
    -73.485417,
    41.141201,
    -73.485417,
    41.141201
],
  "geometry": {"coordinates":[-73.485417,41.141201],"type":"Point"}
}