{
  "id": 554934039,
  "type": "Feature",
  "properties": {
    "edtf:cessation":"uuuu",
    "edtf:inception":"uuuu",
    "geom:area":0.0,
    "geom:bbox":"-73.497721,41.145925,-73.497721,41.145925",
    "geom:latitude":41.145925,
    "geom:longitude":-73.497721,
    "iso:country":"US",
    "sg:address":"208 Elm St",
    "sg:city":"New Canaan",
    "sg:classifiers":[
        {
            "category":"Banks & Credit Unions",
            "subcategory":"Bank",
            "type":"Services"
        }
    ],
    "sg:owner":"simplegeo",
    "sg:phone":"+1 203 966 7080",
    "sg:postcode":"06840",
    "sg:province":"NY",
    "src:geom":"simplegeo",
    "wof:belongsto":[
        85688629,
        85633793,
        85851779,
        102084283
    ],
    "wof:breaches":[],
    "wof:concordances":{
        "sg:id":"SG_7TkAZ3nhIGahxUGMk6sMYC_41.145925_-73.497721@1294177022"
    },
    "wof:country":"US",
    "wof:geomhash":"42ca704433d1505e7580ca1f3a823474",
    "wof:hierarchy":[
        {
            "country_id":85633793,
            "county_id":102084283,
            "neighbourhood_id":85851779,
            "region_id":85688629,
            "venue_id":554934039
        }
    ],
    "wof:id":554934039,
    "wof:lastmodified":1461016887,
    "wof:name":"Bank Of New Canaan",
    "wof:parent_id":85851779,
    "wof:placetype":"venue",
    "wof:superseded_by":[],
    "wof:supersedes":[],
    "wof:tags":[]
},
  "bbox": [
    -73.497721,
    41.145925,
    -73.497721,
    41.145925
],
  "geometry": {"coordinates":[-73.497721,41.145925],"type":"Point"}
}