{
  "id": 554940259,
  "type": "Feature",
  "properties": {
    "edtf:cessation":"uuuu",
    "edtf:inception":"uuuu",
    "geom:area":0.0,
    "geom:bbox":"-73.492148,41.147609,-73.492148,41.147609",
    "geom:latitude":41.147609,
    "geom:longitude":-73.492148,
    "iso:country":"US",
    "sg:address":"5 East Ave",
    "sg:city":"New Canaan",
    "sg:classifiers":[
        {
            "category":"Personal",
            "subcategory":"Beauty Salon",
            "type":"Services"
        }
    ],
    "sg:owner":"simplegeo",
    "sg:phone":"+1   ",
    "sg:postcode":"06840",
    "sg:province":"NY",
    "sg:tags":[
        "shop"
    ],
    "src:geom":"simplegeo",
    "wof:belongsto":[
        85688629,
        85633793,
        85851779,
        102084283
    ],
    "wof:breaches":[],
    "wof:concordances":{
        "sg:id":"SG_0TqfjJEi9GKGABt1oblIgt_41.147609_-73.492148@1294177022"
    },
    "wof:country":"US",
    "wof:geomhash":"a35f830913b008de0baa7e250e724c84",
    "wof:hierarchy":[
        {
            "country_id":85633793,
            "county_id":102084283,
            "neighbourhood_id":85851779,
            "region_id":85688629,
            "venue_id":554940259
        }
    ],
    "wof:id":554940259,
    "wof:lastmodified":1461017638,
    "wof:name":"Canaan Nails",
    "wof:parent_id":85851779,
    "wof:placetype":"venue",
    "wof:superseded_by":[],
    "wof:supersedes":[],
    "wof:tags":[
        "shop"
    ]
},
  "bbox": [
    -73.492148,
    41.147609,
    -73.492148,
    41.147609
],
  "geometry": {"coordinates":[-73.492148,41.147609],"type":"Point"}
}