{
  "id": 554940559,
  "type": "Feature",
  "properties": {
    "edtf:cessation":"uuuu",
    "edtf:inception":"uuuu",
    "geom:area":0.0,
    "geom:bbox":"-73.510758,41.116993,-73.510758,41.116993",
    "geom:latitude":41.116993,
    "geom:longitude":-73.510758,
    "iso:country":"US",
    "sg:address":"158 Hawks Hill Rd",
    "sg:city":"New Canaan",
    "sg:classifiers":[
        {
            "category":"Professional",
            "subcategory":"",
            "type":"Services"
        }
    ],
    "sg:owner":"simplegeo",
    "sg:phone":"+1 203 966 8814",
    "sg:postcode":"06840",
    "sg:province":"NY",
    "src:geom":"simplegeo",
    "wof:belongsto":[
        85688629,
        85633793,
        85851779,
        102084283
    ],
    "wof:breaches":[],
    "wof:concordances":{
        "sg:id":"SG_45MiYflvNmcARzRNrT9IrH_41.116993_-73.510758@1294177022"
    },
    "wof:country":"US",
    "wof:geomhash":"a853cbf9fdbf18dbfcddee0a30f1a7d0",
    "wof:hierarchy":[
        {
            "country_id":85633793,
            "county_id":102084283,
            "neighbourhood_id":85851779,
            "region_id":85688629,
            "venue_id":554940559
        }
    ],
    "wof:id":554940559,
    "wof:lastmodified":1461017662,
    "wof:name":"Enarc Inc",
    "wof:parent_id":85851779,
    "wof:placetype":"venue",
    "wof:superseded_by":[],
    "wof:supersedes":[],
    "wof:tags":[]
},
  "bbox": [
    -73.510758,
    41.116993,
    -73.510758,
    41.116993
],
  "geometry": {"coordinates":[-73.510758,41.116993],"type":"Point"}
}