{
  "id": 554940743,
  "type": "Feature",
  "properties": {
    "edtf:cessation":"uuuu",
    "edtf:inception":"uuuu",
    "geom:area":0.0,
    "geom:bbox":"-73.656946,41.015078,-73.656946,41.015078",
    "geom:latitude":41.015078,
    "geom:longitude":-73.656946,
    "iso:country":"US",
    "sg:address":"65 Riverdale Ave",
    "sg:city":"Greenwich",
    "sg:classifiers":[
        {
            "category":"Autos & Motor Vehicles",
            "subcategory":"Auto Supplies",
            "type":"Retail Goods"
        }
    ],
    "sg:owner":"simplegeo",
    "sg:phone":"+1 203 532 1971",
    "sg:postcode":"06831",
    "sg:province":"NY",
    "sg:tags":[
        "tire"
    ],
    "src:geom":"simplegeo",
    "wof:belongsto":[
        85885307,
        102191575,
        404495949,
        85633793,
        85930941,
        102084283,
        85688629,
        420555461,
        85930937
    ],
    "wof:breaches":[],
    "wof:concordances":{
        "sg:id":"SG_3VKh8kvcyApX0ECRtp4MOi_41.015078_-73.656946@1294177022"
    },
    "wof:country":"US",
    "wof:geomhash":"8d94361838f1dfcbf2fb7e39101f6f47",
    "wof:hierarchy":[
        {
            "continent_id":102191575,
            "country_id":85633793,
            "county_id":102084283,
            "localadmin_id":404495949,
            "locality_id":85930941,
            "neighbourhood_id":85885307,
            "region_id":85688629,
            "venue_id":554940743
        },
        {
            "continent_id":102191575,
            "country_id":85633793,
            "county_id":102084283,
            "localadmin_id":404495949,
            "locality_id":85930937,
            "neighbourhood_id":420555461,
            "region_id":85688629,
            "venue_id":554940743
        }
    ],
    "wof:id":554940743,
    "wof:lastmodified":1461017675,
    "wof:name":"Razor S Tech Tire",
    "wof:parent_id":-1,
    "wof:placetype":"venue",
    "wof:superseded_by":[],
    "wof:supersedes":[],
    "wof:tags":[
        "tire"
    ]
},
  "bbox": [
    -73.656946,
    41.015078,
    -73.656946,
    41.015078
],
  "geometry": {"coordinates":[-73.656946,41.015078],"type":"Point"}
}