{
  "id": 554934073,
  "type": "Feature",
  "properties": {
    "edtf:cessation":"uuuu",
    "edtf:inception":"uuuu",
    "geom:area":0.0,
    "geom:bbox":"-73.497809,41.14313,-73.497809,41.14313",
    "geom:latitude":41.14313,
    "geom:longitude":-73.497809,
    "iso:country":"US",
    "sg:address":"69 Grove St",
    "sg:city":"New Canaan",
    "sg:classifiers":[
        {
            "category":"Building & Trades",
            "subcategory":"Construction",
            "type":"Services"
        }
    ],
    "sg:owner":"simplegeo",
    "sg:phone":"+1 203 966 2814",
    "sg:postcode":"06840",
    "sg:province":"NY",
    "sg:tags":[
        "builder",
        "patio",
        "deck"
    ],
    "src:geom":"simplegeo",
    "wof:belongsto":[
        85688629,
        85633793,
        85851779,
        102084283
    ],
    "wof:breaches":[],
    "wof:concordances":{
        "sg:id":"SG_5azz8rwp7rkSB9DhGs8TSD_41.143130_-73.497809@1294177022"
    },
    "wof:country":"US",
    "wof:geomhash":"41ba48b8479ebac9ae59ab1f4f242e47",
    "wof:hierarchy":[
        {
            "country_id":85633793,
            "county_id":102084283,
            "neighbourhood_id":85851779,
            "region_id":85688629,
            "venue_id":554934073
        }
    ],
    "wof:id":554934073,
    "wof:lastmodified":1461016896,
    "wof:name":"Deck Shield",
    "wof:parent_id":85851779,
    "wof:placetype":"venue",
    "wof:superseded_by":[],
    "wof:supersedes":[],
    "wof:tags":[
        "builder",
        "patio",
        "deck"
    ]
},
  "bbox": [
    -73.497809,
    41.14313,
    -73.497809,
    41.14313
],
  "geometry": {"coordinates":[-73.497809,41.14313],"type":"Point"}
}