{
  "id": 554937017,
  "type": "Feature",
  "properties": {
    "edtf:cessation":"uuuu",
    "edtf:inception":"uuuu",
    "geom:area":0.0,
    "geom:bbox":"-74.054616,41.07594,-74.054616,41.07594",
    "geom:latitude":41.07594,
    "geom:longitude":-74.054616,
    "iso:country":"US",
    "sg:address":"97 Red Schoolhouse Rd",
    "sg:city":"Chestnut Ridge",
    "sg:classifiers":[
        {
            "category":"Shopping",
            "subcategory":"Used Merchandise",
            "type":"Retail Goods"
        }
    ],
    "sg:owner":"simplegeo",
    "sg:phone":"+1 845 356 1453",
    "sg:postcode":"10977",
    "sg:province":"NY",
    "sg:tags":[
        "antique"
    ],
    "src:geom":"simplegeo",
    "wof:belongsto":[
        85853261,
        102191575,
        404523097,
        85633793,
        85978555,
        102082385,
        85688543
    ],
    "wof:breaches":[],
    "wof:concordances":{
        "sg:id":"SG_6vZSv7XNSQ9Yb3N8WcehGj_41.075940_-74.054616@1294177022"
    },
    "wof:country":"US",
    "wof:geomhash":"d93b1292aa010a6ae2f4826f63b83297",
    "wof:hierarchy":[
        {
            "continent_id":102191575,
            "country_id":85633793,
            "county_id":102082385,
            "localadmin_id":404523097,
            "locality_id":85978555,
            "neighbourhood_id":85853261,
            "region_id":85688543,
            "venue_id":554937017
        }
    ],
    "wof:id":554937017,
    "wof:lastmodified":1461017306,
    "wof:name":"Rockland Antiques",
    "wof:parent_id":85853261,
    "wof:placetype":"venue",
    "wof:superseded_by":[],
    "wof:supersedes":[],
    "wof:tags":[
        "antique"
    ]
},
  "bbox": [
    -74.054616,
    41.07594,
    -74.054616,
    41.07594
],
  "geometry": {"coordinates":[-74.054616,41.07594],"type":"Point"}
}