{
  "id": 554937105,
  "type": "Feature",
  "properties": {
    "edtf:cessation":"uuuu",
    "edtf:inception":"uuuu",
    "geom:area":0.0,
    "geom:bbox":"-73.492516,41.143886,-73.492516,41.143886",
    "geom:latitude":41.143886,
    "geom:longitude":-73.492516,
    "iso:country":"US",
    "sg:address":"103 South Ave",
    "sg:city":"New Canaan",
    "sg:classifiers":[
        {
            "category":"Real Estate",
            "subcategory":"Real Estate Agent",
            "type":"Services"
        }
    ],
    "sg:owner":"simplegeo",
    "sg:phone":"+1 203 972 8567",
    "sg:postcode":"06840",
    "sg:province":"NY",
    "sg:tags":[
        "relocation"
    ],
    "src:geom":"simplegeo",
    "wof:belongsto":[
        85688629,
        85633793,
        85851779,
        102084283
    ],
    "wof:breaches":[],
    "wof:concordances":{
        "sg:id":"SG_15mFKZWZgT1Qtnza80OGpT_41.143886_-73.492516@1294177022"
    },
    "wof:country":"US",
    "wof:geomhash":"d88a98bed3bd72a5cc143f7a0d6152e7",
    "wof:hierarchy":[
        {
            "country_id":85633793,
            "county_id":102084283,
            "neighbourhood_id":85851779,
            "region_id":85688629,
            "venue_id":554937105
        }
    ],
    "wof:id":554937105,
    "wof:lastmodified":1461017318,
    "wof:name":"Exclusive Relocation",
    "wof:parent_id":85851779,
    "wof:placetype":"venue",
    "wof:superseded_by":[],
    "wof:supersedes":[],
    "wof:tags":[
        "relocation"
    ]
},
  "bbox": [
    -73.492516,
    41.143886,
    -73.492516,
    41.143886
],
  "geometry": {"coordinates":[-73.49251599999999,41.143886],"type":"Point"}
}