{
  "id": 554936475,
  "type": "Feature",
  "properties": {
    "edtf:cessation":"uuuu",
    "edtf:inception":"uuuu",
    "geom:area":0.0,
    "geom:bbox":"-73.660224,41.012872,-73.660224,41.012872",
    "geom:latitude":41.012872,
    "geom:longitude":-73.660224,
    "iso:country":"US",
    "sg:address":"70 Putnam Ave",
    "sg:city":"Port Chester",
    "sg:classifiers":[
        {
            "category":"Building & Trades",
            "subcategory":"Plumbing",
            "type":"Services"
        }
    ],
    "sg:owner":"simplegeo",
    "sg:phone":"+1 914 939 8350",
    "sg:postcode":"10573",
    "sg:province":"NY",
    "sg:tags":[
        "repair"
    ],
    "src:geom":"simplegeo",
    "wof:belongsto":[
        85885307,
        102191575,
        404495949,
        85633793,
        85930941,
        102084283,
        85688629
    ],
    "wof:breaches":[],
    "wof:concordances":{
        "sg:id":"SG_6g8MkGsIYGvFsB98suACqs_41.012872_-73.660224@1294177022"
    },
    "wof:country":"US",
    "wof:geomhash":"d36859552f6f8bc0928998ba7ec9f10b",
    "wof:hierarchy":[
        {
            "continent_id":102191575,
            "country_id":85633793,
            "county_id":102084283,
            "localadmin_id":404495949,
            "locality_id":85930941,
            "neighbourhood_id":85885307,
            "region_id":85688629,
            "venue_id":554936475
        }
    ],
    "wof:id":554936475,
    "wof:lastmodified":1461017229,
    "wof:name":"Dazco Heating & AC",
    "wof:parent_id":85885307,
    "wof:placetype":"venue",
    "wof:superseded_by":[],
    "wof:supersedes":[],
    "wof:tags":[
        "repair"
    ]
},
  "bbox": [
    -73.660224,
    41.012872,
    -73.660224,
    41.012872
],
  "geometry": {"coordinates":[-73.660224,41.012872],"type":"Point"}
}