{
  "id": 554936447,
  "type": "Feature",
  "properties": {
    "edtf:cessation":"uuuu",
    "edtf:inception":"uuuu",
    "geom:area":0.0,
    "geom:bbox":"-73.495971,41.149483,-73.495971,41.149483",
    "geom:latitude":41.149483,
    "geom:longitude":-73.495971,
    "iso:country":"US",
    "sg:address":"13 Oenoke Ridge",
    "sg:city":"New Canaan",
    "sg:classifiers":[
        {
            "category":"Organizations",
            "subcategory":"Membership Organization",
            "type":"Services"
        },
        {
            "category":"Museum",
            "subcategory":"",
            "type":"Entertainment"
        }
    ],
    "sg:owner":"simplegeo",
    "sg:phone":"+1 203 966 1776",
    "sg:postcode":"06840",
    "sg:province":"NY",
    "sg:tags":[
        "historical"
    ],
    "src:geom":"simplegeo",
    "wof:belongsto":[
        85688629,
        85633793,
        85851779,
        102084283
    ],
    "wof:breaches":[],
    "wof:concordances":{
        "sg:id":"SG_6mV2nEIqoyQYYihrCmyJcz_41.149483_-73.495971@1294177022"
    },
    "wof:country":"US",
    "wof:geomhash":"559224e8c6d621a2027dfad47e19a9ce",
    "wof:hierarchy":[
        {
            "country_id":85633793,
            "county_id":102084283,
            "neighbourhood_id":85851779,
            "region_id":85688629,
            "venue_id":554936447
        }
    ],
    "wof:id":554936447,
    "wof:lastmodified":1461017222,
    "wof:name":"New Canaan Historical Society",
    "wof:parent_id":85851779,
    "wof:placetype":"venue",
    "wof:superseded_by":[],
    "wof:supersedes":[],
    "wof:tags":[
        "historical"
    ]
},
  "bbox": [
    -73.495971,
    41.149483,
    -73.495971,
    41.149483
],
  "geometry": {"coordinates":[-73.495971,41.149483],"type":"Point"}
}