{
  "id": 554937395,
  "type": "Feature",
  "properties": {
    "edtf:cessation":"uuuu",
    "edtf:inception":"uuuu",
    "geom:area":0.0,
    "geom:bbox":"-74.036113,41.077288,-74.036113,41.077288",
    "geom:latitude":41.077288,
    "geom:longitude":-74.036113,
    "iso:country":"US",
    "sg:address":"9 Perth Ave",
    "sg:city":"Spring Valley",
    "sg:classifiers":[
        {
            "category":"Wholesale",
            "subcategory":"Groceries",
            "type":"Manufacturing & Wholesale Goods"
        }
    ],
    "sg:owner":"simplegeo",
    "sg:phone":"+1 845 623 7521",
    "sg:postcode":"10977",
    "sg:province":"NY",
    "sg:tags":[
        "food",
        "bakery",
        "broker",
        "ingredient"
    ],
    "src:geom":"simplegeo",
    "wof:belongsto":[
        85853261,
        102191575,
        404523097,
        85633793,
        85978555,
        102082385,
        85688543
    ],
    "wof:breaches":[],
    "wof:concordances":{
        "sg:id":"SG_0BJK2JgV9qyCMCJh0BvCLb_41.077288_-74.036113@1294177022"
    },
    "wof:country":"US",
    "wof:geomhash":"2cda16f0892ad7936018736cb4389942",
    "wof:hierarchy":[
        {
            "continent_id":102191575,
            "country_id":85633793,
            "county_id":102082385,
            "localadmin_id":404523097,
            "locality_id":85978555,
            "neighbourhood_id":85853261,
            "region_id":85688543,
            "venue_id":554937395
        }
    ],
    "wof:id":554937395,
    "wof:lastmodified":1461017365,
    "wof:name":"Chernin Brokerage",
    "wof:parent_id":85853261,
    "wof:placetype":"venue",
    "wof:superseded_by":[],
    "wof:supersedes":[],
    "wof:tags":[
        "food",
        "bakery",
        "broker",
        "ingredient"
    ]
},
  "bbox": [
    -74.036113,
    41.077288,
    -74.036113,
    41.077288
],
  "geometry": {"coordinates":[-74.036113,41.077288],"type":"Point"}
}