{
  "id": 554938625,
  "type": "Feature",
  "properties": {
    "edtf:cessation":"uuuu",
    "edtf:inception":"uuuu",
    "geom:area":0.0,
    "geom:bbox":"-73.498425,41.145943,-73.498425,41.145943",
    "geom:latitude":41.145943,
    "geom:longitude":-73.498425,
    "iso:country":"US",
    "sg:address":"199 Elm St",
    "sg:city":"New Canaan",
    "sg:classifiers":[
        {
            "category":"Professional",
            "subcategory":"Computer Services",
            "type":"Services"
        }
    ],
    "sg:owner":"simplegeo",
    "sg:phone":"+1   ",
    "sg:postcode":"06840",
    "sg:province":"NY",
    "sg:tags":[
        "prepackaged",
        "software"
    ],
    "src:geom":"simplegeo",
    "wof:belongsto":[
        85688629,
        85633793,
        85851779,
        102084283
    ],
    "wof:breaches":[],
    "wof:concordances":{
        "sg:id":"SG_7jrSzmbFUIvjlSydUMrSNK_41.145943_-73.498425@1294177022"
    },
    "wof:country":"US",
    "wof:geomhash":"453fb7b1f7a1c5299cd12d25e3ca5d04",
    "wof:hierarchy":[
        {
            "country_id":85633793,
            "county_id":102084283,
            "neighbourhood_id":85851779,
            "region_id":85688629,
            "venue_id":554938625
        }
    ],
    "wof:id":554938625,
    "wof:lastmodified":1461017492,
    "wof:name":"Nexternal Solutions",
    "wof:parent_id":85851779,
    "wof:placetype":"venue",
    "wof:superseded_by":[],
    "wof:supersedes":[],
    "wof:tags":[
        "prepackaged",
        "software"
    ]
},
  "bbox": [
    -73.498425,
    41.145943,
    -73.498425,
    41.145943
],
  "geometry": {"coordinates":[-73.498425,41.145943],"type":"Point"}
}