{
  "id": 554935139,
  "type": "Feature",
  "properties": {
    "edtf:cessation":"uuuu",
    "edtf:inception":"uuuu",
    "geom:area":0.0,
    "geom:bbox":"-73.614078,41.163431,-73.614078,41.163431",
    "geom:latitude":41.163431,
    "geom:longitude":-73.614078,
    "iso:country":"US",
    "sg:address":"21 Gorge Ln",
    "sg:city":"Pound Ridge",
    "sg:classifiers":[
        {
            "category":"Building & Trades",
            "subcategory":"Construction",
            "type":"Services"
        }
    ],
    "sg:owner":"simplegeo",
    "sg:phone":"+1 914 764 4453",
    "sg:postcode":"10576",
    "sg:province":"NY",
    "sg:tags":[
        "nonresidential"
    ],
    "src:geom":"simplegeo",
    "wof:belongsto":[
        85688629,
        85633793,
        85930787,
        102084283,
        85838073
    ],
    "wof:breaches":[],
    "wof:concordances":{
        "sg:id":"SG_45iV9dIKJmm1veOEt4VZTp_41.163431_-73.614078@1294177022"
    },
    "wof:country":"US",
    "wof:geomhash":"5c54f46dcffa85bbcba14ea620f92a1b",
    "wof:hierarchy":[
        {
            "country_id":85633793,
            "county_id":102084283,
            "locality_id":85930787,
            "neighbourhood_id":85838073,
            "region_id":85688629,
            "venue_id":554935139
        }
    ],
    "wof:id":554935139,
    "wof:lastmodified":1461017028,
    "wof:name":"Fosella Vito M & Sons Builde",
    "wof:parent_id":85838073,
    "wof:placetype":"venue",
    "wof:superseded_by":[],
    "wof:supersedes":[],
    "wof:tags":[
        "nonresidential"
    ]
},
  "bbox": [
    -73.614078,
    41.163431,
    -73.614078,
    41.163431
],
  "geometry": {"coordinates":[-73.61407800000001,41.163431],"type":"Point"}
}