{
  "id": 554941823,
  "type": "Feature",
  "properties": {
    "edtf:cessation":"uuuu",
    "edtf:inception":"uuuu",
    "geom:area":0.0,
    "geom:bbox":"-73.49396,41.14675,-73.49396,41.14675",
    "geom:latitude":41.14675,
    "geom:longitude":-73.49396,
    "iso:country":"US",
    "sg:address":"134 Elm St",
    "sg:city":"New Canaan",
    "sg:classifiers":[
        {
            "category":"Shopping",
            "subcategory":"",
            "type":"Retail Goods"
        }
    ],
    "sg:owner":"simplegeo",
    "sg:phone":"+1 203 966 2274",
    "sg:postcode":"06840",
    "sg:province":"NY",
    "sg:tags":[
        "art",
        "gallery",
        "dealer"
    ],
    "src:geom":"simplegeo",
    "wof:belongsto":[
        85688629,
        85633793,
        85851779,
        102084283
    ],
    "wof:breaches":[],
    "wof:concordances":{
        "sg:id":"SG_3rCCUiMcZXhVpA0wLP5lnc_41.146750_-73.493960@1294177022"
    },
    "wof:country":"US",
    "wof:geomhash":"e9d5604d7f9e30222bee2c525c78c64f",
    "wof:hierarchy":[
        {
            "country_id":85633793,
            "county_id":102084283,
            "neighbourhood_id":85851779,
            "region_id":85688629,
            "venue_id":554941823
        }
    ],
    "wof:id":554941823,
    "wof:lastmodified":1461017811,
    "wof:name":"Butler Fine Art",
    "wof:parent_id":85851779,
    "wof:placetype":"venue",
    "wof:superseded_by":[],
    "wof:supersedes":[],
    "wof:tags":[
        "art",
        "gallery",
        "dealer"
    ]
},
  "bbox": [
    -73.49396,
    41.14675,
    -73.49396,
    41.14675
],
  "geometry": {"coordinates":[-73.49396,41.14675],"type":"Point"}
}