{
  "id": 554934701,
  "type": "Feature",
  "properties": {
    "edtf:cessation":"uuuu",
    "edtf:inception":"uuuu",
    "geom:area":0.0,
    "geom:bbox":"-74.058241,41.070897,-74.058241,41.070897",
    "geom:latitude":41.070897,
    "geom:longitude":-74.058241,
    "iso:country":"US",
    "sg:address":"4 Pamela Dr",
    "sg:city":"Spring Valley",
    "sg:classifiers":[
        {
            "category":"Shopping",
            "subcategory":"Gifts & Souvenirs",
            "type":"Retail Goods"
        }
    ],
    "sg:owner":"simplegeo",
    "sg:phone":"+1   ",
    "sg:postcode":"10977",
    "sg:province":"NY",
    "src:geom":"simplegeo",
    "wof:belongsto":[
        85853261,
        102191575,
        404523097,
        85633793,
        85978555,
        102082385,
        85688543
    ],
    "wof:breaches":[],
    "wof:concordances":{
        "sg:id":"SG_6Y6ea43kRzYC716gGvqY4j_41.070897_-74.058241@1294177022"
    },
    "wof:country":"US",
    "wof:geomhash":"cec8cfcfea94e54cb8a2c094bd91b940",
    "wof:hierarchy":[
        {
            "continent_id":102191575,
            "country_id":85633793,
            "county_id":102082385,
            "localadmin_id":404523097,
            "locality_id":85978555,
            "neighbourhood_id":85853261,
            "region_id":85688543,
            "venue_id":554934701
        }
    ],
    "wof:id":554934701,
    "wof:lastmodified":1461016973,
    "wof:name":"Lilys of Field",
    "wof:parent_id":85853261,
    "wof:placetype":"venue",
    "wof:superseded_by":[],
    "wof:supersedes":[],
    "wof:tags":[]
},
  "bbox": [
    -74.058241,
    41.070897,
    -74.058241,
    41.070897
],
  "geometry": {"coordinates":[-74.058241,41.070897],"type":"Point"}
}