{
  "id": 554939939,
  "type": "Feature",
  "properties": {
    "edtf:cessation":"uuuu",
    "edtf:inception":"uuuu",
    "geom:area":0.0,
    "geom:bbox":"-73.463226,41.155365,-73.463226,41.155365",
    "geom:latitude":41.155365,
    "geom:longitude":-73.463226,
    "iso:country":"US",
    "sg:address":"11 Pastures Ln",
    "sg:city":"New Canaan",
    "sg:classifiers":[
        {
            "category":"Professional",
            "subcategory":"Engineering",
            "type":"Services"
        }
    ],
    "sg:owner":"simplegeo",
    "sg:phone":"+1   ",
    "sg:postcode":"06840",
    "sg:province":"NY",
    "src:geom":"simplegeo",
    "wof:belongsto":[
        85688629,
        85633793,
        85848785,
        102084283
    ],
    "wof:breaches":[],
    "wof:concordances":{
        "sg:id":"SG_6gtUo0VuWKcfiUTP6pvlNG_41.155365_-73.463226@1294177022"
    },
    "wof:country":"US",
    "wof:geomhash":"410c412feabeafc361eb7624f741e570",
    "wof:hierarchy":[
        {
            "country_id":85633793,
            "county_id":102084283,
            "neighbourhood_id":85848785,
            "region_id":85688629,
            "venue_id":554939939
        }
    ],
    "wof:id":554939939,
    "wof:lastmodified":1461017609,
    "wof:name":"Lewis R Scott Pe PC",
    "wof:parent_id":85848785,
    "wof:placetype":"venue",
    "wof:superseded_by":[],
    "wof:supersedes":[],
    "wof:tags":[]
},
  "bbox": [
    -73.463226,
    41.155365,
    -73.463226,
    41.155365
],
  "geometry": {"coordinates":[-73.46322600000001,41.155365],"type":"Point"}
}