{
  "id": 554936045,
  "type": "Feature",
  "properties": {
    "edtf:cessation":"uuuu",
    "edtf:inception":"uuuu",
    "geom:area":0.0,
    "geom:bbox":"-73.520765,41.182461,-73.520765,41.182461",
    "geom:latitude":41.182461,
    "geom:longitude":-73.520765,
    "iso:country":"US",
    "sg:address":"1151 Oenoke Ridge",
    "sg:city":"New Canaan",
    "sg:classifiers":[
        {
            "category":"Banks & Credit Unions",
            "subcategory":"Financial Services",
            "type":"Services"
        }
    ],
    "sg:owner":"simplegeo",
    "sg:phone":"+1 203 966 2714",
    "sg:postcode":"06840",
    "sg:province":"NY",
    "sg:tags":[
        "company",
        "holding"
    ],
    "src:geom":"simplegeo",
    "wof:belongsto":[],
    "wof:breaches":[],
    "wof:concordances":{
        "sg:id":"SG_35djNkuVlSRepm9XCcbAMm_41.182461_-73.520765@1294177022"
    },
    "wof:country":"US",
    "wof:geomhash":"02b18da3053a41e50926cd60a566550b",
    "wof:hierarchy":[],
    "wof:id":554936045,
    "wof:lastmodified":1461017156,
    "wof:name":"Oakridge Holdings",
    "wof:parent_id":-1,
    "wof:placetype":"venue",
    "wof:superseded_by":[],
    "wof:supersedes":[],
    "wof:tags":[
        "company",
        "holding"
    ]
},
  "bbox": [
    -73.520765,
    41.182461,
    -73.520765,
    41.182461
],
  "geometry": {"coordinates":[-73.520765,41.182461],"type":"Point"}
}