{
  "id": 554941601,
  "type": "Feature",
  "properties": {
    "edtf:cessation":"uuuu",
    "edtf:inception":"uuuu",
    "geom:area":0.0,
    "geom:bbox":"-73.4882,41.148959,-73.4882,41.148959",
    "geom:latitude":41.148959,
    "geom:longitude":-73.4882,
    "iso:country":"US",
    "sg:address":"22 Vitti St",
    "sg:city":"New Canaan",
    "sg:classifiers":[
        {
            "category":"Building & Trades",
            "subcategory":"Landscaping Services",
            "type":"Services"
        }
    ],
    "sg:owner":"simplegeo",
    "sg:phone":"+1 203 966 2686",
    "sg:postcode":"06840",
    "sg:province":"NY",
    "sg:tags":[
        "tree"
    ],
    "src:geom":"simplegeo",
    "wof:belongsto":[
        85688629,
        85633793,
        85851779,
        102084283
    ],
    "wof:breaches":[],
    "wof:concordances":{
        "sg:id":"SG_4ANAvSRRKu1DGGnp28eQXT_41.148959_-73.488200@1294177022"
    },
    "wof:country":"US",
    "wof:geomhash":"7aa410da40b758187a6f84a602c0510f",
    "wof:hierarchy":[
        {
            "country_id":85633793,
            "county_id":102084283,
            "neighbourhood_id":85851779,
            "region_id":85688629,
            "venue_id":554941601
        }
    ],
    "wof:id":554941601,
    "wof:lastmodified":1461017775,
    "wof:name":"Howard B Toms Tree Surgery Inc",
    "wof:parent_id":85851779,
    "wof:placetype":"venue",
    "wof:superseded_by":[],
    "wof:supersedes":[],
    "wof:tags":[
        "tree"
    ]
},
  "bbox": [
    -73.4882,
    41.148959,
    -73.4882,
    41.148959
],
  "geometry": {"coordinates":[-73.48820000000001,41.148959],"type":"Point"}
}