{
  "id": 554935087,
  "type": "Feature",
  "properties": {
    "edtf:cessation":"uuuu",
    "edtf:inception":"uuuu",
    "geom:area":0.0,
    "geom:bbox":"-73.482538,41.144951,-73.482538,41.144951",
    "geom:latitude":41.144951,
    "geom:longitude":-73.482538,
    "iso:country":"US",
    "sg:address":"150 Lakeview Ave",
    "sg:city":"New Canaan",
    "sg:classifiers":[
        {
            "category":"Building & Trades",
            "subcategory":"Construction",
            "type":"Services"
        }
    ],
    "sg:owner":"simplegeo",
    "sg:phone":"+1 203 966 0929",
    "sg:postcode":"06840",
    "sg:province":"NY",
    "sg:tags":[
        "marking",
        "maintenance",
        "parking"
    ],
    "src:geom":"simplegeo",
    "wof:belongsto":[
        85688629,
        85633793,
        85851779,
        102084283
    ],
    "wof:breaches":[],
    "wof:concordances":{
        "sg:id":"SG_1swP70RnNdtd3q8veosPjC_41.144951_-73.482538@1294177022"
    },
    "wof:country":"US",
    "wof:geomhash":"261ecac9a316cbf5a444e5ba0a2de6fc",
    "wof:hierarchy":[
        {
            "country_id":85633793,
            "county_id":102084283,
            "neighbourhood_id":85851779,
            "region_id":85688629,
            "venue_id":554935087
        }
    ],
    "wof:id":554935087,
    "wof:lastmodified":1461017021,
    "wof:name":"City Highway Dept Garage",
    "wof:parent_id":85851779,
    "wof:placetype":"venue",
    "wof:superseded_by":[],
    "wof:supersedes":[],
    "wof:tags":[
        "marking",
        "maintenance",
        "parking"
    ]
},
  "bbox": [
    -73.482538,
    41.144951,
    -73.482538,
    41.144951
],
  "geometry": {"coordinates":[-73.48253800000001,41.144951],"type":"Point"}
}