{
  "id": 572175757,
  "type": "Feature",
  "properties": {
    "edtf:cessation":"uuuu",
    "edtf:inception":"uuuu",
    "geom:area":0.0,
    "geom:bbox":"-71.951928,41.74139,-71.951928,41.74139",
    "geom:latitude":41.74139,
    "geom:longitude":-71.951928,
    "iso:country":"US",
    "sg:address":"240 Edgemere St",
    "sg:city":"Montauk",
    "sg:classifiers":[
        {
            "category":"Health Services",
            "subcategory":"Health Practitioner",
            "type":"Services"
        }
    ],
    "sg:owner":"simplegeo",
    "sg:phone":"+1 631 668 1372",
    "sg:postcode":"11954",
    "sg:province":"NY",
    "sg:tags":[
        "therapy",
        "physical"
    ],
    "src:geom":"simplegeo",
    "wof:belongsto":[],
    "wof:breaches":[],
    "wof:concordances":{
        "sg:id":"SG_1UhdtWK7zCZfM3QBi60pwM_41.741390_-71.951928@1303262383"
    },
    "wof:country":"US",
    "wof:geomhash":"af213f3860fd530f8249d8ea2cb1beeb",
    "wof:hierarchy":[],
    "wof:id":572175757,
    "wof:lastmodified":1461051591,
    "wof:name":"Manual & Sports Physical Therapy PC",
    "wof:parent_id":-1,
    "wof:placetype":"venue",
    "wof:superseded_by":[],
    "wof:supersedes":[],
    "wof:tags":[
        "therapy",
        "physical"
    ]
},
  "bbox": [
    -71.951928,
    41.74139,
    -71.951928,
    41.74139
],
  "geometry": {"coordinates":[-71.951928,41.74139],"type":"Point"}
}