{
  "id": 554934867,
  "type": "Feature",
  "properties": {
    "edtf:cessation":"uuuu",
    "edtf:inception":"uuuu",
    "geom:area":0.0,
    "geom:bbox":"-73.659795,41.012619,-73.659795,41.012619",
    "geom:latitude":41.012619,
    "geom:longitude":-73.659795,
    "iso:country":"US",
    "sg:address":"530 Willett Ave",
    "sg:city":"Port Chester",
    "sg:classifiers":[
        {
            "category":"Building & Trades",
            "subcategory":"Construction",
            "type":"Services"
        }
    ],
    "sg:owner":"simplegeo",
    "sg:phone":"+1 914 937 5995",
    "sg:postcode":"10573",
    "sg:province":"NY",
    "sg:tags":[
        "industrial",
        "contractor"
    ],
    "src:geom":"simplegeo",
    "wof:belongsto":[
        85885307,
        102191575,
        404495949,
        85633793,
        85930941,
        102084283,
        85688629
    ],
    "wof:breaches":[],
    "wof:concordances":{
        "sg:id":"SG_2xUyeag6Ci5Tdi9AxHTZTv_41.012619_-73.659795@1294177022"
    },
    "wof:country":"US",
    "wof:geomhash":"c99bbc78a2326f0c006c13e6cc03887a",
    "wof:hierarchy":[
        {
            "continent_id":102191575,
            "country_id":85633793,
            "county_id":102084283,
            "localadmin_id":404495949,
            "locality_id":85930941,
            "neighbourhood_id":85885307,
            "region_id":85688629,
            "venue_id":554934867
        }
    ],
    "wof:id":554934867,
    "wof:lastmodified":1461016993,
    "wof:name":"Seaboard Weatherproofing Co",
    "wof:parent_id":85885307,
    "wof:placetype":"venue",
    "wof:superseded_by":[],
    "wof:supersedes":[],
    "wof:tags":[
        "industrial",
        "contractor"
    ]
},
  "bbox": [
    -73.659795,
    41.012619,
    -73.659795,
    41.012619
],
  "geometry": {"coordinates":[-73.659795,41.012619],"type":"Point"}
}