{
  "id": 554940727,
  "type": "Feature",
  "properties": {
    "edtf:cessation":"uuuu",
    "edtf:inception":"uuuu",
    "geom:area":0.0,
    "geom:bbox":"-73.491965,41.148952,-73.491965,41.148952",
    "geom:latitude":41.148952,
    "geom:longitude":-73.491965,
    "iso:country":"US",
    "sg:address":"3 Forest St",
    "sg:city":"New Canaan",
    "sg:classifiers":[
        {
            "category":"Professional",
            "subcategory":"",
            "type":"Services"
        }
    ],
    "sg:owner":"simplegeo",
    "sg:phone":"+1 203 972 3115",
    "sg:postcode":"06840",
    "sg:province":"NY",
    "sg:tags":[
        "arts",
        "artist"
    ],
    "src:geom":"simplegeo",
    "wof:belongsto":[
        85688629,
        85633793,
        85851779,
        102084283
    ],
    "wof:breaches":[],
    "wof:concordances":{
        "sg:id":"SG_48ELfSzMJ1SK1qebNxeI4E_41.148952_-73.491965@1294177022"
    },
    "wof:country":"US",
    "wof:geomhash":"478a446776497f4aee8c2e0a21840a18",
    "wof:hierarchy":[
        {
            "country_id":85633793,
            "county_id":102084283,
            "neighbourhood_id":85851779,
            "region_id":85688629,
            "venue_id":554940727
        }
    ],
    "wof:id":554940727,
    "wof:lastmodified":1461017674,
    "wof:name":"MRK Fine Arts",
    "wof:parent_id":85851779,
    "wof:placetype":"venue",
    "wof:superseded_by":[],
    "wof:supersedes":[],
    "wof:tags":[
        "arts",
        "artist"
    ]
},
  "bbox": [
    -73.491965,
    41.148952,
    -73.491965,
    41.148952
],
  "geometry": {"coordinates":[-73.49196499999999,41.148952],"type":"Point"}
}