{
  "id": 554935819,
  "type": "Feature",
  "properties": {
    "edtf:cessation":"uuuu",
    "edtf:inception":"uuuu",
    "geom:area":0.0,
    "geom:bbox":"-73.493368,41.142616,-73.493368,41.142616",
    "geom:latitude":41.142616,
    "geom:longitude":-73.493368,
    "iso:country":"US",
    "sg:address":"27 Mead St",
    "sg:city":"New Canaan",
    "sg:classifiers":[
        {
            "category":"Building & Trades",
            "subcategory":"Cleaning & Sanitation",
            "type":"Services"
        }
    ],
    "sg:owner":"simplegeo",
    "sg:phone":"+1   ",
    "sg:postcode":"06840",
    "sg:province":"NY",
    "sg:tags":[
        "maintenance"
    ],
    "src:geom":"simplegeo",
    "wof:belongsto":[
        85688629,
        85633793,
        85851779,
        102084283
    ],
    "wof:breaches":[],
    "wof:concordances":{
        "sg:id":"SG_2bOLupegqDpvXPFU065jAI_41.142616_-73.493368@1294177022"
    },
    "wof:country":"US",
    "wof:geomhash":"dc66f839d783a4a59d2e9ef8688bf2e7",
    "wof:hierarchy":[
        {
            "country_id":85633793,
            "county_id":102084283,
            "neighbourhood_id":85851779,
            "region_id":85688629,
            "venue_id":554935819
        }
    ],
    "wof:id":554935819,
    "wof:lastmodified":1461017124,
    "wof:name":"A Vecchio Design Inc",
    "wof:parent_id":85851779,
    "wof:placetype":"venue",
    "wof:superseded_by":[],
    "wof:supersedes":[],
    "wof:tags":[
        "maintenance"
    ]
},
  "bbox": [
    -73.493368,
    41.142616,
    -73.493368,
    41.142616
],
  "geometry": {"coordinates":[-73.493368,41.142616],"type":"Point"}
}