{
  "id": 554935571,
  "type": "Feature",
  "properties": {
    "edtf:cessation":"uuuu",
    "edtf:inception":"uuuu",
    "geom:area":0.0,
    "geom:bbox":"-73.500158,41.141908,-73.500158,41.141908",
    "geom:latitude":41.141908,
    "geom:longitude":-73.500158,
    "iso:country":"US",
    "sg:address":"123 Richmond Hill Rd",
    "sg:city":"New Canaan",
    "sg:classifiers":[
        {
            "category":"Professional",
            "subcategory":"Computer Services",
            "type":"Services"
        }
    ],
    "sg:owner":"simplegeo",
    "sg:phone":"+1 203 966 3700",
    "sg:postcode":"06840",
    "sg:province":"NY",
    "sg:tags":[
        "home",
        "consulting",
        "page",
        "dev",
        "internet"
    ],
    "sg:website":"www.teleteria.com",
    "src:geom":"simplegeo",
    "wof:belongsto":[
        85688629,
        85633793,
        85851779,
        102084283
    ],
    "wof:breaches":[],
    "wof:concordances":{
        "sg:id":"SG_2ZbbT897PN0U1BqoYgPegr_41.141908_-73.500158@1294177022"
    },
    "wof:country":"US",
    "wof:geomhash":"96192f8aa3016326da8a1acbf593e032",
    "wof:hierarchy":[
        {
            "country_id":85633793,
            "county_id":102084283,
            "neighbourhood_id":85851779,
            "region_id":85688629,
            "venue_id":554935571
        }
    ],
    "wof:id":554935571,
    "wof:lastmodified":1461017090,
    "wof:name":"TELETERIA.COM",
    "wof:parent_id":85851779,
    "wof:placetype":"venue",
    "wof:superseded_by":[],
    "wof:supersedes":[],
    "wof:tags":[
        "home",
        "consulting",
        "page",
        "dev",
        "internet"
    ]
},
  "bbox": [
    -73.500158,
    41.141908,
    -73.500158,
    41.141908
],
  "geometry": {"coordinates":[-73.500158,41.141908],"type":"Point"}
}