{
  "id": 554936129,
  "type": "Feature",
  "properties": {
    "edtf:cessation":"uuuu",
    "edtf:inception":"uuuu",
    "geom:area":0.0,
    "geom:bbox":"-73.489518,41.155657,-73.489518,41.155657",
    "geom:latitude":41.155657,
    "geom:longitude":-73.489518,
    "iso:country":"US",
    "sg:address":"103 Brushy Ridge Rd",
    "sg:city":"New Canaan",
    "sg:classifiers":[
        {
            "category":"Wholesale",
            "subcategory":"Farm Supplies",
            "type":"Manufacturing & Wholesale Goods"
        }
    ],
    "sg:owner":"simplegeo",
    "sg:phone":"+1 203 966 6111",
    "sg:postcode":"06840",
    "sg:province":"NY",
    "sg:tags":[
        "livestock"
    ],
    "src:geom":"simplegeo",
    "wof:belongsto":[
        85688629,
        85633793,
        85851779,
        102084283
    ],
    "wof:breaches":[],
    "wof:concordances":{
        "sg:id":"SG_4wFUUXWcXkEUOQMGd8sMG2_41.155657_-73.489518@1294177022"
    },
    "wof:country":"US",
    "wof:geomhash":"5eea27e1bfee09a91e39fa6279dae7b1",
    "wof:hierarchy":[
        {
            "country_id":85633793,
            "county_id":102084283,
            "neighbourhood_id":85851779,
            "region_id":85688629,
            "venue_id":554936129
        }
    ],
    "wof:id":554936129,
    "wof:lastmodified":1461017169,
    "wof:name":"Balla Machree Farms",
    "wof:parent_id":85851779,
    "wof:placetype":"venue",
    "wof:superseded_by":[],
    "wof:supersedes":[],
    "wof:tags":[
        "livestock"
    ]
},
  "bbox": [
    -73.489518,
    41.155657,
    -73.489518,
    41.155657
],
  "geometry": {"coordinates":[-73.489518,41.155657],"type":"Point"}
}