{
  "id": 572171059,
  "type": "Feature",
  "properties": {
    "edtf:cessation":"uuuu",
    "edtf:inception":"uuuu",
    "geom:area":0.0,
    "geom:bbox":"-74.285488,40.647049,-74.285488,40.647049",
    "geom:latitude":40.647049,
    "geom:longitude":-74.285488,
    "iso:country":"US",
    "sg:address":"5620 1st Ave Ste 1",
    "sg:city":"Brooklyn",
    "sg:classifiers":[
        {
            "category":"Personal",
            "subcategory":"",
            "type":"Services"
        }
    ],
    "sg:owner":"simplegeo",
    "sg:phone":"+1 718 998 6050",
    "sg:postcode":"11220",
    "sg:province":"NY",
    "sg:tags":[
        "sewing",
        "alteration"
    ],
    "src:geom":"simplegeo",
    "wof:belongsto":[
        85688607,
        85633793,
        85850963,
        102085995
    ],
    "wof:breaches":[],
    "wof:concordances":{
        "sg:id":"SG_0I3JdIUSqHvUWUtZ19lQ3N_40.647049_-74.285488@1303262344"
    },
    "wof:country":"US",
    "wof:geomhash":"e40af75b876cbd87f88de89a79b789a2",
    "wof:hierarchy":[
        {
            "country_id":85633793,
            "county_id":102085995,
            "neighbourhood_id":85850963,
            "region_id":85688607,
            "venue_id":572171059
        }
    ],
    "wof:id":572171059,
    "wof:lastmodified":1461051438,
    "wof:name":"Mango Usa Inc",
    "wof:parent_id":85850963,
    "wof:placetype":"venue",
    "wof:superseded_by":[],
    "wof:supersedes":[],
    "wof:tags":[
        "sewing",
        "alteration"
    ]
},
  "bbox": [
    -74.285488,
    40.647049,
    -74.285488,
    40.647049
],
  "geometry": {"coordinates":[-74.285488,40.647049],"type":"Point"}
}