{
  "id": 554937663,
  "type": "Feature",
  "properties": {
    "edtf:cessation":"uuuu",
    "edtf:inception":"uuuu",
    "geom:area":0.0,
    "geom:bbox":"-73.667378,41.086942,-73.667378,41.086942",
    "geom:latitude":41.086942,
    "geom:longitude":-73.667378,
    "iso:country":"US",
    "sg:address":"356 Round Hill Rd",
    "sg:city":"Greenwich",
    "sg:classifiers":[
        {
            "category":"Professional",
            "subcategory":"Business Services",
            "type":"Services"
        }
    ],
    "sg:owner":"simplegeo",
    "sg:phone":"+1   ",
    "sg:postcode":"06831",
    "sg:province":"NY",
    "src:geom":"simplegeo",
    "wof:belongsto":[
        85688629,
        85633793,
        85837667,
        102084283
    ],
    "wof:breaches":[],
    "wof:concordances":{
        "sg:id":"SG_3ickuTIz4o4CObAKG7TKoA_41.086942_-73.667378@1294177022"
    },
    "wof:country":"US",
    "wof:geomhash":"70518c3591eec828c83f44662581a5bc",
    "wof:hierarchy":[
        {
            "country_id":85633793,
            "county_id":102084283,
            "neighbourhood_id":85837667,
            "region_id":85688629,
            "venue_id":554937663
        }
    ],
    "wof:id":554937663,
    "wof:lastmodified":1461017402,
    "wof:name":"Gedc Limited Partnership",
    "wof:parent_id":85837667,
    "wof:placetype":"venue",
    "wof:superseded_by":[],
    "wof:supersedes":[],
    "wof:tags":[]
},
  "bbox": [
    -73.667378,
    41.086942,
    -73.667378,
    41.086942
],
  "geometry": {"coordinates":[-73.667378,41.086942],"type":"Point"}
}