{
  "id": 572178325,
  "type": "Feature",
  "properties": {
    "edtf:cessation":"uuuu",
    "edtf:inception":"uuuu",
    "geom:area":0.0,
    "geom:bbox":"-79.693703,42.022289,-79.693703,42.022289",
    "geom:latitude":42.022289,
    "geom:longitude":-79.693703,
    "iso:country":"US",
    "sg:address":"542 Route 426",
    "sg:city":"Clymer",
    "sg:classifiers":[],
    "sg:owner":"simplegeo",
    "sg:phone":"+1 716 355 4400",
    "sg:postcode":"14724",
    "sg:province":"NY",
    "src:geom":"simplegeo",
    "wof:belongsto":[
        85688481,
        85633793,
        85850957,
        102080955
    ],
    "wof:breaches":[],
    "wof:concordances":{
        "sg:id":"SG_7PtxqveLYhJkAIWwqJK76j_42.022289_-79.693703@1303262403"
    },
    "wof:country":"US",
    "wof:geomhash":"3c9ef6f822a6da8bb40957e2574087ef",
    "wof:hierarchy":[
        {
            "country_id":85633793,
            "county_id":102080955,
            "neighbourhood_id":85850957,
            "region_id":85688481,
            "venue_id":572178325
        }
    ],
    "wof:id":572178325,
    "wof:lastmodified":1461051666,
    "wof:name":"Cutting Lanes Inc",
    "wof:parent_id":85850957,
    "wof:placetype":"venue",
    "wof:superseded_by":[],
    "wof:supersedes":[],
    "wof:tags":[]
},
  "bbox": [
    -79.693703,
    42.022289,
    -79.693703,
    42.022289
],
  "geometry": {"coordinates":[-79.693703,42.022289],"type":"Point"}
}