{
  "id": 555209803,
  "type": "Feature",
  "properties": {
    "edtf:cessation":"uuuu",
    "edtf:inception":"uuuu",
    "geom:area":0.0,
    "geom:bbox":"-73.981295,40.771029,-73.981295,40.771029",
    "geom:latitude":40.771029,
    "geom:longitude":-73.981295,
    "iso:country":"US",
    "sg:address":"1 Lincoln Center Plz",
    "sg:city":"New York",
    "sg:classifiers":[
        {
            "category":"Arts & Performance",
            "subcategory":"Theater",
            "type":"Entertainment"
        }
    ],
    "sg:owner":"simplegeo",
    "sg:phone":"+1   ",
    "sg:postcode":"10023",
    "sg:province":"NY",
    "sg:tags":[
        "theatrical"
    ],
    "src:geom":"simplegeo",
    "wof:belongsto":[],
    "wof:breaches":[],
    "wof:concordances":{
        "sg:id":"SG_0b6Ps4wpXgn4e1bZ0nbXMe_40.771029_-73.981295@1294177022"
    },
    "wof:country":"US",
    "wof:geomhash":"aaee778818475b2bef4fab27b3cd61a5",
    "wof:hierarchy":[],
    "wof:id":555209803,
    "wof:lastmodified":1461024441,
    "wof:name":"Theatrical Produces",
    "wof:parent_id":-1,
    "wof:placetype":"venue",
    "wof:superseded_by":[],
    "wof:supersedes":[],
    "wof:tags":[
        "theatrical"
    ]
},
  "bbox": [
    -73.981295,
    40.771029,
    -73.981295,
    40.771029
],
  "geometry": {"coordinates":[-73.981295,40.771029],"type":"Point"}
}