{
  "id": 554934143,
  "type": "Feature",
  "properties": {
    "edtf:cessation":"uuuu",
    "edtf:inception":"uuuu",
    "geom:area":0.0,
    "geom:bbox":"-77.313127,41.989079,-77.313127,41.989079",
    "geom:latitude":41.989079,
    "geom:longitude":-77.313127,
    "iso:country":"US",
    "sg:address":"120 Parkhurst St",
    "sg:city":"Elkland",
    "sg:classifiers":[
        {
            "category":"Shopping",
            "subcategory":"Jewelry",
            "type":"Retail Goods"
        }
    ],
    "sg:owner":"simplegeo",
    "sg:phone":"+1   ",
    "sg:postcode":"16920",
    "sg:province":"NY",
    "src:geom":"simplegeo",
    "wof:belongsto":[
        85688481,
        85633793,
        101717081,
        102080937,
        85807903
    ],
    "wof:breaches":[],
    "wof:concordances":{
        "sg:id":"SG_1qxwqQxjIl6uM0H5Z63PHN_41.989079_-77.313127@1294177022"
    },
    "wof:country":"US",
    "wof:geomhash":"ae2f8282d0febc47a10b54d214d99aff",
    "wof:hierarchy":[
        {
            "country_id":85633793,
            "county_id":102080937,
            "locality_id":101717081,
            "neighbourhood_id":85807903,
            "region_id":85688481,
            "venue_id":554934143
        }
    ],
    "wof:id":554934143,
    "wof:lastmodified":1461016904,
    "wof:name":"Potter Enterprises",
    "wof:parent_id":85807903,
    "wof:placetype":"venue",
    "wof:superseded_by":[],
    "wof:supersedes":[],
    "wof:tags":[]
},
  "bbox": [
    -77.313127,
    41.989079,
    -77.313127,
    41.989079
],
  "geometry": {"coordinates":[-77.31312699999999,41.989079],"type":"Point"}
}