{
  "id": 554935265,
  "type": "Feature",
  "properties": {
    "edtf:cessation":"uuuu",
    "edtf:inception":"uuuu",
    "geom:area":0.0,
    "geom:bbox":"-73.687267,41.044972,-73.687267,41.044972",
    "geom:latitude":41.044972,
    "geom:longitude":-73.687267,
    "iso:country":"US",
    "sg:address":"53 Doral Greens Dr W",
    "sg:city":"Port Chester",
    "sg:classifiers":[
        {
            "category":"Professional",
            "subcategory":"Management & Consulting",
            "type":"Services"
        }
    ],
    "sg:owner":"simplegeo",
    "sg:phone":"+1   ",
    "sg:postcode":"10573",
    "sg:province":"NY",
    "sg:tags":[
        "broadband",
        "marketing",
        "production",
        "video",
        "direct"
    ],
    "src:geom":"simplegeo",
    "wof:belongsto":[
        85845073,
        102191575,
        404523361,
        85633793,
        85978735,
        102082373,
        85688543
    ],
    "wof:breaches":[],
    "wof:concordances":{
        "sg:id":"SG_1YiLWCfo8YuGuuC9SowZt7_41.044972_-73.687267@1294177022"
    },
    "wof:country":"US",
    "wof:geomhash":"83a9c761fb3a72e8cbc87e4a82d83b0c",
    "wof:hierarchy":[
        {
            "continent_id":102191575,
            "country_id":85633793,
            "county_id":102082373,
            "localadmin_id":404523361,
            "locality_id":85978735,
            "neighbourhood_id":85845073,
            "region_id":85688543,
            "venue_id":554935265
        }
    ],
    "wof:id":554935265,
    "wof:lastmodified":1461017047,
    "wof:name":"Videoware Corp",
    "wof:parent_id":85845073,
    "wof:placetype":"venue",
    "wof:superseded_by":[],
    "wof:supersedes":[],
    "wof:tags":[
        "broadband",
        "marketing",
        "production",
        "video",
        "direct"
    ]
},
  "bbox": [
    -73.687267,
    41.044972,
    -73.687267,
    41.044972
],
  "geometry": {"coordinates":[-73.68726700000001,41.044972],"type":"Point"}
}