{
  "id": 554934579,
  "type": "Feature",
  "properties": {
    "edtf:cessation":"uuuu",
    "edtf:inception":"uuuu",
    "geom:area":0.0,
    "geom:bbox":"-73.638632,41.138873,-73.638632,41.138873",
    "geom:latitude":41.138873,
    "geom:longitude":-73.638632,
    "iso:country":"US",
    "sg:address":"1066 North St",
    "sg:city":"Greenwich",
    "sg:classifiers":[
        {
            "category":"Food & Beverages",
            "subcategory":"Liquor & Beverages",
            "type":"Retail Goods"
        }
    ],
    "sg:owner":"simplegeo",
    "sg:phone":"+1 203 869 8535",
    "sg:postcode":"06831",
    "sg:province":"NY",
    "sg:tags":[
        "alcoholic"
    ],
    "src:geom":"simplegeo",
    "wof:belongsto":[],
    "wof:breaches":[],
    "wof:concordances":{
        "sg:id":"SG_2VVYYqHH3cronDfv1igCcU_41.138873_-73.638632@1294177022"
    },
    "wof:country":"US",
    "wof:geomhash":"14d99a9ab2469e736efbb439529c99f4",
    "wof:hierarchy":[],
    "wof:id":554934579,
    "wof:lastmodified":1461016959,
    "wof:name":"Banksville Liquor Store",
    "wof:parent_id":-1,
    "wof:placetype":"venue",
    "wof:superseded_by":[],
    "wof:supersedes":[],
    "wof:tags":[
        "alcoholic"
    ]
},
  "bbox": [
    -73.638632,
    41.138873,
    -73.638632,
    41.138873
],
  "geometry": {"coordinates":[-73.638632,41.138873],"type":"Point"}
}