{
  "id": 554940055,
  "type": "Feature",
  "properties": {
    "edtf:cessation":"uuuu",
    "edtf:inception":"uuuu",
    "geom:area":0.0,
    "geom:bbox":"-73.659471,41.016608,-73.659471,41.016608",
    "geom:latitude":41.016608,
    "geom:longitude":-73.659471,
    "iso:country":"US",
    "sg:address":"44 Madison Ave",
    "sg:city":"Port Chester",
    "sg:classifiers":[
        {
            "category":"Building & Trades",
            "subcategory":"Plumbing",
            "type":"Services"
        }
    ],
    "sg:owner":"simplegeo",
    "sg:phone":"+1 914 939 1722",
    "sg:postcode":"10573",
    "sg:province":"NY",
    "sg:tags":[
        "plumbing",
        "contractor"
    ],
    "src:geom":"simplegeo",
    "wof:belongsto":[
        85885307,
        102191575,
        404495949,
        85633793,
        85930941,
        102084283,
        85688629
    ],
    "wof:breaches":[],
    "wof:concordances":{
        "sg:id":"SG_4FjE92qkCYodbtaOLlw12a_41.016608_-73.659471@1294177022"
    },
    "wof:country":"US",
    "wof:geomhash":"fe2ead995027380e6687e3202d870c2b",
    "wof:hierarchy":[
        {
            "continent_id":102191575,
            "country_id":85633793,
            "county_id":102084283,
            "localadmin_id":404495949,
            "locality_id":85930941,
            "neighbourhood_id":85885307,
            "region_id":85688629,
            "venue_id":554940055
        }
    ],
    "wof:id":554940055,
    "wof:lastmodified":1461017620,
    "wof:name":"James E Kelley & Co",
    "wof:parent_id":85885307,
    "wof:placetype":"venue",
    "wof:superseded_by":[],
    "wof:supersedes":[],
    "wof:tags":[
        "plumbing",
        "contractor"
    ]
},
  "bbox": [
    -73.659471,
    41.016608,
    -73.659471,
    41.016608
],
  "geometry": {"coordinates":[-73.659471,41.016608],"type":"Point"}
}