{
  "id": 554936183,
  "type": "Feature",
  "properties": {
    "edtf:cessation":"uuuu",
    "edtf:inception":"uuuu",
    "geom:area":0.0,
    "geom:bbox":"-73.489539,41.151236,-73.489539,41.151236",
    "geom:latitude":41.151236,
    "geom:longitude":-73.489539,
    "iso:country":"US",
    "sg:address":"197 New Norwalk Rd",
    "sg:city":"New Canaan",
    "sg:classifiers":[
        {
            "category":"Shopping",
            "subcategory":"Florist",
            "type":"Retail Goods"
        }
    ],
    "sg:owner":"simplegeo",
    "sg:phone":"+1 203 966 5673",
    "sg:postcode":"06840",
    "sg:province":"NY",
    "src:geom":"simplegeo",
    "wof:belongsto":[
        85688629,
        85633793,
        85851779,
        102084283
    ],
    "wof:breaches":[],
    "wof:concordances":{
        "sg:id":"SG_4zM949x1UGrli11KPzI58t_41.151236_-73.489539@1294177022"
    },
    "wof:country":"US",
    "wof:geomhash":"946f8ff4ce7c9c86a43d14e6d99032e3",
    "wof:hierarchy":[
        {
            "country_id":85633793,
            "county_id":102084283,
            "neighbourhood_id":85851779,
            "region_id":85688629,
            "venue_id":554936183
        }
    ],
    "wof:id":554936183,
    "wof:lastmodified":1461017178,
    "wof:name":"Earth Garden Florist & Nursery",
    "wof:parent_id":85851779,
    "wof:placetype":"venue",
    "wof:superseded_by":[],
    "wof:supersedes":[],
    "wof:tags":[]
},
  "bbox": [
    -73.489539,
    41.151236,
    -73.489539,
    41.151236
],
  "geometry": {"coordinates":[-73.48953899999999,41.151236],"type":"Point"}
}