{
  "id": 554939503,
  "type": "Feature",
  "properties": {
    "edtf:cessation":"uuuu",
    "edtf:inception":"uuuu",
    "geom:area":0.0,
    "geom:bbox":"-73.9867,40.779918,-73.9867,40.779918",
    "geom:latitude":40.779918,
    "geom:longitude":-73.9867,
    "iso:country":"US",
    "sg:address":"307 W 71 St",
    "sg:city":"New York",
    "sg:classifiers":[
        {
            "category":"Professional",
            "subcategory":"Business Services",
            "type":"Services"
        }
    ],
    "sg:owner":"simplegeo",
    "sg:phone":"+1 212 875 8991",
    "sg:postcode":"10023",
    "sg:province":"NY",
    "src:geom":"simplegeo",
    "wof:belongsto":[
        85869077,
        102191575,
        404478149,
        85633793,
        85975287,
        102080719,
        85688607
    ],
    "wof:breaches":[],
    "wof:concordances":{
        "sg:id":"SG_3imY1yP1LPFYAjudwb5Bea_40.779918_-73.986700@1294177022"
    },
    "wof:country":"US",
    "wof:geomhash":"95762a549424339e4e50114e7586ecc7",
    "wof:hierarchy":[
        {
            "continent_id":102191575,
            "country_id":85633793,
            "county_id":102080719,
            "localadmin_id":404478149,
            "locality_id":85975287,
            "neighbourhood_id":85869077,
            "region_id":85688607,
            "venue_id":554939503
        }
    ],
    "wof:id":554939503,
    "wof:lastmodified":1461017571,
    "wof:name":"Drink Tank LTD",
    "wof:parent_id":85869077,
    "wof:placetype":"venue",
    "wof:superseded_by":[],
    "wof:supersedes":[],
    "wof:tags":[]
},
  "bbox": [
    -73.9867,
    40.779918,
    -73.9867,
    40.779918
],
  "geometry": {"coordinates":[-73.9867,40.779918],"type":"Point"}
}