{
  "id": 554937905,
  "type": "Feature",
  "properties": {
    "edtf:cessation":"uuuu",
    "edtf:inception":"uuuu",
    "geom:area":0.0,
    "geom:bbox":"-73.542864,41.177072,-73.542864,41.177072",
    "geom:latitude":41.177072,
    "geom:longitude":-73.542864,
    "iso:country":"US",
    "sg:address":"207 Lost District Dr",
    "sg:city":"New Canaan",
    "sg:classifiers":[
        {
            "category":"Professional",
            "subcategory":"",
            "type":"Services"
        }
    ],
    "sg:owner":"simplegeo",
    "sg:phone":"+1 203 966 0557",
    "sg:postcode":"06840",
    "sg:province":"NY",
    "sg:tags":[
        "establishment"
    ],
    "src:geom":"simplegeo",
    "wof:belongsto":[],
    "wof:breaches":[],
    "wof:concordances":{
        "sg:id":"SG_3gLk5bIIGLyIQq22FgSlPz_41.177072_-73.542864@1294177022"
    },
    "wof:country":"US",
    "wof:geomhash":"8142afb24a82ac8e9bfe7e93f19cb16a",
    "wof:hierarchy":[],
    "wof:id":554937905,
    "wof:lastmodified":1461017427,
    "wof:name":"Creative Branding Systems",
    "wof:parent_id":-1,
    "wof:placetype":"venue",
    "wof:superseded_by":[],
    "wof:supersedes":[],
    "wof:tags":[
        "establishment"
    ]
},
  "bbox": [
    -73.542864,
    41.177072,
    -73.542864,
    41.177072
],
  "geometry": {"coordinates":[-73.54286399999999,41.177072],"type":"Point"}
}