{
  "id": 554942047,
  "type": "Feature",
  "properties": {
    "edtf:cessation":"uuuu",
    "edtf:inception":"uuuu",
    "geom:area":0.0,
    "geom:bbox":"-74.093727,41.090477,-74.093727,41.090477",
    "geom:latitude":41.090477,
    "geom:longitude":-74.093727,
    "iso:country":"US",
    "sg:address":"141 Cherry Ln",
    "sg:city":"Airmont",
    "sg:classifiers":[
        {
            "category":"Social Services",
            "subcategory":"Adult Care",
            "type":"Services"
        }
    ],
    "sg:owner":"simplegeo",
    "sg:phone":"+1 845 368 2118",
    "sg:postcode":"10952",
    "sg:province":"NY",
    "sg:tags":[
        "home",
        "group"
    ],
    "src:geom":"simplegeo",
    "wof:belongsto":[
        85832837,
        102191575,
        404523097,
        85633793,
        85978559,
        102082385,
        85688543
    ],
    "wof:breaches":[],
    "wof:concordances":{
        "sg:id":"SG_7JJlceCEg3jgcoVNKA4C8W_41.090477_-74.093727@1294177022"
    },
    "wof:country":"US",
    "wof:geomhash":"6ea0ea0ce117c92be85187381c9d3966",
    "wof:hierarchy":[
        {
            "continent_id":102191575,
            "country_id":85633793,
            "county_id":102082385,
            "localadmin_id":404523097,
            "locality_id":85978559,
            "neighbourhood_id":85832837,
            "region_id":85688543,
            "venue_id":554942047
        }
    ],
    "wof:id":554942047,
    "wof:lastmodified":1461017837,
    "wof:name":"Jawonio Inc",
    "wof:parent_id":85832837,
    "wof:placetype":"venue",
    "wof:superseded_by":[],
    "wof:supersedes":[],
    "wof:tags":[
        "home",
        "group"
    ]
},
  "bbox": [
    -74.093727,
    41.090477,
    -74.093727,
    41.090477
],
  "geometry": {"coordinates":[-74.093727,41.090477],"type":"Point"}
}