{
  "id": 555682471,
  "type": "Feature",
  "properties": {
    "edtf:cessation":"uuuu",
    "edtf:inception":"uuuu",
    "geom:area":0.0,
    "geom:bbox":"-73.423384,40.763239,-73.423384,40.763239",
    "geom:latitude":40.763239,
    "geom:longitude":-73.423384,
    "iso:country":"US",
    "sg:address":"538 Broad Hollow Rd",
    "sg:city":"Melville",
    "sg:classifiers":[
        {
            "category":"Restaurant",
            "subcategory":"",
            "type":"Food & Drink"
        }
    ],
    "sg:owner":"simplegeo",
    "sg:phone":"+1 631 752 1479",
    "sg:postcode":"11747",
    "sg:province":"NY",
    "src:geom":"simplegeo",
    "wof:belongsto":[],
    "wof:breaches":[],
    "wof:concordances":{
        "sg:id":"SG_5cKTuwjUFAPdAGDqEULdfU_40.763239_-73.423384@1294177022"
    },
    "wof:country":"US",
    "wof:geomhash":"363f8f16b357c8a23a5b5547b71694f4",
    "wof:hierarchy":[],
    "wof:id":555682471,
    "wof:lastmodified":1461035293,
    "wof:name":"538 Cafe",
    "wof:parent_id":-1,
    "wof:placetype":"venue",
    "wof:superseded_by":[],
    "wof:supersedes":[],
    "wof:tags":[]
},
  "bbox": [
    -73.423384,
    40.763239,
    -73.423384,
    40.763239
],
  "geometry": {"coordinates":[-73.423384,40.763239],"type":"Point"}
}