{
  "id": 571634891,
  "type": "Feature",
  "properties": {
    "edtf:cessation":"uuuu",
    "edtf:inception":"uuuu",
    "geom:area":0.0,
    "geom:bbox":"-73.811501,42.472198,-73.811501,42.472198",
    "geom:latitude":42.472198,
    "geom:longitude":-73.811501,
    "iso:country":"US",
    "sg:address":"146 Main St",
    "sg:city":"Ravena",
    "sg:classifiers":[
        {
            "category":"Restaurant",
            "subcategory":"",
            "type":"Food & Drink"
        }
    ],
    "sg:owner":"simplegeo",
    "sg:phone":"+1 518 756 3700",
    "sg:postcode":"12143",
    "sg:province":"NY",
    "sg:tags":[
        "chinese"
    ],
    "src:geom":"simplegeo",
    "wof:belongsto":[],
    "wof:breaches":[],
    "wof:concordances":{
        "sg:id":"SG_4ZQ1YApreBRkLXhZfoweEC_42.472045_-73.811400@1293134755"
    },
    "wof:country":"US",
    "wof:geomhash":"72684efc1bcf7fe9f3d6fea076903565",
    "wof:hierarchy":[],
    "wof:id":571634891,
    "wof:lastmodified":1461040221,
    "wof:name":"Szechuan Chinese Restaurant",
    "wof:parent_id":-1,
    "wof:placetype":"venue",
    "wof:superseded_by":[],
    "wof:supersedes":[],
    "wof:tags":[
        "chinese"
    ]
},
  "bbox": [
    -73.811501,
    42.472198,
    -73.811501,
    42.472198
],
  "geometry": {"coordinates":[-73.81150100000001,42.472198],"type":"Point"}
}