{
  "id": 554936839,
  "type": "Feature",
  "properties": {
    "edtf:cessation":"uuuu",
    "edtf:inception":"uuuu",
    "geom:area":0.0,
    "geom:bbox":"-73.470679,41.120409,-73.470679,41.120409",
    "geom:latitude":41.120409,
    "geom:longitude":-73.470679,
    "iso:country":"US",
    "sg:address":"38 Old Rock Ln",
    "sg:city":"New Canaan",
    "sg:classifiers":[
        {
            "category":"Professional",
            "subcategory":"Management & Consulting",
            "type":"Services"
        }
    ],
    "sg:owner":"simplegeo",
    "sg:phone":"+1   ",
    "sg:postcode":"06840",
    "sg:province":"NY",
    "src:geom":"simplegeo",
    "wof:belongsto":[
        85688629,
        85633793,
        85851779,
        102084283
    ],
    "wof:breaches":[],
    "wof:concordances":{
        "sg:id":"SG_4PfqzDYqNQETlfLShccwR8_41.120409_-73.470679@1294177022"
    },
    "wof:country":"US",
    "wof:geomhash":"87e93413cc9aa51a59f6d664391f7ef9",
    "wof:hierarchy":[
        {
            "country_id":85633793,
            "county_id":102084283,
            "neighbourhood_id":85851779,
            "region_id":85688629,
            "venue_id":554936839
        }
    ],
    "wof:id":554936839,
    "wof:lastmodified":1461017281,
    "wof:name":"Mds Associates",
    "wof:parent_id":85851779,
    "wof:placetype":"venue",
    "wof:superseded_by":[],
    "wof:supersedes":[],
    "wof:tags":[]
},
  "bbox": [
    -73.470679,
    41.120409,
    -73.470679,
    41.120409
],
  "geometry": {"coordinates":[-73.470679,41.120409],"type":"Point"}
}