{
  "id": 554997289,
  "type": "Feature",
  "properties": {
    "edtf:cessation":"uuuu",
    "edtf:inception":"uuuu",
    "geom:area":0.0,
    "geom:bbox":"-75.834692,42.331273,-75.834692,42.331273",
    "geom:latitude":42.331273,
    "geom:longitude":-75.834692,
    "iso:country":"US",
    "sg:address":"692 Indian Brook Rd",
    "sg:city":"Greene",
    "sg:classifiers":[
        {
            "category":"Wholesale",
            "subcategory":"Farm Supplies",
            "type":"Manufacturing & Wholesale Goods"
        }
    ],
    "sg:owner":"simplegeo",
    "sg:phone":"+1 607 656 8080",
    "sg:postcode":"13778",
    "sg:province":"NY",
    "src:geom":"simplegeo",
    "wof:belongsto":[],
    "wof:breaches":[],
    "wof:concordances":{
        "sg:id":"SG_0e3avBx2DVWywP0PXqSMI3_42.331273_-75.834692@1294177022"
    },
    "wof:country":"US",
    "wof:geomhash":"6753b4a1545dce0f636329a28cc2b383",
    "wof:hierarchy":[],
    "wof:id":554997289,
    "wof:lastmodified":1461019385,
    "wof:name":"Savory Crop Supply",
    "wof:parent_id":-1,
    "wof:placetype":"venue",
    "wof:superseded_by":[],
    "wof:supersedes":[],
    "wof:tags":[]
},
  "bbox": [
    -75.834692,
    42.331273,
    -75.834692,
    42.331273
],
  "geometry": {"coordinates":[-75.834692,42.331273],"type":"Point"}
}