{
  "id": 554938019,
  "type": "Feature",
  "properties": {
    "edtf:cessation":"uuuu",
    "edtf:inception":"uuuu",
    "geom:area":0.0,
    "geom:bbox":"-73.533771,41.183788,-73.533771,41.183788",
    "geom:latitude":41.183788,
    "geom:longitude":-73.533771,
    "iso:country":"US",
    "sg:address":"1038 West Rd",
    "sg:city":"New Canaan",
    "sg:classifiers":[
        {
            "category":"Professional",
            "subcategory":"Computer Services",
            "type":"Services"
        }
    ],
    "sg:owner":"simplegeo",
    "sg:phone":"+1   ",
    "sg:postcode":"06840",
    "sg:province":"NY",
    "sg:tags":[
        "development",
        "administration",
        "system"
    ],
    "src:geom":"simplegeo",
    "wof:belongsto":[],
    "wof:breaches":[],
    "wof:concordances":{
        "sg:id":"SG_4op2GqFyTgtB7Ty3WsCluL_41.183788_-73.533771@1294177022"
    },
    "wof:country":"US",
    "wof:geomhash":"5e741f2e48c4a9366039b86d5aba3162",
    "wof:hierarchy":[],
    "wof:id":554938019,
    "wof:lastmodified":1461017437,
    "wof:name":"Spring Lake Consulting LLC",
    "wof:parent_id":-1,
    "wof:placetype":"venue",
    "wof:superseded_by":[],
    "wof:supersedes":[],
    "wof:tags":[
        "development",
        "administration",
        "system"
    ]
},
  "bbox": [
    -73.533771,
    41.183788,
    -73.533771,
    41.183788
],
  "geometry": {"coordinates":[-73.533771,41.183788],"type":"Point"}
}