{
  "id": 554941245,
  "type": "Feature",
  "properties": {
    "edtf:cessation":"uuuu",
    "edtf:inception":"uuuu",
    "geom:area":0.0,
    "geom:bbox":"-73.507004,41.180988,-73.507004,41.180988",
    "geom:latitude":41.180988,
    "geom:longitude":-73.507004,
    "iso:country":"US",
    "sg:address":"24 Father Peters Ln",
    "sg:city":"New Canaan",
    "sg:classifiers":[
        {
            "category":"Professional",
            "subcategory":"Business Services",
            "type":"Services"
        }
    ],
    "sg:owner":"simplegeo",
    "sg:phone":"+1   ",
    "sg:postcode":"06840",
    "sg:province":"NY",
    "sg:tags":[
        "placement",
        "financial"
    ],
    "src:geom":"simplegeo",
    "wof:belongsto":[],
    "wof:breaches":[],
    "wof:concordances":{
        "sg:id":"SG_0SfBQOaDUrTqPJLl11LWPq_41.180988_-73.507004@1294177022"
    },
    "wof:country":"US",
    "wof:geomhash":"3736be39e0e98ad8d15bc28d2e6038d7",
    "wof:hierarchy":[],
    "wof:id":554941245,
    "wof:lastmodified":1461017722,
    "wof:name":"Kirby Capital Advisors",
    "wof:parent_id":-1,
    "wof:placetype":"venue",
    "wof:superseded_by":[],
    "wof:supersedes":[],
    "wof:tags":[
        "placement",
        "financial"
    ]
},
  "bbox": [
    -73.507004,
    41.180988,
    -73.507004,
    41.180988
],
  "geometry": {"coordinates":[-73.50700399999999,41.180988],"type":"Point"}
}