{
  "id": 554939335,
  "type": "Feature",
  "properties": {
    "edtf:cessation":"uuuu",
    "edtf:inception":"uuuu",
    "geom:area":0.0,
    "geom:bbox":"-79.739046,42.254906,-79.739046,42.254906",
    "geom:latitude":42.254906,
    "geom:longitude":-79.739046,
    "iso:country":"US",
    "sg:address":"6202 Shortman Rd",
    "sg:city":"Ripley",
    "sg:classifiers":[
        {
            "category":"Freight",
            "subcategory":"",
            "type":"Transportation"
        }
    ],
    "sg:owner":"simplegeo",
    "sg:phone":"+1   ",
    "sg:postcode":"14775",
    "sg:province":"NY",
    "sg:tags":[
        "distance",
        "without",
        "storage",
        "long",
        "trucking"
    ],
    "src:geom":"simplegeo",
    "wof:belongsto":[
        85688481,
        85633793,
        85850957,
        102080955
    ],
    "wof:breaches":[],
    "wof:concordances":{
        "sg:id":"SG_3yVlhR3vflwWCuWxzTKnSw_42.254906_-79.739046@1294177022"
    },
    "wof:country":"US",
    "wof:geomhash":"fa8261368caecf27147f620f9b2aabfe",
    "wof:hierarchy":[
        {
            "country_id":85633793,
            "county_id":102080955,
            "neighbourhood_id":85850957,
            "region_id":85688481,
            "venue_id":554939335
        }
    ],
    "wof:id":554939335,
    "wof:lastmodified":1461017554,
    "wof:name":"Regal Service Co",
    "wof:parent_id":85850957,
    "wof:placetype":"venue",
    "wof:superseded_by":[],
    "wof:supersedes":[],
    "wof:tags":[
        "distance",
        "without",
        "storage",
        "long",
        "trucking"
    ]
},
  "bbox": [
    -79.739046,
    42.254906,
    -79.739046,
    42.254906
],
  "geometry": {"coordinates":[-79.739046,42.254906],"type":"Point"}
}