{
  "id": 554935789,
  "type": "Feature",
  "properties": {
    "edtf:cessation":"uuuu",
    "edtf:inception":"uuuu",
    "geom:area":0.0,
    "geom:bbox":"-73.6355,41.143347,-73.6355,41.143347",
    "geom:latitude":41.143347,
    "geom:longitude":-73.6355,
    "iso:country":"US",
    "sg:address":"4 Banksville Rd",
    "sg:city":"Greenwich",
    "sg:classifiers":[
        {
            "category":"Professional",
            "subcategory":"Management & Consulting",
            "type":"Services"
        }
    ],
    "sg:owner":"simplegeo",
    "sg:phone":"+1   ",
    "sg:postcode":"06831",
    "sg:province":"NY",
    "src:geom":"simplegeo",
    "wof:belongsto":[
        85688629,
        85633793,
        85850923,
        102084283
    ],
    "wof:breaches":[],
    "wof:concordances":{
        "sg:id":"SG_1gQHqEB9ASCFGjCvuC5Mme_41.143347_-73.635500@1294177022"
    },
    "wof:country":"US",
    "wof:geomhash":"74e4f3623d86b70ec234d39d9eefcd23",
    "wof:hierarchy":[
        {
            "country_id":85633793,
            "county_id":102084283,
            "neighbourhood_id":85850923,
            "region_id":85688629,
            "venue_id":554935789
        }
    ],
    "wof:id":554935789,
    "wof:lastmodified":1461017121,
    "wof:name":"Andiron Management",
    "wof:parent_id":85850923,
    "wof:placetype":"venue",
    "wof:superseded_by":[],
    "wof:supersedes":[],
    "wof:tags":[]
},
  "bbox": [
    -73.6355,
    41.143347,
    -73.6355,
    41.143347
],
  "geometry": {"coordinates":[-73.63549999999999,41.143347],"type":"Point"}
}