{
  "id": 554940121,
  "type": "Feature",
  "properties": {
    "edtf:cessation":"uuuu",
    "edtf:inception":"uuuu",
    "geom:area":0.0,
    "geom:bbox":"-73.64509,41.022932,-73.64509,41.022932",
    "geom:latitude":41.022932,
    "geom:longitude":-73.64509,
    "iso:country":"US",
    "sg:address":"10 Valley Dr",
    "sg:city":"Greenwich",
    "sg:classifiers":[
        {
            "category":"Banks & Credit Unions",
            "subcategory":"Financial Services",
            "type":"Services"
        }
    ],
    "sg:owner":"simplegeo",
    "sg:phone":"+1 203 869 0900",
    "sg:postcode":"06831",
    "sg:province":"NY",
    "sg:tags":[
        "investor"
    ],
    "src:geom":"simplegeo",
    "wof:belongsto":[
        85885307,
        102191575,
        404495949,
        85633793,
        85930941,
        102084283,
        85688629,
        420555529
    ],
    "wof:breaches":[],
    "wof:concordances":{
        "sg:id":"SG_7CTBE0qdDO5BR2QWHr98me_41.022932_-73.645090@1294177022"
    },
    "wof:country":"US",
    "wof:geomhash":"4b9227b89ead2b7a4513b90432fe7d2f",
    "wof:hierarchy":[
        {
            "continent_id":102191575,
            "country_id":85633793,
            "county_id":102084283,
            "localadmin_id":404495949,
            "locality_id":85930941,
            "neighbourhood_id":85885307,
            "region_id":85688629,
            "venue_id":554940121
        },
        {
            "continent_id":102191575,
            "country_id":85633793,
            "county_id":102084283,
            "localadmin_id":404495949,
            "locality_id":85930941,
            "neighbourhood_id":420555529,
            "region_id":85688629,
            "venue_id":554940121
        }
    ],
    "wof:id":554940121,
    "wof:lastmodified":1461017627,
    "wof:name":"American Tax Cr Props II LP",
    "wof:parent_id":-1,
    "wof:placetype":"venue",
    "wof:superseded_by":[],
    "wof:supersedes":[],
    "wof:tags":[
        "investor"
    ]
},
  "bbox": [
    -73.64509,
    41.022932,
    -73.64509,
    41.022932
],
  "geometry": {"coordinates":[-73.64509,41.022932],"type":"Point"}
}