{
  "id": 554937379,
  "type": "Feature",
  "properties": {
    "edtf:cessation":"uuuu",
    "edtf:inception":"uuuu",
    "geom:area":0.0,
    "geom:bbox":"-73.650444,41.016654,-73.650444,41.016654",
    "geom:latitude":41.016654,
    "geom:longitude":-73.650444,
    "iso:country":"US",
    "sg:address":"14 Weaver St",
    "sg:city":"Greenwich",
    "sg:classifiers":[
        {
            "category":"Professional",
            "subcategory":"Management & Consulting",
            "type":"Services"
        }
    ],
    "sg:owner":"simplegeo",
    "sg:phone":"+1   ",
    "sg:postcode":"06831",
    "sg:province":"NY",
    "sg:tags":[
        "business"
    ],
    "src:geom":"simplegeo",
    "wof:belongsto":[
        85885307,
        102191575,
        404495949,
        85633793,
        85930941,
        102084283,
        85688629,
        420555461,
        85930937
    ],
    "wof:breaches":[],
    "wof:concordances":{
        "sg:id":"SG_2JeZCVvSr8laFTl5UvDP3y_41.016654_-73.650444@1294177022"
    },
    "wof:country":"US",
    "wof:geomhash":"ef67ffa8c1be32d26df0f4692203f0ea",
    "wof:hierarchy":[
        {
            "continent_id":102191575,
            "country_id":85633793,
            "county_id":102084283,
            "localadmin_id":404495949,
            "locality_id":85930941,
            "neighbourhood_id":85885307,
            "region_id":85688629,
            "venue_id":554937379
        },
        {
            "continent_id":102191575,
            "country_id":85633793,
            "county_id":102084283,
            "localadmin_id":404495949,
            "locality_id":85930937,
            "neighbourhood_id":420555461,
            "region_id":85688629,
            "venue_id":554937379
        }
    ],
    "wof:id":554937379,
    "wof:lastmodified":1461017361,
    "wof:name":"Coaching For Success",
    "wof:parent_id":-1,
    "wof:placetype":"venue",
    "wof:superseded_by":[],
    "wof:supersedes":[],
    "wof:tags":[
        "business"
    ]
},
  "bbox": [
    -73.650444,
    41.016654,
    -73.650444,
    41.016654
],
  "geometry": {"coordinates":[-73.65044399999999,41.016654],"type":"Point"}
}