{
  "id": 554937869,
  "type": "Feature",
  "properties": {
    "edtf:cessation":"uuuu",
    "edtf:inception":"uuuu",
    "geom:area":0.0,
    "geom:bbox":"-73.494418,41.141331,-73.494418,41.141331",
    "geom:latitude":41.141331,
    "geom:longitude":-73.494418,
    "iso:country":"US",
    "sg:address":"241 Park St",
    "sg:city":"New Canaan",
    "sg:classifiers":[
        {
            "category":"Building & Trades",
            "subcategory":"Construction",
            "type":"Services"
        }
    ],
    "sg:owner":"simplegeo",
    "sg:phone":"+1 203 966 4570",
    "sg:postcode":"06840",
    "sg:province":"NY",
    "sg:tags":[
        "heavy"
    ],
    "src:geom":"simplegeo",
    "wof:belongsto":[
        85688629,
        85633793,
        85851779,
        102084283
    ],
    "wof:breaches":[],
    "wof:concordances":{
        "sg:id":"SG_2AfJU06UKD9ORuUNp2UUfe_41.141331_-73.494418@1294177022"
    },
    "wof:country":"US",
    "wof:geomhash":"dee6c32e8ff110775cb1551873f5e5c3",
    "wof:hierarchy":[
        {
            "country_id":85633793,
            "county_id":102084283,
            "neighbourhood_id":85851779,
            "region_id":85688629,
            "venue_id":554937869
        }
    ],
    "wof:id":554937869,
    "wof:lastmodified":1461017425,
    "wof:name":"Mead Park Tennis Courts",
    "wof:parent_id":85851779,
    "wof:placetype":"venue",
    "wof:superseded_by":[],
    "wof:supersedes":[],
    "wof:tags":[
        "heavy"
    ]
},
  "bbox": [
    -73.494418,
    41.141331,
    -73.494418,
    41.141331
],
  "geometry": {"coordinates":[-73.494418,41.141331],"type":"Point"}
}