{
  "id": 554934949,
  "type": "Feature",
  "properties": {
    "edtf:cessation":"uuuu",
    "edtf:inception":"uuuu",
    "geom:area":0.0,
    "geom:bbox":"-79.710465,42.266847,-79.710465,42.266847",
    "geom:latitude":42.266847,
    "geom:longitude":-79.710465,
    "iso:country":"US",
    "sg:address":"19 Main St",
    "sg:city":"Ripley",
    "sg:classifiers":[
        {
            "category":"Professional",
            "subcategory":"",
            "type":"Services"
        }
    ],
    "sg:owner":"simplegeo",
    "sg:phone":"+1 716 736 6261",
    "sg:postcode":"14775",
    "sg:province":"NY",
    "sg:tags":[
        "establishment"
    ],
    "src:geom":"simplegeo",
    "wof:belongsto":[
        85688481,
        85633793,
        85850957,
        102080955
    ],
    "wof:breaches":[],
    "wof:concordances":{
        "sg:id":"SG_5b5ivhpLO5k2EbfLPFsql1_42.266847_-79.710465@1294177022"
    },
    "wof:country":"US",
    "wof:geomhash":"37a4f2848a857d11c7e0f4fce364b2f9",
    "wof:hierarchy":[
        {
            "country_id":85633793,
            "county_id":102080955,
            "neighbourhood_id":85850957,
            "region_id":85688481,
            "venue_id":554934949
        }
    ],
    "wof:id":554934949,
    "wof:lastmodified":1461017003,
    "wof:name":"O'Donnell's Hotel",
    "wof:parent_id":85850957,
    "wof:placetype":"venue",
    "wof:superseded_by":[],
    "wof:supersedes":[],
    "wof:tags":[
        "establishment"
    ]
},
  "bbox": [
    -79.710465,
    42.266847,
    -79.710465,
    42.266847
],
  "geometry": {"coordinates":[-79.710465,42.266847],"type":"Point"}
}