{
  "id": 572171721,
  "type": "Feature",
  "properties": {
    "edtf:cessation":"uuuu",
    "edtf:inception":"uuuu",
    "geom:area":0.0,
    "geom:bbox":"-74.743889,40.651043,-74.743889,40.651043",
    "geom:latitude":40.651043,
    "geom:longitude":-74.743889,
    "iso:country":"US",
    "sg:address":"56 48th St",
    "sg:city":"Brooklyn",
    "sg:classifiers":[
        {
            "category":"Food & Beverages",
            "subcategory":"Groceries & Convenience Stores",
            "type":"Retail Goods"
        }
    ],
    "sg:owner":"simplegeo",
    "sg:phone":"+1 718 369 1230",
    "sg:postcode":"11232",
    "sg:province":"NY",
    "src:geom":"simplegeo",
    "wof:belongsto":[
        85688607,
        85633793,
        85833217,
        102085997
    ],
    "wof:breaches":[],
    "wof:concordances":{
        "sg:id":"SG_12ESPdPW1FWOMXAOWtLFkb_40.651043_-74.743889@1303262348"
    },
    "wof:country":"US",
    "wof:geomhash":"d1131df7e3dbfc1918f1e5972e1414f1",
    "wof:hierarchy":[
        {
            "country_id":85633793,
            "county_id":102085997,
            "neighbourhood_id":85833217,
            "region_id":85688607,
            "venue_id":572171721
        }
    ],
    "wof:id":572171721,
    "wof:lastmodified":1461051461,
    "wof:name":"Jackies Apples",
    "wof:parent_id":85833217,
    "wof:placetype":"venue",
    "wof:superseded_by":[],
    "wof:supersedes":[],
    "wof:tags":[]
},
  "bbox": [
    -74.743889,
    40.651043,
    -74.743889,
    40.651043
],
  "geometry": {"coordinates":[-74.743889,40.651043],"type":"Point"}
}