{
  "id": 572170817,
  "type": "Feature",
  "properties": {
    "edtf:cessation":"uuuu",
    "edtf:inception":"uuuu",
    "geom:area":0.0,
    "geom:bbox":"-74.775644,40.64235,-74.775644,40.64235",
    "geom:latitude":40.64235,
    "geom:longitude":-74.775644,
    "iso:country":"US",
    "sg:address":"5001 7th Ave",
    "sg:city":"Brooklyn",
    "sg:classifiers":[
        {
            "category":"Shopping",
            "subcategory":"Pharmacy",
            "type":"Retail Goods"
        }
    ],
    "sg:owner":"simplegeo",
    "sg:phone":"+1 718 686 8281",
    "sg:postcode":"11220",
    "sg:province":"NY",
    "sg:tags":[
        "drugstore"
    ],
    "src:geom":"simplegeo",
    "wof:belongsto":[
        85688607,
        85633793,
        85842965,
        102085997
    ],
    "wof:breaches":[],
    "wof:concordances":{
        "sg:id":"SG_37siGWvGt4L0GYTzZiqWfQ_40.642350_-74.775644@1303262344"
    },
    "wof:country":"US",
    "wof:geomhash":"65250d463724b908a562859e5d0e5387",
    "wof:hierarchy":[
        {
            "country_id":85633793,
            "county_id":102085997,
            "neighbourhood_id":85842965,
            "region_id":85688607,
            "venue_id":572170817
        }
    ],
    "wof:id":572170817,
    "wof:lastmodified":1461051433,
    "wof:name":"Rxcircle Pharmacy Corporation",
    "wof:parent_id":85842965,
    "wof:placetype":"venue",
    "wof:superseded_by":[],
    "wof:supersedes":[],
    "wof:tags":[
        "drugstore"
    ]
},
  "bbox": [
    -74.775644,
    40.64235,
    -74.775644,
    40.64235
],
  "geometry": {"coordinates":[-74.775644,40.64235],"type":"Point"}
}