{
  "id": 554935409,
  "type": "Feature",
  "properties": {
    "edtf:cessation":"uuuu",
    "edtf:inception":"uuuu",
    "geom:area":0.0,
    "geom:bbox":"-73.655082,41.021848,-73.655082,41.021848",
    "geom:latitude":41.021848,
    "geom:longitude":-73.655082,
    "iso:country":"US",
    "sg:address":"8 Moshier St",
    "sg:city":"Greenwich",
    "sg:classifiers":[
        {
            "category":"Building & Trades",
            "subcategory":"Construction",
            "type":"Services"
        }
    ],
    "sg:owner":"simplegeo",
    "sg:phone":"+1 203 531 7047",
    "sg:postcode":"06831",
    "sg:province":"NY",
    "sg:tags":[
        "masonry",
        "landscaper",
        "contractor"
    ],
    "src:geom":"simplegeo",
    "wof:belongsto":[
        85885307,
        102191575,
        404495949,
        85633793,
        85930941,
        102084283,
        85688629,
        420555461,
        85930937
    ],
    "wof:breaches":[],
    "wof:concordances":{
        "sg:id":"SG_0k7Upxl5infwq6iYJgSnqC_41.021848_-73.655082@1294177022"
    },
    "wof:country":"US",
    "wof:geomhash":"610412ee4f4873688269f4ddfc191669",
    "wof:hierarchy":[
        {
            "continent_id":102191575,
            "country_id":85633793,
            "county_id":102084283,
            "localadmin_id":404495949,
            "locality_id":85930941,
            "neighbourhood_id":85885307,
            "region_id":85688629,
            "venue_id":554935409
        },
        {
            "continent_id":102191575,
            "country_id":85633793,
            "county_id":102084283,
            "localadmin_id":404495949,
            "locality_id":85930937,
            "neighbourhood_id":420555461,
            "region_id":85688629,
            "venue_id":554935409
        }
    ],
    "wof:id":554935409,
    "wof:lastmodified":1461017066,
    "wof:name":"Gallo Landscaping",
    "wof:parent_id":-1,
    "wof:placetype":"venue",
    "wof:superseded_by":[],
    "wof:supersedes":[],
    "wof:tags":[
        "masonry",
        "landscaper",
        "contractor"
    ]
},
  "bbox": [
    -73.655082,
    41.021848,
    -73.655082,
    41.021848
],
  "geometry": {"coordinates":[-73.65508199999999,41.021848],"type":"Point"}
}