{
  "id": 554936575,
  "type": "Feature",
  "properties": {
    "edtf:cessation":"uuuu",
    "edtf:inception":"uuuu",
    "geom:area":0.0,
    "geom:bbox":"-73.474739,41.178853,-73.474739,41.178853",
    "geom:latitude":41.178853,
    "geom:longitude":-73.474739,
    "iso:country":"US",
    "sg:address":"65 Partridge Rd",
    "sg:city":"New Canaan",
    "sg:classifiers":[
        {
            "category":"Professional",
            "subcategory":"",
            "type":"Services"
        }
    ],
    "sg:owner":"simplegeo",
    "sg:phone":"+1 203 966 5927",
    "sg:postcode":"06840",
    "sg:province":"NY",
    "sg:tags":[
        "establishment"
    ],
    "sg:website":"www.angelfishtherapy.com",
    "src:geom":"simplegeo",
    "wof:belongsto":[],
    "wof:breaches":[],
    "wof:concordances":{
        "sg:id":"SG_6tqVh7oCgSlZIhlnUm78XT_41.178853_-73.474739@1294177022"
    },
    "wof:country":"US",
    "wof:geomhash":"465129fd21ce9fc0fb941cf4903ce4ce",
    "wof:hierarchy":[],
    "wof:id":554936575,
    "wof:lastmodified":1461017241,
    "wof:name":"Angel Fish Therapy",
    "wof:parent_id":-1,
    "wof:placetype":"venue",
    "wof:superseded_by":[],
    "wof:supersedes":[],
    "wof:tags":[
        "establishment"
    ]
},
  "bbox": [
    -73.474739,
    41.178853,
    -73.474739,
    41.178853
],
  "geometry": {"coordinates":[-73.474739,41.178853],"type":"Point"}
}