{
  "id": 554937483,
  "type": "Feature",
  "properties": {
    "edtf:cessation":"uuuu",
    "edtf:inception":"uuuu",
    "geom:area":0.0,
    "geom:bbox":"-74.071002,41.081223,-74.071002,41.081223",
    "geom:latitude":41.081223,
    "geom:longitude":-74.071002,
    "iso:country":"US",
    "sg:address":"3 Unicorn St",
    "sg:city":"Monsey",
    "sg:classifiers":[
        {
            "category":"Building & Trades",
            "subcategory":"Construction",
            "type":"Services"
        },
        {
            "category":"Professional",
            "subcategory":"Management & Consulting",
            "type":"Services"
        }
    ],
    "sg:owner":"simplegeo",
    "sg:phone":"+1 845 352 2012",
    "sg:postcode":"10952",
    "sg:province":"NY",
    "sg:tags":[
        "concrete",
        "engineering",
        "general",
        "contractor"
    ],
    "src:geom":"simplegeo",
    "wof:belongsto":[
        85853261,
        102191575,
        404523097,
        85633793,
        85978555,
        102082385,
        85688543
    ],
    "wof:breaches":[],
    "wof:concordances":{
        "sg:id":"SG_7je4489b9i6aOh2SujwDpa_41.081223_-74.071002@1294177022"
    },
    "wof:country":"US",
    "wof:geomhash":"e18e05609a90c71365be7b42275bcb22",
    "wof:hierarchy":[
        {
            "continent_id":102191575,
            "country_id":85633793,
            "county_id":102082385,
            "localadmin_id":404523097,
            "locality_id":85978555,
            "neighbourhood_id":85853261,
            "region_id":85688543,
            "venue_id":554937483
        }
    ],
    "wof:id":554937483,
    "wof:lastmodified":1461017379,
    "wof:name":"Unicorn Construction Ent Inc",
    "wof:parent_id":85853261,
    "wof:placetype":"venue",
    "wof:superseded_by":[],
    "wof:supersedes":[],
    "wof:tags":[
        "concrete",
        "engineering",
        "general",
        "contractor"
    ]
},
  "bbox": [
    -74.071002,
    41.081223,
    -74.071002,
    41.081223
],
  "geometry": {"coordinates":[-74.07100199999999,41.081223],"type":"Point"}
}