{
  "id": 554936649,
  "type": "Feature",
  "properties": {
    "edtf:cessation":"uuuu",
    "edtf:inception":"uuuu",
    "geom:area":0.0,
    "geom:bbox":"-73.491478,41.149345,-73.491478,41.149345",
    "geom:latitude":41.149345,
    "geom:longitude":-73.491478,
    "iso:country":"US",
    "sg:address":"50 Locust Ave",
    "sg:city":"New Canaan",
    "sg:classifiers":[
        {
            "category":"Professional",
            "subcategory":"Management & Consulting",
            "type":"Services"
        }
    ],
    "sg:owner":"simplegeo",
    "sg:phone":"+1   ",
    "sg:postcode":"06840",
    "sg:province":"NY",
    "sg:tags":[
        "advertising"
    ],
    "src:geom":"simplegeo",
    "wof:belongsto":[
        85688629,
        85633793,
        85851779,
        102084283
    ],
    "wof:breaches":[],
    "wof:concordances":{
        "sg:id":"SG_14GJIElW5xaDbESQnIWKsw_41.149345_-73.491478@1294177022"
    },
    "wof:country":"US",
    "wof:geomhash":"1dffb41aaab08da2d6de40559de1bbd6",
    "wof:hierarchy":[
        {
            "country_id":85633793,
            "county_id":102084283,
            "neighbourhood_id":85851779,
            "region_id":85688629,
            "venue_id":554936649
        }
    ],
    "wof:id":554936649,
    "wof:lastmodified":1461017252,
    "wof:name":"Poppers & Swift",
    "wof:parent_id":85851779,
    "wof:placetype":"venue",
    "wof:superseded_by":[],
    "wof:supersedes":[],
    "wof:tags":[
        "advertising"
    ]
},
  "bbox": [
    -73.491478,
    41.149345,
    -73.491478,
    41.149345
],
  "geometry": {"coordinates":[-73.491478,41.149345],"type":"Point"}
}