{
  "id": 554937069,
  "type": "Feature",
  "properties": {
    "edtf:cessation":"uuuu",
    "edtf:inception":"uuuu",
    "geom:area":0.0,
    "geom:bbox":"-73.656091,41.010117,-73.656091,41.010117",
    "geom:latitude":41.010117,
    "geom:longitude":-73.656091,
    "iso:country":"US",
    "sg:address":"601 N Main St",
    "sg:city":"Port Chester",
    "sg:classifiers":[
        {
            "category":"Retail",
            "subcategory":"Auto Repair",
            "type":"Services"
        }
    ],
    "sg:owner":"simplegeo",
    "sg:phone":"+1   ",
    "sg:postcode":"10573",
    "sg:province":"NY",
    "sg:tags":[
        "body",
        "shop"
    ],
    "src:geom":"simplegeo",
    "wof:belongsto":[
        85885307,
        102191575,
        404495949,
        85633793,
        85930941,
        102084283,
        85688629,
        85808713,
        404523389,
        85978705,
        102082373,
        85688543
    ],
    "wof:breaches":[],
    "wof:concordances":{
        "sg:id":"SG_65pzLhzVQDXxszNZ3f8l2m_41.010117_-73.656091@1294177022"
    },
    "wof:country":"US",
    "wof:geomhash":"68d003945e344287688d38cc1b06540d",
    "wof:hierarchy":[
        {
            "continent_id":102191575,
            "country_id":85633793,
            "county_id":102084283,
            "localadmin_id":404495949,
            "locality_id":85930941,
            "neighbourhood_id":85885307,
            "region_id":85688629,
            "venue_id":554937069
        },
        {
            "continent_id":102191575,
            "country_id":85633793,
            "county_id":102082373,
            "localadmin_id":404523389,
            "locality_id":85978705,
            "neighbourhood_id":85808713,
            "region_id":85688543,
            "venue_id":554937069
        }
    ],
    "wof:id":554937069,
    "wof:lastmodified":1461017312,
    "wof:name":"Lu-Car Motors Ltd",
    "wof:parent_id":-1,
    "wof:placetype":"venue",
    "wof:superseded_by":[],
    "wof:supersedes":[],
    "wof:tags":[
        "body",
        "shop"
    ]
},
  "bbox": [
    -73.656091,
    41.010117,
    -73.656091,
    41.010117
],
  "geometry": {"coordinates":[-73.656091,41.010117],"type":"Point"}
}