{
  "id": 554940007,
  "type": "Feature",
  "properties": {
    "edtf:cessation":"uuuu",
    "edtf:inception":"uuuu",
    "geom:area":0.0,
    "geom:bbox":"-74.054689,41.076712,-74.054689,41.076712",
    "geom:latitude":41.076712,
    "geom:longitude":-74.054689,
    "iso:country":"US",
    "sg:address":"90 Red Schoolhouse Rd",
    "sg:city":"Chestnut Ridge",
    "sg:classifiers":[
        {
            "category":"Building & Trades",
            "subcategory":"Construction",
            "type":"Services"
        }
    ],
    "sg:owner":"simplegeo",
    "sg:phone":"+1 845 425 4202",
    "sg:postcode":"10977",
    "sg:province":"NY",
    "sg:tags":[
        "maintenance",
        "contractor"
    ],
    "src:geom":"simplegeo",
    "wof:belongsto":[
        85853261,
        102191575,
        404523097,
        85633793,
        85978555,
        102082385,
        85688543
    ],
    "wof:breaches":[],
    "wof:concordances":{
        "sg:id":"SG_4cCJbbTwvFmV4tLZ2YkxDn_41.076712_-74.054689@1294177022"
    },
    "wof:country":"US",
    "wof:geomhash":"c515e66e8251b4949868c22d722fbbc4",
    "wof:hierarchy":[
        {
            "continent_id":102191575,
            "country_id":85633793,
            "county_id":102082385,
            "localadmin_id":404523097,
            "locality_id":85978555,
            "neighbourhood_id":85853261,
            "region_id":85688543,
            "venue_id":554940007
        }
    ],
    "wof:id":554940007,
    "wof:lastmodified":1461017615,
    "wof:name":"All Green Landscaping & Constr",
    "wof:parent_id":85853261,
    "wof:placetype":"venue",
    "wof:superseded_by":[],
    "wof:supersedes":[],
    "wof:tags":[
        "maintenance",
        "contractor"
    ]
},
  "bbox": [
    -74.054689,
    41.076712,
    -74.054689,
    41.076712
],
  "geometry": {"coordinates":[-74.054689,41.076712],"type":"Point"}
}