{
  "id": 555103227,
  "type": "Feature",
  "properties": {
    "edtf:cessation":"uuuu",
    "edtf:inception":"uuuu",
    "geom:area":0.0,
    "geom:bbox":"-73.421959,40.711735,-73.421959,40.711735",
    "geom:latitude":40.711735,
    "geom:longitude":-73.421959,
    "iso:country":"US",
    "sg:address":"85 Toledo St",
    "sg:city":"Farmingdale",
    "sg:classifiers":[
        {
            "category":"Building & Trades",
            "subcategory":"Construction",
            "type":"Services"
        }
    ],
    "sg:owner":"simplegeo",
    "sg:phone":"+1 516 293 4858",
    "sg:postcode":"11735",
    "sg:province":"NY",
    "sg:tags":[
        "general",
        "contractor"
    ],
    "src:geom":"simplegeo",
    "wof:belongsto":[],
    "wof:breaches":[],
    "wof:concordances":{
        "sg:id":"SG_3OTi9dRJbZUqn4AnBVLSfe_40.711735_-73.421959@1294177022"
    },
    "wof:country":"US",
    "wof:geomhash":"1da51b032049a817404c09ddd322d5a9",
    "wof:hierarchy":[],
    "wof:id":555103227,
    "wof:lastmodified":1461022137,
    "wof:name":"Marlin Constr Consultants Corp",
    "wof:parent_id":-1,
    "wof:placetype":"venue",
    "wof:superseded_by":[],
    "wof:supersedes":[],
    "wof:tags":[
        "general",
        "contractor"
    ]
},
  "bbox": [
    -73.421959,
    40.711735,
    -73.421959,
    40.711735
],
  "geometry": {"coordinates":[-73.421959,40.711735],"type":"Point"}
}