{
  "id": 554937099,
  "type": "Feature",
  "properties": {
    "edtf:cessation":"uuuu",
    "edtf:inception":"uuuu",
    "geom:area":0.0,
    "geom:bbox":"-73.495416,41.14721,-73.495416,41.14721",
    "geom:latitude":41.14721,
    "geom:longitude":-73.495416,
    "iso:country":"US",
    "sg:address":"72 Park St",
    "sg:city":"New Canaan",
    "sg:classifiers":[
        {
            "category":"Professional",
            "subcategory":"",
            "type":"Services"
        }
    ],
    "sg:owner":"simplegeo",
    "sg:phone":"+1   ",
    "sg:postcode":"06840",
    "sg:province":"NY",
    "src:geom":"simplegeo",
    "wof:belongsto":[
        85688629,
        85633793,
        85851779,
        102084283
    ],
    "wof:breaches":[],
    "wof:concordances":{
        "sg:id":"SG_67GhKbTRB0bTCasP1gyMhv_41.147210_-73.495416@1294177022"
    },
    "wof:country":"US",
    "wof:geomhash":"6ac4dc8ea36684c11a241e8af733ab03",
    "wof:hierarchy":[
        {
            "country_id":85633793,
            "county_id":102084283,
            "neighbourhood_id":85851779,
            "region_id":85688629,
            "venue_id":554937099
        }
    ],
    "wof:id":554937099,
    "wof:lastmodified":1461017317,
    "wof:name":"Amber Magyari Cpe",
    "wof:parent_id":85851779,
    "wof:placetype":"venue",
    "wof:superseded_by":[],
    "wof:supersedes":[],
    "wof:tags":[]
},
  "bbox": [
    -73.495416,
    41.14721,
    -73.495416,
    41.14721
],
  "geometry": {"coordinates":[-73.49541600000001,41.14721],"type":"Point"}
}