{
  "id": 554937981,
  "type": "Feature",
  "properties": {
    "edtf:cessation":"uuuu",
    "edtf:inception":"uuuu",
    "geom:area":0.0,
    "geom:bbox":"-73.493359,41.148401,-73.493359,41.148401",
    "geom:latitude":41.148401,
    "geom:longitude":-73.493359,
    "iso:country":"US",
    "sg:address":"88 Main St",
    "sg:city":"New Canaan",
    "sg:classifiers":[
        {
            "category":"Building & Trades",
            "subcategory":"Landscaping Services",
            "type":"Services"
        }
    ],
    "sg:owner":"simplegeo",
    "sg:phone":"+1 203 966 8591",
    "sg:postcode":"06840",
    "sg:province":"NY",
    "sg:tags":[
        "tree"
    ],
    "src:geom":"simplegeo",
    "wof:belongsto":[
        85688629,
        85633793,
        85851779,
        102084283
    ],
    "wof:breaches":[],
    "wof:concordances":{
        "sg:id":"SG_45LiF628wOwdje8P8Je2Sx_41.148401_-73.493359@1294177022"
    },
    "wof:country":"US",
    "wof:geomhash":"1d673f0956c9f7f91c2e4fb314578434",
    "wof:hierarchy":[
        {
            "country_id":85633793,
            "county_id":102084283,
            "neighbourhood_id":85851779,
            "region_id":85688629,
            "venue_id":554937981
        }
    ],
    "wof:id":554937981,
    "wof:lastmodified":1461017434,
    "wof:name":"Mill River Tree Svc",
    "wof:parent_id":85851779,
    "wof:placetype":"venue",
    "wof:superseded_by":[],
    "wof:supersedes":[],
    "wof:tags":[
        "tree"
    ]
},
  "bbox": [
    -73.493359,
    41.148401,
    -73.493359,
    41.148401
],
  "geometry": {"coordinates":[-73.493359,41.148401],"type":"Point"}
}