{
  "id": 554934229,
  "type": "Feature",
  "properties": {
    "edtf:cessation":"uuuu",
    "edtf:inception":"uuuu",
    "geom:area":0.0,
    "geom:bbox":"-73.659918,41.012777,-73.659918,41.012777",
    "geom:latitude":41.012777,
    "geom:longitude":-73.659918,
    "iso:country":"US",
    "sg:address":"544 Willett Ave",
    "sg:city":"Port Chester",
    "sg:classifiers":[
        {
            "category":"Restaurant",
            "subcategory":"",
            "type":"Food & Drink"
        }
    ],
    "sg:owner":"simplegeo",
    "sg:phone":"+1 914 937 8337",
    "sg:postcode":"10573",
    "sg:province":"NY",
    "src:geom":"simplegeo",
    "wof:belongsto":[
        85885307,
        102191575,
        404495949,
        85633793,
        85930941,
        102084283,
        85688629
    ],
    "wof:breaches":[],
    "wof:concordances":{
        "sg:id":"SG_2IpIU4Czy3h9B2Tfy6d8cI_41.012777_-73.659918@1294177022"
    },
    "wof:country":"US",
    "wof:geomhash":"149de429ab26a0354e70f68ffe6ab1d0",
    "wof:hierarchy":[
        {
            "continent_id":102191575,
            "country_id":85633793,
            "county_id":102084283,
            "localadmin_id":404495949,
            "locality_id":85930941,
            "neighbourhood_id":85885307,
            "region_id":85688629,
            "venue_id":554934229
        }
    ],
    "wof:id":554934229,
    "wof:lastmodified":1461016915,
    "wof:name":"Hosaigai Chinese Restaurant",
    "wof:parent_id":85885307,
    "wof:placetype":"venue",
    "wof:superseded_by":[],
    "wof:supersedes":[],
    "wof:tags":[]
},
  "bbox": [
    -73.659918,
    41.012777,
    -73.659918,
    41.012777
],
  "geometry": {"coordinates":[-73.659918,41.012777],"type":"Point"}
}