{
  "id": 554937391,
  "type": "Feature",
  "properties": {
    "edtf:cessation":"uuuu",
    "edtf:inception":"uuuu",
    "geom:area":0.0,
    "geom:bbox":"-73.514267,41.148989,-73.514267,41.148989",
    "geom:latitude":41.148989,
    "geom:longitude":-73.514267,
    "iso:country":"US",
    "sg:address":"108 Wahackme Rd",
    "sg:city":"New Canaan",
    "sg:classifiers":[
        {
            "category":"Health Services",
            "subcategory":"Clinic",
            "type":"Services"
        }
    ],
    "sg:owner":"simplegeo",
    "sg:phone":"+1   ",
    "sg:postcode":"06840",
    "sg:province":"NY",
    "src:geom":"simplegeo",
    "wof:belongsto":[
        85688629,
        85633793,
        85851779,
        102084283
    ],
    "wof:breaches":[],
    "wof:concordances":{
        "sg:id":"SG_18DY5023pbOmCBeANcDjgL_41.148989_-73.514267@1294177022"
    },
    "wof:country":"US",
    "wof:geomhash":"06e8c73d88b11d6c7aade450674a2391",
    "wof:hierarchy":[
        {
            "country_id":85633793,
            "county_id":102084283,
            "neighbourhood_id":85851779,
            "region_id":85688629,
            "venue_id":554937391
        }
    ],
    "wof:id":554937391,
    "wof:lastmodified":1461017364,
    "wof:name":"Onward Healthcare Inc",
    "wof:parent_id":85851779,
    "wof:placetype":"venue",
    "wof:superseded_by":[],
    "wof:supersedes":[],
    "wof:tags":[]
},
  "bbox": [
    -73.514267,
    41.148989,
    -73.514267,
    41.148989
],
  "geometry": {"coordinates":[-73.514267,41.148989],"type":"Point"}
}