{
  "id": 554935787,
  "type": "Feature",
  "properties": {
    "edtf:cessation":"uuuu",
    "edtf:inception":"uuuu",
    "geom:area":0.0,
    "geom:bbox":"-74.066628,41.09214,-74.066628,41.09214",
    "geom:latitude":41.09214,
    "geom:longitude":-74.066628,
    "iso:country":"US",
    "sg:address":"1 Carmen Ct",
    "sg:city":"Spring Valley",
    "sg:classifiers":[
        {
            "category":"Building & Trades",
            "subcategory":"Landscaping Services",
            "type":"Services"
        }
    ],
    "sg:owner":"simplegeo",
    "sg:phone":"+1 845 353 6414",
    "sg:postcode":"10977",
    "sg:province":"NY",
    "sg:tags":[
        "landscape",
        "contractor"
    ],
    "src:geom":"simplegeo",
    "wof:belongsto":[
        85853261,
        102191575,
        404523097,
        85633793,
        85978555,
        102082385,
        85688543
    ],
    "wof:breaches":[],
    "wof:concordances":{
        "sg:id":"SG_7ZA59z8utYc9x9jfgZBfNn_41.092140_-74.066628@1294177022"
    },
    "wof:country":"US",
    "wof:geomhash":"9132f23380809d27a11cee70483261e7",
    "wof:hierarchy":[
        {
            "continent_id":102191575,
            "country_id":85633793,
            "county_id":102082385,
            "localadmin_id":404523097,
            "locality_id":85978555,
            "neighbourhood_id":85853261,
            "region_id":85688543,
            "venue_id":554935787
        }
    ],
    "wof:id":554935787,
    "wof:lastmodified":1461017121,
    "wof:name":"Rick's Landscaping",
    "wof:parent_id":85853261,
    "wof:placetype":"venue",
    "wof:superseded_by":[],
    "wof:supersedes":[],
    "wof:tags":[
        "landscape",
        "contractor"
    ]
},
  "bbox": [
    -74.066628,
    41.09214,
    -74.066628,
    41.09214
],
  "geometry": {"coordinates":[-74.06662799999999,41.09214],"type":"Point"}
}