{
  "id": 554936191,
  "type": "Feature",
  "properties": {
    "edtf:cessation":"uuuu",
    "edtf:inception":"uuuu",
    "geom:area":0.0,
    "geom:bbox":"-73.638319,41.170093,-73.638319,41.170093",
    "geom:latitude":41.170093,
    "geom:longitude":-73.638319,
    "iso:country":"US",
    "sg:address":"108 Hickory Kingdom Rd",
    "sg:city":"Bedford",
    "sg:classifiers":[
        {
            "category":"Restaurant",
            "subcategory":"",
            "type":"Food & Drink"
        }
    ],
    "sg:owner":"simplegeo",
    "sg:phone":"+1   ",
    "sg:postcode":"10506",
    "sg:province":"NY",
    "sg:tags":[
        "eating"
    ],
    "src:geom":"simplegeo",
    "wof:belongsto":[
        85688629,
        85633793,
        85930787,
        102084283,
        85838073
    ],
    "wof:breaches":[],
    "wof:concordances":{
        "sg:id":"SG_4fcYgLZK2jkozoztD554UM_41.170093_-73.638319@1294177022"
    },
    "wof:country":"US",
    "wof:geomhash":"70536ec0fe94caa9d5d8647e792f3ff6",
    "wof:hierarchy":[
        {
            "country_id":85633793,
            "county_id":102084283,
            "locality_id":85930787,
            "neighbourhood_id":85838073,
            "region_id":85688629,
            "venue_id":554936191
        }
    ],
    "wof:id":554936191,
    "wof:lastmodified":1461017179,
    "wof:name":"White Oak Bistro",
    "wof:parent_id":85838073,
    "wof:placetype":"venue",
    "wof:superseded_by":[],
    "wof:supersedes":[],
    "wof:tags":[
        "eating"
    ]
},
  "bbox": [
    -73.638319,
    41.170093,
    -73.638319,
    41.170093
],
  "geometry": {"coordinates":[-73.638319,41.170093],"type":"Point"}
}