{
  "id": 554936273,
  "type": "Feature",
  "properties": {
    "edtf:cessation":"uuuu",
    "edtf:inception":"uuuu",
    "geom:area":0.0,
    "geom:bbox":"-73.637086,41.171476,-73.637086,41.171476",
    "geom:latitude":41.171476,
    "geom:longitude":-73.637086,
    "iso:country":"US",
    "sg:address":"88 Hickory Kingdom Rd",
    "sg:city":"Bedford",
    "sg:classifiers":[
        {
            "category":"Building & Trades",
            "subcategory":"Electrical",
            "type":"Services"
        }
    ],
    "sg:owner":"simplegeo",
    "sg:phone":"+1 914 234 7105",
    "sg:postcode":"10506",
    "sg:province":"NY",
    "sg:tags":[
        "general",
        "electrical",
        "contractor"
    ],
    "src:geom":"simplegeo",
    "wof:belongsto":[
        85688629,
        85633793,
        85930787,
        102084283,
        85838073
    ],
    "wof:breaches":[],
    "wof:concordances":{
        "sg:id":"SG_2puQZ9Z9reeMAHSzWf0eT5_41.171476_-73.637086@1294177022"
    },
    "wof:country":"US",
    "wof:geomhash":"29fb3816f307a7b07ba2b69e74b72f25",
    "wof:hierarchy":[
        {
            "country_id":85633793,
            "county_id":102084283,
            "locality_id":85930787,
            "neighbourhood_id":85838073,
            "region_id":85688629,
            "venue_id":554936273
        }
    ],
    "wof:id":554936273,
    "wof:lastmodified":1461017192,
    "wof:name":"Palumbo Contracting Inc",
    "wof:parent_id":85838073,
    "wof:placetype":"venue",
    "wof:superseded_by":[],
    "wof:supersedes":[],
    "wof:tags":[
        "general",
        "electrical",
        "contractor"
    ]
},
  "bbox": [
    -73.637086,
    41.171476,
    -73.637086,
    41.171476
],
  "geometry": {"coordinates":[-73.637086,41.171476],"type":"Point"}
}