{
  "id": 554935611,
  "type": "Feature",
  "properties": {
    "edtf:cessation":"uuuu",
    "edtf:inception":"uuuu",
    "geom:area":0.0,
    "geom:bbox":"-73.510572,41.126246,-73.510572,41.126246",
    "geom:latitude":41.126246,
    "geom:longitude":-73.510572,
    "iso:country":"US",
    "sg:address":"490 Spring Water Ln",
    "sg:city":"New Canaan",
    "sg:classifiers":[
        {
            "category":"Wholesale",
            "subcategory":"Auto Parts",
            "type":"Manufacturing & Wholesale Goods"
        }
    ],
    "sg:owner":"simplegeo",
    "sg:phone":"+1 203 966 7585",
    "sg:postcode":"06840",
    "sg:province":"NY",
    "src:geom":"simplegeo",
    "wof:belongsto":[
        85688629,
        85633793,
        85851779,
        102084283
    ],
    "wof:breaches":[],
    "wof:concordances":{
        "sg:id":"SG_4BVdCjdl00ORJ0R3TxiNx8_41.126246_-73.510572@1294177022"
    },
    "wof:country":"US",
    "wof:geomhash":"c795432f67a6b8a5a3a82ca6f884c73d",
    "wof:hierarchy":[
        {
            "country_id":85633793,
            "county_id":102084283,
            "neighbourhood_id":85851779,
            "region_id":85688629,
            "venue_id":554935611
        }
    ],
    "wof:id":554935611,
    "wof:lastmodified":1461017096,
    "wof:name":"International Car Parts",
    "wof:parent_id":85851779,
    "wof:placetype":"venue",
    "wof:superseded_by":[],
    "wof:supersedes":[],
    "wof:tags":[]
},
  "bbox": [
    -73.510572,
    41.126246,
    -73.510572,
    41.126246
],
  "geometry": {"coordinates":[-73.510572,41.126246],"type":"Point"}
}