{
  "id": 554936485,
  "type": "Feature",
  "properties": {
    "edtf:cessation":"uuuu",
    "edtf:inception":"uuuu",
    "geom:area":0.0,
    "geom:bbox":"-73.509358,41.137939,-73.509358,41.137939",
    "geom:latitude":41.137939,
    "geom:longitude":-73.509358,
    "iso:country":"US",
    "sg:address":"193 Parish Rd",
    "sg:city":"New Canaan",
    "sg:classifiers":[
        {
            "category":"Professional",
            "subcategory":"Lawyer & Legal Services",
            "type":"Services"
        }
    ],
    "sg:owner":"simplegeo",
    "sg:phone":"+1 203 966 7344",
    "sg:postcode":"06840",
    "sg:province":"NY",
    "sg:tags":[
        "attorney"
    ],
    "src:geom":"simplegeo",
    "wof:belongsto":[
        85688629,
        85633793,
        85851779,
        102084283
    ],
    "wof:breaches":[],
    "wof:concordances":{
        "sg:id":"SG_6jrPS1JrHdAyFCgKvt4gbB_41.137939_-73.509358@1294177022"
    },
    "wof:country":"US",
    "wof:geomhash":"0a5de829990453657da3fd1c45a6ba4f",
    "wof:hierarchy":[
        {
            "country_id":85633793,
            "county_id":102084283,
            "neighbourhood_id":85851779,
            "region_id":85688629,
            "venue_id":554936485
        }
    ],
    "wof:id":554936485,
    "wof:lastmodified":1461017230,
    "wof:name":"Charles A Siegel Attorney",
    "wof:parent_id":85851779,
    "wof:placetype":"venue",
    "wof:superseded_by":[],
    "wof:supersedes":[],
    "wof:tags":[
        "attorney"
    ]
},
  "bbox": [
    -73.509358,
    41.137939,
    -73.509358,
    41.137939
],
  "geometry": {"coordinates":[-73.50935800000001,41.137939],"type":"Point"}
}