{
  "id": 554940515,
  "type": "Feature",
  "properties": {
    "edtf:cessation":"uuuu",
    "edtf:inception":"uuuu",
    "geom:area":0.0,
    "geom:bbox":"-79.716513,42.075817,-79.716513,42.075817",
    "geom:latitude":42.075817,
    "geom:longitude":-79.716513,
    "iso:country":"US",
    "sg:address":"1841 State Hwy 426",
    "sg:city":"Clymer",
    "sg:classifiers":[
        {
            "category":"Farming",
            "subcategory":"Dairy Farm",
            "type":"Manufacturing & Wholesale Goods"
        }
    ],
    "sg:owner":"simplegeo",
    "sg:phone":"+1 716 355 4485",
    "sg:postcode":"14724",
    "sg:province":"NY",
    "src:geom":"simplegeo",
    "wof:belongsto":[
        85688481,
        85633793,
        85850957,
        102080955
    ],
    "wof:breaches":[],
    "wof:concordances":{
        "sg:id":"SG_19f5jiyFbGOnNG9GYTJiMl_42.075817_-79.716513@1294177022"
    },
    "wof:country":"US",
    "wof:geomhash":"bee6210cc11fc7d2209c5e3c9396f93c",
    "wof:hierarchy":[
        {
            "country_id":85633793,
            "county_id":102080955,
            "neighbourhood_id":85850957,
            "region_id":85688481,
            "venue_id":554940515
        }
    ],
    "wof:id":554940515,
    "wof:lastmodified":1461017659,
    "wof:name":"Schwabs Dairy",
    "wof:parent_id":85850957,
    "wof:placetype":"venue",
    "wof:superseded_by":[],
    "wof:supersedes":[],
    "wof:tags":[]
},
  "bbox": [
    -79.716513,
    42.075817,
    -79.716513,
    42.075817
],
  "geometry": {"coordinates":[-79.71651300000001,42.075817],"type":"Point"}
}