{
  "id": 554935745,
  "type": "Feature",
  "properties": {
    "edtf:cessation":"uuuu",
    "edtf:inception":"uuuu",
    "geom:area":0.0,
    "geom:bbox":"-73.494816,41.144117,-73.494816,41.144117",
    "geom:latitude":41.144117,
    "geom:longitude":-73.494816,
    "iso:country":"US",
    "sg:address":"162 Park St",
    "sg:city":"New Canaan",
    "sg:classifiers":[
        {
            "category":"Real Estate",
            "subcategory":"Real Estate Operator",
            "type":"Services"
        }
    ],
    "sg:owner":"simplegeo",
    "sg:phone":"+1 203 966 0836",
    "sg:postcode":"06840",
    "sg:province":"NY",
    "sg:tags":[
        "apartment"
    ],
    "src:geom":"simplegeo",
    "wof:belongsto":[
        85688629,
        85633793,
        85851779,
        102084283
    ],
    "wof:breaches":[],
    "wof:concordances":{
        "sg:id":"SG_3fzScQO3BCPoSGkhwvUAZV_41.144117_-73.494816@1294177022"
    },
    "wof:country":"US",
    "wof:geomhash":"d3ba979907d9826e7c86e5e0ea81cb23",
    "wof:hierarchy":[
        {
            "country_id":85633793,
            "county_id":102084283,
            "neighbourhood_id":85851779,
            "region_id":85688629,
            "venue_id":554935745
        }
    ],
    "wof:id":554935745,
    "wof:lastmodified":1461017113,
    "wof:name":"Merritt Apartments",
    "wof:parent_id":85851779,
    "wof:placetype":"venue",
    "wof:superseded_by":[],
    "wof:supersedes":[],
    "wof:tags":[
        "apartment"
    ]
},
  "bbox": [
    -73.494816,
    41.144117,
    -73.494816,
    41.144117
],
  "geometry": {"coordinates":[-73.494816,41.144117],"type":"Point"}
}