{
  "id": 554936323,
  "type": "Feature",
  "properties": {
    "edtf:cessation":"uuuu",
    "edtf:inception":"uuuu",
    "geom:area":0.0,
    "geom:bbox":"-73.255814,42.513897,-73.255814,42.513897",
    "geom:latitude":42.513897,
    "geom:longitude":-73.255814,
    "iso:country":"US",
    "sg:address":"100 Miner Rd",
    "sg:city":"Great Barrington",
    "sg:classifiers":[
        {
            "category":"Sports & Exercise",
            "subcategory":"Gym",
            "type":"Entertainment"
        }
    ],
    "sg:owner":"simplegeo",
    "sg:phone":"+1 413 229 3498",
    "sg:postcode":"01237",
    "sg:province":"NY",
    "sg:tags":[
        "spa",
        "health"
    ],
    "src:geom":"simplegeo",
    "wof:belongsto":[
        85688645,
        85633793,
        85829509,
        102084369
    ],
    "wof:breaches":[],
    "wof:concordances":{
        "sg:id":"SG_2iinAvpGStIS3ZPC3xazYT_42.513897_-73.255814@1294177022"
    },
    "wof:country":"US",
    "wof:geomhash":"5346f266d2e13491d93932559b85b552",
    "wof:hierarchy":[
        {
            "country_id":85633793,
            "county_id":102084369,
            "neighbourhood_id":85829509,
            "region_id":85688645,
            "venue_id":554936323
        }
    ],
    "wof:id":554936323,
    "wof:lastmodified":1461017199,
    "wof:name":"Mepal Spa",
    "wof:parent_id":85829509,
    "wof:placetype":"venue",
    "wof:superseded_by":[],
    "wof:supersedes":[],
    "wof:tags":[
        "spa",
        "health"
    ]
},
  "bbox": [
    -73.255814,
    42.513897,
    -73.255814,
    42.513897
],
  "geometry": {"coordinates":[-73.255814,42.513897],"type":"Point"}
}