{
  "id": 554941703,
  "type": "Feature",
  "properties": {
    "edtf:cessation":"uuuu",
    "edtf:inception":"uuuu",
    "geom:area":0.0,
    "geom:bbox":"-73.5126,41.122083,-73.5126,41.122083",
    "geom:latitude":41.122083,
    "geom:longitude":-73.5126,
    "iso:country":"US",
    "sg:address":"89 Sagamore Trl",
    "sg:city":"New Canaan",
    "sg:classifiers":[
        {
            "category":"Building & Trades",
            "subcategory":"Construction",
            "type":"Services"
        }
    ],
    "sg:owner":"simplegeo",
    "sg:phone":"+1 203 323 1591",
    "sg:postcode":"06840",
    "sg:province":"NY",
    "sg:tags":[
        "excavating",
        "contractor"
    ],
    "src:geom":"simplegeo",
    "wof:belongsto":[
        85688629,
        85633793,
        85851779,
        102084283
    ],
    "wof:breaches":[],
    "wof:concordances":{
        "sg:id":"SG_5XAAZkVgVtIRG5rdRRZ3QY_41.122083_-73.512600@1294177022"
    },
    "wof:country":"US",
    "wof:geomhash":"d9e8ab650f92112fd84227dc45b1a5e3",
    "wof:hierarchy":[
        {
            "country_id":85633793,
            "county_id":102084283,
            "neighbourhood_id":85851779,
            "region_id":85688629,
            "venue_id":554941703
        }
    ],
    "wof:id":554941703,
    "wof:lastmodified":1461017790,
    "wof:name":"Mallozzi Construction Co Inc",
    "wof:parent_id":85851779,
    "wof:placetype":"venue",
    "wof:superseded_by":[],
    "wof:supersedes":[],
    "wof:tags":[
        "excavating",
        "contractor"
    ]
},
  "bbox": [
    -73.5126,
    41.122083,
    -73.5126,
    41.122083
],
  "geometry": {"coordinates":[-73.51260000000001,41.122083],"type":"Point"}
}