{
  "id": 555633073,
  "type": "Feature",
  "properties": {
    "edtf:cessation":"uuuu",
    "edtf:inception":"uuuu",
    "geom:area":0.0,
    "geom:bbox":"-73.269091,43.403732,-73.269091,43.403732",
    "geom:latitude":43.403732,
    "geom:longitude":-73.269091,
    "iso:country":"US",
    "sg:address":"24 Irving Ave",
    "sg:city":"Granville",
    "sg:classifiers":[
        {
            "category":"Food & Beverages",
            "subcategory":"Groceries & Convenience Stores",
            "type":"Retail Goods"
        }
    ],
    "sg:owner":"simplegeo",
    "sg:phone":"+1   ",
    "sg:postcode":"12832",
    "sg:province":"NY",
    "src:geom":"simplegeo",
    "wof:belongsto":[],
    "wof:breaches":[],
    "wof:concordances":{
        "sg:id":"SG_6HuDs8xiwXcvoMo7R9kj3i_43.403732_-73.269091@1294177022"
    },
    "wof:country":"US",
    "wof:geomhash":"11565513cda35cd741dcb18bed3e2a62",
    "wof:hierarchy":[],
    "wof:id":555633073,
    "wof:lastmodified":1461034268,
    "wof:name":"Supleys Grocery",
    "wof:parent_id":420530313,
    "wof:placetype":"venue",
    "wof:superseded_by":[],
    "wof:supersedes":[],
    "wof:tags":[]
},
  "bbox": [
    -73.269091,
    43.403732,
    -73.269091,
    43.403732
],
  "geometry": {"coordinates":[-73.269091,43.403732],"type":"Point"}
}