{
  "id": 554942085,
  "type": "Feature",
  "properties": {
    "edtf:cessation":"uuuu",
    "edtf:inception":"uuuu",
    "geom:area":0.0,
    "geom:bbox":"-73.486684,41.139388,-73.486684,41.139388",
    "geom:latitude":41.139388,
    "geom:longitude":-73.486684,
    "iso:country":"US",
    "sg:address":"6 Kelley Green",
    "sg:city":"New Canaan",
    "sg:classifiers":[
        {
            "category":"Health Services",
            "subcategory":"Health Practitioner",
            "type":"Services"
        }
    ],
    "sg:owner":"simplegeo",
    "sg:phone":"+1   ",
    "sg:postcode":"06840",
    "sg:province":"NY",
    "src:geom":"simplegeo",
    "wof:belongsto":[
        85688629,
        85633793,
        85851779,
        102084283
    ],
    "wof:breaches":[],
    "wof:concordances":{
        "sg:id":"SG_0WdJFpNhluCX21r9z2EX9c_41.139388_-73.486684@1294177022"
    },
    "wof:country":"US",
    "wof:geomhash":"5b7b0dc0d3da4cce6b1bdc89b0d4bd49",
    "wof:hierarchy":[
        {
            "country_id":85633793,
            "county_id":102084283,
            "neighbourhood_id":85851779,
            "region_id":85688629,
            "venue_id":554942085
        }
    ],
    "wof:id":554942085,
    "wof:lastmodified":1461017846,
    "wof:name":"Mp Seminars",
    "wof:parent_id":85851779,
    "wof:placetype":"venue",
    "wof:superseded_by":[],
    "wof:supersedes":[],
    "wof:tags":[]
},
  "bbox": [
    -73.486684,
    41.139388,
    -73.486684,
    41.139388
],
  "geometry": {"coordinates":[-73.486684,41.139388],"type":"Point"}
}