{
  "id": 554936383,
  "type": "Feature",
  "properties": {
    "edtf:cessation":"uuuu",
    "edtf:inception":"uuuu",
    "geom:area":0.0,
    "geom:bbox":"-73.516118,41.115152,-73.516118,41.115152",
    "geom:latitude":41.115152,
    "geom:longitude":-73.516118,
    "iso:country":"US",
    "sg:address":"19 Ponus Ridge",
    "sg:city":"New Canaan",
    "sg:classifiers":[
        {
            "category":"Real Estate",
            "subcategory":"Real Estate Agent",
            "type":"Services"
        }
    ],
    "sg:owner":"simplegeo",
    "sg:phone":"+1 203 966 2060",
    "sg:postcode":"06840",
    "sg:province":"NY",
    "src:geom":"simplegeo",
    "wof:belongsto":[
        85688629,
        85633793,
        85851779,
        102084283
    ],
    "wof:breaches":[],
    "wof:concordances":{
        "sg:id":"SG_6jq1CQaGMyxyEymaWKun6F_41.115152_-73.516118@1294177022"
    },
    "wof:country":"US",
    "wof:geomhash":"0eb31c030901ccb092e8bb86b4cc184e",
    "wof:hierarchy":[
        {
            "country_id":85633793,
            "county_id":102084283,
            "neighbourhood_id":85851779,
            "region_id":85688629,
            "venue_id":554936383
        }
    ],
    "wof:id":554936383,
    "wof:lastmodified":1461017213,
    "wof:name":"Aje Realty LLC",
    "wof:parent_id":85851779,
    "wof:placetype":"venue",
    "wof:superseded_by":[],
    "wof:supersedes":[],
    "wof:tags":[]
},
  "bbox": [
    -73.516118,
    41.115152,
    -73.516118,
    41.115152
],
  "geometry": {"coordinates":[-73.51611800000001,41.115152],"type":"Point"}
}