{
  "id": 554939291,
  "type": "Feature",
  "properties": {
    "edtf:cessation":"uuuu",
    "edtf:inception":"uuuu",
    "geom:area":0.0,
    "geom:bbox":"-74.081246,41.08049,-74.081246,41.08049",
    "geom:latitude":41.08049,
    "geom:longitude":-74.081246,
    "iso:country":"US",
    "sg:address":"9 Hillside Ave",
    "sg:city":"Airmont",
    "sg:classifiers":[
        {
            "category":"Building & Trades",
            "subcategory":"Landscaping Services",
            "type":"Services"
        }
    ],
    "sg:owner":"simplegeo",
    "sg:phone":"+1 845 371 0844",
    "sg:postcode":"10952",
    "sg:province":"NY",
    "sg:tags":[
        "landscape",
        "contractor"
    ],
    "src:geom":"simplegeo",
    "wof:belongsto":[
        85853261,
        102191575,
        404523097,
        85633793,
        85978555,
        102082385,
        85688543
    ],
    "wof:breaches":[],
    "wof:concordances":{
        "sg:id":"SG_0mhKCY37XOMcniMq0pHdMz_41.080490_-74.081246@1294177022"
    },
    "wof:country":"US",
    "wof:geomhash":"85dd0b75d06cc54f0580f4a6c5df55bb",
    "wof:hierarchy":[
        {
            "continent_id":102191575,
            "country_id":85633793,
            "county_id":102082385,
            "localadmin_id":404523097,
            "locality_id":85978555,
            "neighbourhood_id":85853261,
            "region_id":85688543,
            "venue_id":554939291
        }
    ],
    "wof:id":554939291,
    "wof:lastmodified":1461017549,
    "wof:name":"All Green Lawn Care",
    "wof:parent_id":85853261,
    "wof:placetype":"venue",
    "wof:superseded_by":[],
    "wof:supersedes":[],
    "wof:tags":[
        "landscape",
        "contractor"
    ]
},
  "bbox": [
    -74.081246,
    41.08049,
    -74.081246,
    41.08049
],
  "geometry": {"coordinates":[-74.08124599999999,41.08049],"type":"Point"}
}