{
  "id": 554934297,
  "type": "Feature",
  "properties": {
    "edtf:cessation":"uuuu",
    "edtf:inception":"uuuu",
    "geom:area":0.0,
    "geom:bbox":"-74.036494,41.079705,-74.036494,41.079705",
    "geom:latitude":41.079705,
    "geom:longitude":-74.036494,
    "iso:country":"US",
    "sg:address":"36 Balmoral Dr",
    "sg:city":"Spring Valley",
    "sg:classifiers":[
        {
            "category":"Health Services",
            "subcategory":"Health Practitioner",
            "type":"Services"
        }
    ],
    "sg:owner":"simplegeo",
    "sg:phone":"+1 845 623 3246",
    "sg:postcode":"10977",
    "sg:province":"NY",
    "sg:tags":[
        "nutritionist"
    ],
    "src:geom":"simplegeo",
    "wof:belongsto":[
        85853261,
        102191575,
        404523097,
        85633793,
        85978555,
        102082385,
        85688543
    ],
    "wof:breaches":[],
    "wof:concordances":{
        "sg:id":"SG_56I04xBpqfFgGcxIt3JwBB_41.079705_-74.036494@1294177022"
    },
    "wof:country":"US",
    "wof:geomhash":"63f9524ecc1bcd626d00ca50a8d542f6",
    "wof:hierarchy":[
        {
            "continent_id":102191575,
            "country_id":85633793,
            "county_id":102082385,
            "localadmin_id":404523097,
            "locality_id":85978555,
            "neighbourhood_id":85853261,
            "region_id":85688543,
            "venue_id":554934297
        }
    ],
    "wof:id":554934297,
    "wof:lastmodified":1461016923,
    "wof:name":"Janice Shaer",
    "wof:parent_id":85853261,
    "wof:placetype":"venue",
    "wof:superseded_by":[],
    "wof:supersedes":[],
    "wof:tags":[
        "nutritionist"
    ]
},
  "bbox": [
    -74.036494,
    41.079705,
    -74.036494,
    41.079705
],
  "geometry": {"coordinates":[-74.036494,41.079705],"type":"Point"}
}