{
  "id": 572170263,
  "type": "Feature",
  "properties": {
    "edtf:cessation":"uuuu",
    "edtf:inception":"uuuu",
    "geom:area":0.0,
    "geom:bbox":"-74.257746,40.62288,-74.257746,40.62288",
    "geom:latitude":40.62288,
    "geom:longitude":-74.257746,
    "iso:country":"US",
    "sg:address":"8210 6th Ave",
    "sg:city":"Brooklyn",
    "sg:classifiers":[
        {
            "category":"Building & Trades",
            "subcategory":"Construction",
            "type":"Services"
        }
    ],
    "sg:owner":"simplegeo",
    "sg:phone":"+1 718 833 0615",
    "sg:postcode":"11209",
    "sg:province":"NY",
    "sg:tags":[
        "interior",
        "design"
    ],
    "src:geom":"simplegeo",
    "wof:belongsto":[],
    "wof:breaches":[],
    "wof:concordances":{
        "sg:id":"SG_1XRJeooOCd44jWrdNNVewQ_40.622880_-74.257746@1303262339"
    },
    "wof:country":"US",
    "wof:geomhash":"b1440cc81c3310f5ce59282fd5e11e29",
    "wof:hierarchy":[],
    "wof:id":572170263,
    "wof:lastmodified":1461051415,
    "wof:name":"Interior Motives Corp",
    "wof:parent_id":-1,
    "wof:placetype":"venue",
    "wof:superseded_by":[],
    "wof:supersedes":[],
    "wof:tags":[
        "interior",
        "design"
    ]
},
  "bbox": [
    -74.257746,
    40.62288,
    -74.257746,
    40.62288
],
  "geometry": {"coordinates":[-74.257746,40.62288],"type":"Point"}
}