{
  "id": 554936231,
  "type": "Feature",
  "properties": {
    "edtf:cessation":"uuuu",
    "edtf:inception":"uuuu",
    "geom:area":0.0,
    "geom:bbox":"-73.634876,41.143226,-73.634876,41.143226",
    "geom:latitude":41.143226,
    "geom:longitude":-73.634876,
    "iso:country":"US",
    "sg:address":"18 Zygmont Ln",
    "sg:city":"Greenwich",
    "sg:classifiers":[
        {
            "category":"Arts & Performance",
            "subcategory":"Theater",
            "type":"Entertainment"
        }
    ],
    "sg:owner":"simplegeo",
    "sg:phone":"+1   ",
    "sg:postcode":"06831",
    "sg:province":"NY",
    "sg:tags":[
        "group"
    ],
    "src:geom":"simplegeo",
    "wof:belongsto":[
        85688629,
        85633793,
        85850923,
        102084283
    ],
    "wof:breaches":[],
    "wof:concordances":{
        "sg:id":"SG_5qcHdZIUdbhNeDJRQxdnD4_41.143226_-73.634876@1294177022"
    },
    "wof:country":"US",
    "wof:geomhash":"8c6a5598d1cd17d8c7c744e3dd15fe04",
    "wof:hierarchy":[
        {
            "country_id":85633793,
            "county_id":102084283,
            "neighbourhood_id":85850923,
            "region_id":85688629,
            "venue_id":554936231
        }
    ],
    "wof:id":554936231,
    "wof:lastmodified":1461017187,
    "wof:name":"Symphony On Sound Inc",
    "wof:parent_id":85850923,
    "wof:placetype":"venue",
    "wof:superseded_by":[],
    "wof:supersedes":[],
    "wof:tags":[
        "group"
    ]
},
  "bbox": [
    -73.634876,
    41.143226,
    -73.634876,
    41.143226
],
  "geometry": {"coordinates":[-73.63487600000001,41.143226],"type":"Point"}
}