{
  "id": 555742733,
  "type": "Feature",
  "properties": {
    "edtf:cessation":"uuuu",
    "edtf:inception":"uuuu",
    "geom:area":0.0,
    "geom:bbox":"-77.403821,42.613511,-77.403821,42.613511",
    "geom:latitude":42.613511,
    "geom:longitude":-77.403821,
    "iso:country":"US",
    "sg:address":"149 S Main St",
    "sg:city":"Naples",
    "sg:classifiers":[
        {
            "category":"Shopping",
            "subcategory":"Books",
            "type":"Retail Goods"
        }
    ],
    "sg:owner":"simplegeo",
    "sg:phone":"+1   ",
    "sg:postcode":"14512",
    "sg:province":"NY",
    "src:geom":"simplegeo",
    "wof:belongsto":[],
    "wof:breaches":[],
    "wof:concordances":{
        "sg:id":"SG_2C9NzpPNeixhqKsQTSxcBu_42.613511_-77.403821@1294177022"
    },
    "wof:country":"US",
    "wof:geomhash":"12d1fc3a4a61b9b3c647530890e2d334",
    "wof:hierarchy":[],
    "wof:id":555742733,
    "wof:lastmodified":1461036529,
    "wof:name":"Center Book Store",
    "wof:parent_id":-1,
    "wof:placetype":"venue",
    "wof:superseded_by":[],
    "wof:supersedes":[],
    "wof:tags":[]
},
  "bbox": [
    -77.403821,
    42.613511,
    -77.403821,
    42.613511
],
  "geometry": {"coordinates":[-77.40382099999999,42.613511],"type":"Point"}
}