{
  "id": 572171367,
  "type": "Feature",
  "properties": {
    "edtf:cessation":"uuuu",
    "edtf:inception":"uuuu",
    "geom:area":0.0,
    "geom:bbox":"-74.32551,40.615717,-74.32551,40.615717",
    "geom:latitude":40.615717,
    "geom:longitude":-74.32551,
    "iso:country":"US",
    "sg:address":"1271 84th St",
    "sg:city":"Brooklyn",
    "sg:classifiers":[
        {
            "category":"Building & Trades",
            "subcategory":"Construction",
            "type":"Services"
        }
    ],
    "sg:owner":"simplegeo",
    "sg:phone":"+1 718 234 1114",
    "sg:postcode":"11228",
    "sg:province":"NY",
    "sg:tags":[
        "contractor"
    ],
    "src:geom":"simplegeo",
    "wof:belongsto":[],
    "wof:breaches":[],
    "wof:concordances":{
        "sg:id":"SG_67hJ2vtewSzgCWCDJuEncK_40.615717_-74.325510@1303262347"
    },
    "wof:country":"US",
    "wof:geomhash":"a197712b354a1a813bb33ed557079461",
    "wof:hierarchy":[],
    "wof:id":572171367,
    "wof:lastmodified":1461051452,
    "wof:name":"Level Finishing Corp",
    "wof:parent_id":-1,
    "wof:placetype":"venue",
    "wof:superseded_by":[],
    "wof:supersedes":[],
    "wof:tags":[
        "contractor"
    ]
},
  "bbox": [
    -74.32551,
    40.615717,
    -74.32551,
    40.615717
],
  "geometry": {"coordinates":[-74.32550999999999,40.615717],"type":"Point"}
}