{
  "id": 554936547,
  "type": "Feature",
  "properties": {
    "edtf:cessation":"uuuu",
    "edtf:inception":"uuuu",
    "geom:area":0.0,
    "geom:bbox":"-74.107435,41.093301,-74.107435,41.093301",
    "geom:latitude":41.093301,
    "geom:longitude":-74.107435,
    "iso:country":"US",
    "sg:address":"11 Eros Dr",
    "sg:city":"Airmont",
    "sg:classifiers":[
        {
            "category":"Professional",
            "subcategory":"",
            "type":"Services"
        }
    ],
    "sg:owner":"simplegeo",
    "sg:phone":"+1 845 369 8994",
    "sg:postcode":"10952",
    "sg:province":"NY",
    "sg:tags":[
        "establishment"
    ],
    "src:geom":"simplegeo",
    "wof:belongsto":[
        85832837,
        102191575,
        404523097,
        85633793,
        85978559,
        102082385,
        85688543
    ],
    "wof:breaches":[],
    "wof:concordances":{
        "sg:id":"SG_3PcFc5dOsEvJbapdqruQ9Q_41.093301_-74.107435@1294177022"
    },
    "wof:country":"US",
    "wof:geomhash":"cca4bc3fddacfe614e76b6cf5acb718c",
    "wof:hierarchy":[
        {
            "continent_id":102191575,
            "country_id":85633793,
            "county_id":102082385,
            "localadmin_id":404523097,
            "locality_id":85978559,
            "neighbourhood_id":85832837,
            "region_id":85688543,
            "venue_id":554936547
        }
    ],
    "wof:id":554936547,
    "wof:lastmodified":1461017238,
    "wof:name":"Furnitech",
    "wof:parent_id":85832837,
    "wof:placetype":"venue",
    "wof:superseded_by":[],
    "wof:supersedes":[],
    "wof:tags":[
        "establishment"
    ]
},
  "bbox": [
    -74.107435,
    41.093301,
    -74.107435,
    41.093301
],
  "geometry": {"coordinates":[-74.107435,41.093301],"type":"Point"}
}