{
  "id": 554934361,
  "type": "Feature",
  "properties": {
    "edtf:cessation":"uuuu",
    "edtf:inception":"uuuu",
    "geom:area":0.0,
    "geom:bbox":"-73.493266,41.146478,-73.493266,41.146478",
    "geom:latitude":41.146478,
    "geom:longitude":-73.493266,
    "iso:country":"US",
    "sg:address":"3 South Ave",
    "sg:city":"New Canaan",
    "sg:classifiers":[
        {
            "category":"Shopping",
            "subcategory":"Used Merchandise",
            "type":"Retail Goods"
        }
    ],
    "sg:owner":"simplegeo",
    "sg:phone":"+1 203 966 1189",
    "sg:postcode":"06840",
    "sg:province":"NY",
    "src:geom":"simplegeo",
    "wof:belongsto":[
        85688629,
        85633793,
        85851779,
        102084283
    ],
    "wof:breaches":[],
    "wof:concordances":{
        "sg:id":"SG_5AdKUDLKsV10T2PWP0SrIB_41.146478_-73.493266@1294177022"
    },
    "wof:country":"US",
    "wof:geomhash":"6d916a1a9e423c4cd26b198b8df9a941",
    "wof:hierarchy":[
        {
            "country_id":85633793,
            "county_id":102084283,
            "neighbourhood_id":85851779,
            "region_id":85688629,
            "venue_id":554934361
        }
    ],
    "wof:id":554934361,
    "wof:lastmodified":1461016930,
    "wof:name":"Odesmith & Richards",
    "wof:parent_id":85851779,
    "wof:placetype":"venue",
    "wof:superseded_by":[],
    "wof:supersedes":[],
    "wof:tags":[]
},
  "bbox": [
    -73.493266,
    41.146478,
    -73.493266,
    41.146478
],
  "geometry": {"coordinates":[-73.49326600000001,41.146478],"type":"Point"}
}