{
  "id": 554936883,
  "type": "Feature",
  "properties": {
    "edtf:cessation":"uuuu",
    "edtf:inception":"uuuu",
    "geom:area":0.0,
    "geom:bbox":"-74.041109,41.078121,-74.041109,41.078121",
    "geom:latitude":41.078121,
    "geom:longitude":-74.041109,
    "iso:country":"US",
    "sg:address":"16 Renfrew Rd",
    "sg:city":"Spring Valley",
    "sg:classifiers":[
        {
            "category":"Recreation",
            "subcategory":"",
            "type":"Entertainment"
        }
    ],
    "sg:owner":"simplegeo",
    "sg:phone":"+1   ",
    "sg:postcode":"10977",
    "sg:province":"NY",
    "src:geom":"simplegeo",
    "wof:belongsto":[
        85853261,
        102191575,
        404523097,
        85633793,
        85978555,
        102082385,
        85688543
    ],
    "wof:breaches":[],
    "wof:concordances":{
        "sg:id":"SG_0U34wm4JestKTiL4ueE9bL_41.078121_-74.041109@1294177022"
    },
    "wof:country":"US",
    "wof:geomhash":"8adb7d9e6de05c1d5cc1e367bc6f1207",
    "wof:hierarchy":[
        {
            "continent_id":102191575,
            "country_id":85633793,
            "county_id":102082385,
            "localadmin_id":404523097,
            "locality_id":85978555,
            "neighbourhood_id":85853261,
            "region_id":85688543,
            "venue_id":554936883
        }
    ],
    "wof:id":554936883,
    "wof:lastmodified":1461017286,
    "wof:name":"Yoga For Mbas Inc",
    "wof:parent_id":85853261,
    "wof:placetype":"venue",
    "wof:superseded_by":[],
    "wof:supersedes":[],
    "wof:tags":[]
},
  "bbox": [
    -74.041109,
    41.078121,
    -74.041109,
    41.078121
],
  "geometry": {"coordinates":[-74.04110900000001,41.078121],"type":"Point"}
}