{
  "id": 554935897,
  "type": "Feature",
  "properties": {
    "edtf:cessation":"uuuu",
    "edtf:inception":"uuuu",
    "geom:area":0.0,
    "geom:bbox":"-73.662028,41.035554,-73.662028,41.035554",
    "geom:latitude":41.035554,
    "geom:longitude":-73.662028,
    "iso:country":"US",
    "sg:address":"2 Linden Pl",
    "sg:city":"Greenwich",
    "sg:classifiers":[
        {
            "category":"Professional",
            "subcategory":"",
            "type":"Services"
        }
    ],
    "sg:owner":"simplegeo",
    "sg:phone":"+1 203 531 6721",
    "sg:postcode":"06831",
    "sg:province":"NY",
    "sg:tags":[
        "establishment"
    ],
    "src:geom":"simplegeo",
    "wof:belongsto":[
        420555461,
        102191575,
        404495949,
        85633793,
        85930937,
        102084283,
        85688629
    ],
    "wof:breaches":[],
    "wof:concordances":{
        "sg:id":"SG_6Vfy6lNhltRIjzUajBmHv4_41.035554_-73.662028@1294177022"
    },
    "wof:country":"US",
    "wof:geomhash":"5695c80f85b3720a874d9e0ddf56b1e6",
    "wof:hierarchy":[
        {
            "continent_id":102191575,
            "country_id":85633793,
            "county_id":102084283,
            "localadmin_id":404495949,
            "locality_id":85930937,
            "neighbourhood_id":420555461,
            "region_id":85688629,
            "venue_id":554935897
        }
    ],
    "wof:id":554935897,
    "wof:lastmodified":1461017133,
    "wof:name":"Flanagan M",
    "wof:parent_id":420555461,
    "wof:placetype":"venue",
    "wof:superseded_by":[],
    "wof:supersedes":[],
    "wof:tags":[
        "establishment"
    ]
},
  "bbox": [
    -73.662028,
    41.035554,
    -73.662028,
    41.035554
],
  "geometry": {"coordinates":[-73.66202800000001,41.035554],"type":"Point"}
}