{
  "id": 554939841,
  "type": "Feature",
  "properties": {
    "edtf:cessation":"uuuu",
    "edtf:inception":"uuuu",
    "geom:area":0.0,
    "geom:bbox":"-73.670373,41.096758,-73.670373,41.096758",
    "geom:latitude":41.096758,
    "geom:longitude":-73.670373,
    "iso:country":"US",
    "sg:address":"28 Mooreland Rd",
    "sg:city":"Greenwich",
    "sg:classifiers":[
        {
            "category":"Organizations",
            "subcategory":"Membership Organization",
            "type":"Services"
        }
    ],
    "sg:owner":"simplegeo",
    "sg:phone":"+1   ",
    "sg:postcode":"06831",
    "sg:province":"NY",
    "src:geom":"simplegeo",
    "wof:belongsto":[
        85688629,
        85633793,
        85837667,
        102084283
    ],
    "wof:breaches":[],
    "wof:concordances":{
        "sg:id":"SG_2pWGqVQUcuA13NAizHuAFz_41.096758_-73.670373@1294177022"
    },
    "wof:country":"US",
    "wof:geomhash":"685d66207757293317960ad7fd415cc1",
    "wof:hierarchy":[
        {
            "country_id":85633793,
            "county_id":102084283,
            "neighbourhood_id":85837667,
            "region_id":85688629,
            "venue_id":554939841
        }
    ],
    "wof:id":554939841,
    "wof:lastmodified":1461017599,
    "wof:name":"Nemerov Charitable Foundation",
    "wof:parent_id":85837667,
    "wof:placetype":"venue",
    "wof:superseded_by":[],
    "wof:supersedes":[],
    "wof:tags":[]
},
  "bbox": [
    -73.670373,
    41.096758,
    -73.670373,
    41.096758
],
  "geometry": {"coordinates":[-73.670373,41.096758],"type":"Point"}
}