{
  "id": 555630907,
  "type": "Feature",
  "properties": {
    "edtf:cessation":"uuuu",
    "edtf:inception":"uuuu",
    "geom:area":0.0,
    "geom:bbox":"-78.167219,42.99526,-78.167219,42.99526",
    "geom:latitude":42.99526,
    "geom:longitude":-78.167219,
    "iso:country":"US",
    "sg:address":"564 E Main St",
    "sg:city":"Batavia",
    "sg:classifiers":[
        {
            "category":"Wholesale",
            "subcategory":"Auto Parts",
            "type":"Manufacturing & Wholesale Goods"
        }
    ],
    "sg:owner":"simplegeo",
    "sg:phone":"+1 585 343 0544",
    "sg:postcode":"14020",
    "sg:province":"NY",
    "sg:tags":[
        "supply"
    ],
    "src:geom":"simplegeo",
    "wof:belongsto":[],
    "wof:breaches":[],
    "wof:concordances":{
        "sg:id":"SG_64DyJvJZhmqBXdUOQPuIHC_42.995260_-78.167219@1294177022"
    },
    "wof:country":"US",
    "wof:geomhash":"3d0fc50657740af39b4d34f191bbadbc",
    "wof:hierarchy":[],
    "wof:id":555630907,
    "wof:lastmodified":1461034224,
    "wof:name":"Utz Parmater Tire & Auto Svc",
    "wof:parent_id":420528713,
    "wof:placetype":"venue",
    "wof:superseded_by":[],
    "wof:supersedes":[],
    "wof:tags":[
        "supply"
    ]
},
  "bbox": [
    -78.167219,
    42.99526,
    -78.167219,
    42.99526
],
  "geometry": {"coordinates":[-78.167219,42.99526],"type":"Point"}
}