{
  "id": 572117547,
  "type": "Feature",
  "properties": {
    "edtf:cessation":"uuuu",
    "edtf:inception":"uuuu",
    "geom:area":0.0,
    "geom:bbox":"-73.703376,40.779792,-73.703376,40.779792",
    "geom:latitude":40.779792,
    "geom:longitude":-73.703376,
    "iso:country":"US",
    "sg:address":"400 Community Dr",
    "sg:city":"Manhasset",
    "sg:classifiers":[
        {
            "category":"Health Services",
            "subcategory":"Hospital",
            "type":"Services"
        }
    ],
    "sg:owner":"simplegeo",
    "sg:phone":"+1 516 562 3054",
    "sg:postcode":"11030",
    "sg:province":"NY",
    "src:geom":"simplegeo",
    "wof:belongsto":[],
    "wof:breaches":[],
    "wof:concordances":{
        "sg:id":"SG_2I3b7hlW2Mf9XWf1OV2uH7_40.779792_-73.703376@1303262331"
    },
    "wof:country":"US",
    "wof:geomhash":"d70282fb4bd39b4a1563aab62366571a",
    "wof:hierarchy":[],
    "wof:id":572117547,
    "wof:lastmodified":1461050343,
    "wof:name":"North Shore University Hospital",
    "wof:parent_id":-1,
    "wof:placetype":"venue",
    "wof:superseded_by":[],
    "wof:supersedes":[],
    "wof:tags":[]
},
  "bbox": [
    -73.703376,
    40.779792,
    -73.703376,
    40.779792
],
  "geometry": {"coordinates":[-73.70337600000001,40.779792],"type":"Point"}
}