{
  "id": 554935529,
  "type": "Feature",
  "properties": {
    "edtf:cessation":"uuuu",
    "edtf:inception":"uuuu",
    "geom:area":0.0,
    "geom:bbox":"-73.491945,41.148853,-73.491945,41.148853",
    "geom:latitude":41.148853,
    "geom:longitude":-73.491945,
    "iso:country":"US",
    "sg:address":"7 Forest St",
    "sg:city":"New Canaan",
    "sg:classifiers":[
        {
            "category":"Home & Garden",
            "subcategory":"Carpets & Floor Coverings",
            "type":"Retail Goods"
        }
    ],
    "sg:owner":"simplegeo",
    "sg:phone":"+1 203 972 1122",
    "sg:postcode":"06840",
    "sg:province":"NY",
    "sg:tags":[
        "rug",
        "oriental",
        "furnishing",
        "fine",
        "dealer",
        "furniture"
    ],
    "sg:website":"www.rugauthority.com",
    "src:geom":"simplegeo",
    "wof:belongsto":[
        85688629,
        85633793,
        85851779,
        102084283
    ],
    "wof:breaches":[],
    "wof:concordances":{
        "sg:id":"SG_6mZYdm4mEAgvGR9ANyKbJc_41.148853_-73.491945@1294177022"
    },
    "wof:country":"US",
    "wof:geomhash":"1392385ddfeb01375a8dca553c79f28a",
    "wof:hierarchy":[
        {
            "country_id":85633793,
            "county_id":102084283,
            "neighbourhood_id":85851779,
            "region_id":85688629,
            "venue_id":554935529
        }
    ],
    "wof:id":554935529,
    "wof:lastmodified":1461017084,
    "wof:name":"Amatulli & Sons LLC",
    "wof:parent_id":85851779,
    "wof:placetype":"venue",
    "wof:superseded_by":[],
    "wof:supersedes":[],
    "wof:tags":[
        "rug",
        "oriental",
        "furnishing",
        "fine",
        "dealer",
        "furniture"
    ]
},
  "bbox": [
    -73.491945,
    41.148853,
    -73.491945,
    41.148853
],
  "geometry": {"coordinates":[-73.491945,41.148853],"type":"Point"}
}