{
  "id": 554935585,
  "type": "Feature",
  "properties": {
    "edtf:cessation":"uuuu",
    "edtf:inception":"uuuu",
    "geom:area":0.0,
    "geom:bbox":"-73.488507,41.133034,-73.488507,41.133034",
    "geom:latitude":41.133034,
    "geom:longitude":-73.488507,
    "iso:country":"US",
    "sg:address":"53 Crystal St",
    "sg:city":"New Canaan",
    "sg:classifiers":[
        {
            "category":"Retail",
            "subcategory":"Repair Shop",
            "type":"Services"
        }
    ],
    "sg:owner":"simplegeo",
    "sg:phone":"+1 203 972 3857",
    "sg:postcode":"06840",
    "sg:province":"NY",
    "sg:tags":[
        "lock",
        "locksmith"
    ],
    "src:geom":"simplegeo",
    "wof:belongsto":[
        85688629,
        85633793,
        85851779,
        102084283
    ],
    "wof:breaches":[],
    "wof:concordances":{
        "sg:id":"SG_4VEpDqn57twnsaWRhV1lOn_41.133034_-73.488507@1294177022"
    },
    "wof:country":"US",
    "wof:geomhash":"9ebcbb493c0224065248f0e46304af1a",
    "wof:hierarchy":[
        {
            "country_id":85633793,
            "county_id":102084283,
            "neighbourhood_id":85851779,
            "region_id":85688629,
            "venue_id":554935585
        }
    ],
    "wof:id":554935585,
    "wof:lastmodified":1461017092,
    "wof:name":"Keyman Mobile Locksmith Svc",
    "wof:parent_id":85851779,
    "wof:placetype":"venue",
    "wof:superseded_by":[],
    "wof:supersedes":[],
    "wof:tags":[
        "lock",
        "locksmith"
    ]
},
  "bbox": [
    -73.488507,
    41.133034,
    -73.488507,
    41.133034
],
  "geometry": {"coordinates":[-73.488507,41.133034],"type":"Point"}
}