{
  "id": 554938575,
  "type": "Feature",
  "properties": {
    "edtf:cessation":"uuuu",
    "edtf:inception":"uuuu",
    "geom:area":0.0,
    "geom:bbox":"-73.650118,41.017146,-73.650118,41.017146",
    "geom:latitude":41.017146,
    "geom:longitude":-73.650118,
    "iso:country":"US",
    "sg:address":"5 Weaver St",
    "sg:city":"Greenwich",
    "sg:classifiers":[
        {
            "category":"Real Estate",
            "subcategory":"Architect",
            "type":"Services"
        }
    ],
    "sg:owner":"simplegeo",
    "sg:phone":"+1 203 531 8276",
    "sg:postcode":"06831",
    "sg:province":"NY",
    "src:geom":"simplegeo",
    "wof:belongsto":[
        85885307,
        102191575,
        404495949,
        85633793,
        85930941,
        102084283,
        85688629,
        420555461,
        85930937
    ],
    "wof:breaches":[],
    "wof:concordances":{
        "sg:id":"SG_47kv3TVAPcvw7Qyf8nGowE_41.017146_-73.650118@1294177022"
    },
    "wof:country":"US",
    "wof:geomhash":"0b986fa7baaff191f8ab9d494285afbf",
    "wof:hierarchy":[
        {
            "continent_id":102191575,
            "country_id":85633793,
            "county_id":102084283,
            "localadmin_id":404495949,
            "locality_id":85930941,
            "neighbourhood_id":85885307,
            "region_id":85688629,
            "venue_id":554938575
        },
        {
            "continent_id":102191575,
            "country_id":85633793,
            "county_id":102084283,
            "localadmin_id":404495949,
            "locality_id":85930937,
            "neighbourhood_id":420555461,
            "region_id":85688629,
            "venue_id":554938575
        }
    ],
    "wof:id":554938575,
    "wof:lastmodified":1461017488,
    "wof:name":"Tony Kastor",
    "wof:parent_id":-1,
    "wof:placetype":"venue",
    "wof:superseded_by":[],
    "wof:supersedes":[],
    "wof:tags":[]
},
  "bbox": [
    -73.650118,
    41.017146,
    -73.650118,
    41.017146
],
  "geometry": {"coordinates":[-73.65011800000001,41.017146],"type":"Point"}
}