{
  "id": 554937765,
  "type": "Feature",
  "properties": {
    "edtf:cessation":"uuuu",
    "edtf:inception":"uuuu",
    "geom:area":0.0,
    "geom:bbox":"-73.483581,41.149179,-73.483581,41.149179",
    "geom:latitude":41.149179,
    "geom:longitude":-73.483581,
    "iso:country":"US",
    "sg:address":"289 New Norwalk Rd",
    "sg:city":"New Canaan",
    "sg:classifiers":[
        {
            "category":"Real Estate",
            "subcategory":"Architect",
            "type":"Services"
        }
    ],
    "sg:owner":"simplegeo",
    "sg:phone":"+1   ",
    "sg:postcode":"06840",
    "sg:province":"NY",
    "sg:tags":[
        "architectural"
    ],
    "src:geom":"simplegeo",
    "wof:belongsto":[
        85688629,
        85633793,
        85851779,
        102084283
    ],
    "wof:breaches":[],
    "wof:concordances":{
        "sg:id":"SG_3HvoOsGP9hi6yqxyd07eu1_41.149179_-73.483581@1294177022"
    },
    "wof:country":"US",
    "wof:geomhash":"c0d563f665d059be66269ab1d78bf920",
    "wof:hierarchy":[
        {
            "country_id":85633793,
            "county_id":102084283,
            "neighbourhood_id":85851779,
            "region_id":85688629,
            "venue_id":554937765
        }
    ],
    "wof:id":554937765,
    "wof:lastmodified":1461017417,
    "wof:name":"Bowmann Fielding Laia Archt",
    "wof:parent_id":85851779,
    "wof:placetype":"venue",
    "wof:superseded_by":[],
    "wof:supersedes":[],
    "wof:tags":[
        "architectural"
    ]
},
  "bbox": [
    -73.483581,
    41.149179,
    -73.483581,
    41.149179
],
  "geometry": {"coordinates":[-73.483581,41.149179],"type":"Point"}
}