{
  "id": 554937753,
  "type": "Feature",
  "properties": {
    "edtf:cessation":"uuuu",
    "edtf:inception":"uuuu",
    "geom:area":0.0,
    "geom:bbox":"-73.489858,41.132529,-73.489858,41.132529",
    "geom:latitude":41.132529,
    "geom:longitude":-73.489858,
    "iso:country":"US",
    "sg:address":"15 Crystal St",
    "sg:city":"New Canaan",
    "sg:classifiers":[
        {
            "category":"Professional",
            "subcategory":"Computer Services",
            "type":"Services"
        }
    ],
    "sg:owner":"simplegeo",
    "sg:phone":"+1   ",
    "sg:postcode":"06840",
    "sg:province":"NY",
    "sg:tags":[
        "prepackaged",
        "software"
    ],
    "src:geom":"simplegeo",
    "wof:belongsto":[
        85688629,
        85633793,
        85851779,
        102084283
    ],
    "wof:breaches":[],
    "wof:concordances":{
        "sg:id":"SG_3jpBABdzC0AzU8vkapvNmb_41.132529_-73.489858@1294177022"
    },
    "wof:country":"US",
    "wof:geomhash":"ee587be09330aad94ea2bdced5279e57",
    "wof:hierarchy":[
        {
            "country_id":85633793,
            "county_id":102084283,
            "neighbourhood_id":85851779,
            "region_id":85688629,
            "venue_id":554937753
        }
    ],
    "wof:id":554937753,
    "wof:lastmodified":1461017415,
    "wof:name":"Evolutnary Prttyping Mthdlgsts",
    "wof:parent_id":85851779,
    "wof:placetype":"venue",
    "wof:superseded_by":[],
    "wof:supersedes":[],
    "wof:tags":[
        "prepackaged",
        "software"
    ]
},
  "bbox": [
    -73.489858,
    41.132529,
    -73.489858,
    41.132529
],
  "geometry": {"coordinates":[-73.489858,41.132529],"type":"Point"}
}