{
  "id": 554934655,
  "type": "Feature",
  "properties": {
    "edtf:cessation":"uuuu",
    "edtf:inception":"uuuu",
    "geom:area":0.0,
    "geom:bbox":"-73.475504,41.131093,-73.475504,41.131093",
    "geom:latitude":41.131093,
    "geom:longitude":-73.475504,
    "iso:country":"US",
    "sg:address":"23 Green Meadow Ln",
    "sg:city":"New Canaan",
    "sg:classifiers":[
        {
            "category":"Professional",
            "subcategory":"Engineering",
            "type":"Services"
        }
    ],
    "sg:owner":"simplegeo",
    "sg:phone":"+1   ",
    "sg:postcode":"06840",
    "sg:province":"NY",
    "sg:tags":[
        "marketing",
        "consulting"
    ],
    "src:geom":"simplegeo",
    "wof:belongsto":[
        85688629,
        85633793,
        85851779,
        102084283
    ],
    "wof:breaches":[],
    "wof:concordances":{
        "sg:id":"SG_3cqZyTVztxntZpSiRIH27H_41.131093_-73.475504@1294177022"
    },
    "wof:country":"US",
    "wof:geomhash":"8757a82c443c1a4e58a148eff29df4f3",
    "wof:hierarchy":[
        {
            "country_id":85633793,
            "county_id":102084283,
            "neighbourhood_id":85851779,
            "region_id":85688629,
            "venue_id":554934655
        }
    ],
    "wof:id":554934655,
    "wof:lastmodified":1461016968,
    "wof:name":"Portel Inc",
    "wof:parent_id":85851779,
    "wof:placetype":"venue",
    "wof:superseded_by":[],
    "wof:supersedes":[],
    "wof:tags":[
        "marketing",
        "consulting"
    ]
},
  "bbox": [
    -73.475504,
    41.131093,
    -73.475504,
    41.131093
],
  "geometry": {"coordinates":[-73.475504,41.131093],"type":"Point"}
}