{
  "id": 555734165,
  "type": "Feature",
  "properties": {
    "edtf:cessation":"uuuu",
    "edtf:inception":"uuuu",
    "geom:area":0.0,
    "geom:bbox":"-73.854569,40.898146,-73.854569,40.898146",
    "geom:latitude":40.898146,
    "geom:longitude":-73.854569,
    "iso:country":"US",
    "sg:address":"4369 White Plains Rd",
    "sg:city":"Bronx",
    "sg:classifiers":[
        {
            "category":"Food & Beverages",
            "subcategory":"Fruits & Vegetables",
            "type":"Retail Goods"
        }
    ],
    "sg:owner":"simplegeo",
    "sg:phone":"+1 718 994 1352",
    "sg:postcode":"10466",
    "sg:province":"NY",
    "sg:tags":[
        "produce"
    ],
    "src:geom":"simplegeo",
    "wof:belongsto":[],
    "wof:breaches":[],
    "wof:concordances":{
        "sg:id":"SG_23mqBaMlAdUhSC33bVNmJG_40.898146_-73.854569@1294177022"
    },
    "wof:country":"US",
    "wof:geomhash":"395da858f2116cc24b2c60b8cc9c481f",
    "wof:hierarchy":[],
    "wof:id":555734165,
    "wof:lastmodified":1461036359,
    "wof:name":"Sweet Farms",
    "wof:parent_id":-1,
    "wof:placetype":"venue",
    "wof:superseded_by":[],
    "wof:supersedes":[],
    "wof:tags":[
        "produce"
    ]
},
  "bbox": [
    -73.854569,
    40.898146,
    -73.854569,
    40.898146
],
  "geometry": {"coordinates":[-73.854569,40.898146],"type":"Point"}
}