{
  "id": 555679351,
  "type": "Feature",
  "properties": {
    "edtf:cessation":"uuuu",
    "edtf:inception":"uuuu",
    "geom:area":0.0,
    "geom:bbox":"-75.110731,42.447817,-75.110731,42.447817",
    "geom:latitude":42.447817,
    "geom:longitude":-75.110731,
    "iso:country":"US",
    "sg:address":"58 Browne St",
    "sg:city":"Oneonta",
    "sg:classifiers":[
        {
            "category":"Manufacturing",
            "subcategory":"Paper Products",
            "type":"Manufacturing & Wholesale Goods"
        }
    ],
    "sg:owner":"simplegeo",
    "sg:phone":"+1 607 433 2510",
    "sg:postcode":"13820",
    "sg:province":"NY",
    "sg:tags":[
        "box",
        "folding",
        "fiber",
        "paperboard",
        "mfg"
    ],
    "src:geom":"simplegeo",
    "wof:belongsto":[],
    "wof:breaches":[],
    "wof:concordances":{
        "sg:id":"SG_5PXIESroaTAEiZGYkDyQ3r_42.447817_-75.110731@1294177022"
    },
    "wof:country":"US",
    "wof:geomhash":"17b35ba6df9e5a33a9a101392e30c7f7",
    "wof:hierarchy":[],
    "wof:id":555679351,
    "wof:lastmodified":1461035229,
    "wof:name":"Burt Rigid Box Inc",
    "wof:parent_id":420529627,
    "wof:placetype":"venue",
    "wof:superseded_by":[],
    "wof:supersedes":[],
    "wof:tags":[
        "box",
        "folding",
        "fiber",
        "paperboard",
        "mfg"
    ]
},
  "bbox": [
    -75.110731,
    42.447817,
    -75.110731,
    42.447817
],
  "geometry": {"coordinates":[-75.110731,42.447817],"type":"Point"}
}