{
  "id": 554934351,
  "type": "Feature",
  "properties": {
    "edtf:cessation":"uuuu",
    "edtf:inception":"uuuu",
    "geom:area":0.0,
    "geom:bbox":"-77.313303,41.987991,-77.313303,41.987991",
    "geom:latitude":41.987991,
    "geom:longitude":-77.313303,
    "iso:country":"US",
    "sg:address":"105 Parkhurst St",
    "sg:city":"Elkland",
    "sg:classifiers":[
        {
            "category":"Government",
            "subcategory":"Police Station",
            "type":"Public Place"
        }
    ],
    "sg:owner":"simplegeo",
    "sg:phone":"+1 814 258 5419",
    "sg:postcode":"16920",
    "sg:province":"NY",
    "sg:tags":[
        "department"
    ],
    "src:geom":"simplegeo",
    "wof:belongsto":[
        85688481,
        85633793,
        101717081,
        102080937,
        85807903
    ],
    "wof:breaches":[],
    "wof:concordances":{
        "sg:id":"SG_5Lo1UhbGghxVrezwLEFJnr_41.987991_-77.313303@1294177022"
    },
    "wof:country":"US",
    "wof:geomhash":"731539098ce0e0fb6e02b7929bfaca1f",
    "wof:hierarchy":[
        {
            "country_id":85633793,
            "county_id":102080937,
            "locality_id":101717081,
            "neighbourhood_id":85807903,
            "region_id":85688481,
            "venue_id":554934351
        }
    ],
    "wof:id":554934351,
    "wof:lastmodified":1461016929,
    "wof:name":"Elkland Police Dept",
    "wof:parent_id":85807903,
    "wof:placetype":"venue",
    "wof:superseded_by":[],
    "wof:supersedes":[],
    "wof:tags":[
        "department"
    ]
},
  "bbox": [
    -77.313303,
    41.987991,
    -77.313303,
    41.987991
],
  "geometry": {"coordinates":[-77.313303,41.987991],"type":"Point"}
}