{
  "id": 554937241,
  "type": "Feature",
  "properties": {
    "edtf:cessation":"uuuu",
    "edtf:inception":"uuuu",
    "geom:area":0.0,
    "geom:bbox":"-73.49267,41.148747,-73.49267,41.148747",
    "geom:latitude":41.148747,
    "geom:longitude":-73.49267,
    "iso:country":"US",
    "sg:address":"15 Locust Ave",
    "sg:city":"New Canaan",
    "sg:classifiers":[
        {
            "category":"Personal",
            "subcategory":"Beauty Salon",
            "type":"Services"
        }
    ],
    "sg:owner":"simplegeo",
    "sg:phone":"+1 203 972 2869",
    "sg:postcode":"06840",
    "sg:province":"NY",
    "sg:tags":[
        "manicuring"
    ],
    "src:geom":"simplegeo",
    "wof:belongsto":[
        85688629,
        85633793,
        85851779,
        102084283
    ],
    "wof:breaches":[],
    "wof:concordances":{
        "sg:id":"SG_3F2aP3MI3lwuG26jwvV10B_41.148747_-73.492670@1294177022"
    },
    "wof:country":"US",
    "wof:geomhash":"86c0b51f6715af33cc2ce5335c0b0cd6",
    "wof:hierarchy":[
        {
            "country_id":85633793,
            "county_id":102084283,
            "neighbourhood_id":85851779,
            "region_id":85688629,
            "venue_id":554937241
        }
    ],
    "wof:id":554937241,
    "wof:lastmodified":1461017340,
    "wof:name":"Aqua Beauty",
    "wof:parent_id":85851779,
    "wof:placetype":"venue",
    "wof:superseded_by":[],
    "wof:supersedes":[],
    "wof:tags":[
        "manicuring"
    ]
},
  "bbox": [
    -73.49267,
    41.148747,
    -73.49267,
    41.148747
],
  "geometry": {"coordinates":[-73.49267,41.148747],"type":"Point"}
}