{
  "id": 554935525,
  "type": "Feature",
  "properties": {
    "edtf:cessation":"uuuu",
    "edtf:inception":"uuuu",
    "geom:area":0.0,
    "geom:bbox":"-73.4798,41.160076,-73.4798,41.160076",
    "geom:latitude":41.160076,
    "geom:longitude":-73.4798,
    "iso:country":"US",
    "sg:address":"388 Brushy Ridge Rd",
    "sg:city":"New Canaan",
    "sg:classifiers":[
        {
            "category":"Professional",
            "subcategory":"Art Services",
            "type":"Services"
        }
    ],
    "sg:owner":"simplegeo",
    "sg:phone":"+1   ",
    "sg:postcode":"06840",
    "sg:province":"NY",
    "sg:tags":[
        "commercial",
        "design"
    ],
    "src:geom":"simplegeo",
    "wof:belongsto":[],
    "wof:breaches":[],
    "wof:concordances":{
        "sg:id":"SG_7aLyBhqBswtq92N2H7rvJ2_41.160076_-73.479800@1294177022"
    },
    "wof:country":"US",
    "wof:geomhash":"bde5856c1dd360899d29a0a3eaa6ac1f",
    "wof:hierarchy":[],
    "wof:id":554935525,
    "wof:lastmodified":1461017084,
    "wof:name":"Constance Old",
    "wof:parent_id":-1,
    "wof:placetype":"venue",
    "wof:superseded_by":[],
    "wof:supersedes":[],
    "wof:tags":[
        "commercial",
        "design"
    ]
},
  "bbox": [
    -73.4798,
    41.160076,
    -73.4798,
    41.160076
],
  "geometry": {"coordinates":[-73.4798,41.160076],"type":"Point"}
}