{
  "id": 554935753,
  "type": "Feature",
  "properties": {
    "edtf:cessation":"uuuu",
    "edtf:inception":"uuuu",
    "geom:area":0.0,
    "geom:bbox":"-73.475302,41.127394,-73.475302,41.127394",
    "geom:latitude":41.127394,
    "geom:longitude":-73.475302,
    "iso:country":"US",
    "sg:address":"51 Horton Ln",
    "sg:city":"New Canaan",
    "sg:classifiers":[
        {
            "category":"Professional",
            "subcategory":"Business Services",
            "type":"Services"
        }
    ],
    "sg:owner":"simplegeo",
    "sg:phone":"+1   ",
    "sg:postcode":"06840",
    "sg:province":"NY",
    "src:geom":"simplegeo",
    "wof:belongsto":[
        85688629,
        85633793,
        85851779,
        102084283
    ],
    "wof:breaches":[],
    "wof:concordances":{
        "sg:id":"SG_6sEpp4Q3UgAtSGtivcnsFz_41.127394_-73.475302@1294177022"
    },
    "wof:country":"US",
    "wof:geomhash":"06c8a1420b2425f7fcb65aa02a952d94",
    "wof:hierarchy":[
        {
            "country_id":85633793,
            "county_id":102084283,
            "neighbourhood_id":85851779,
            "region_id":85688629,
            "venue_id":554935753
        }
    ],
    "wof:id":554935753,
    "wof:lastmodified":1461017115,
    "wof:name":"Swan Group LLC",
    "wof:parent_id":85851779,
    "wof:placetype":"venue",
    "wof:superseded_by":[],
    "wof:supersedes":[],
    "wof:tags":[]
},
  "bbox": [
    -73.475302,
    41.127394,
    -73.475302,
    41.127394
],
  "geometry": {"coordinates":[-73.475302,41.127394],"type":"Point"}
}