{
  "id": 572171331,
  "type": "Feature",
  "properties": {
    "edtf:cessation":"uuuu",
    "edtf:inception":"uuuu",
    "geom:area":0.0,
    "geom:bbox":"-74.279213,40.607732,-74.279213,40.607732",
    "geom:latitude":40.607732,
    "geom:longitude":-74.279213,
    "iso:country":"US",
    "sg:address":"1510 Bath Ave",
    "sg:city":"Brooklyn",
    "sg:classifiers":[
        {
            "category":"Education",
            "subcategory":"Music School",
            "type":"Public Place"
        }
    ],
    "sg:owner":"simplegeo",
    "sg:phone":"+1 718 232 6436",
    "sg:postcode":"11228",
    "sg:province":"NY",
    "sg:tags":[
        "instrument",
        "teacher",
        "musical"
    ],
    "src:geom":"simplegeo",
    "wof:belongsto":[],
    "wof:breaches":[],
    "wof:concordances":{
        "sg:id":"SG_1Uk3sHgI3GW0B0O96rdqeY_40.607732_-74.279213@1303262347"
    },
    "wof:country":"US",
    "wof:geomhash":"7efdd4fbb62d015c851cc5ce92cfbe48",
    "wof:hierarchy":[],
    "wof:id":572171331,
    "wof:lastmodified":1461051452,
    "wof:name":"CMC Distributors Inc",
    "wof:parent_id":-1,
    "wof:placetype":"venue",
    "wof:superseded_by":[],
    "wof:supersedes":[],
    "wof:tags":[
        "instrument",
        "teacher",
        "musical"
    ]
},
  "bbox": [
    -74.279213,
    40.607732,
    -74.279213,
    40.607732
],
  "geometry": {"coordinates":[-74.279213,40.607732],"type":"Point"}
}