{
  "id": 554940821,
  "type": "Feature",
  "properties": {
    "edtf:cessation":"uuuu",
    "edtf:inception":"uuuu",
    "geom:area":0.0,
    "geom:bbox":"-73.66502,41.026209,-73.66502,41.026209",
    "geom:latitude":41.026209,
    "geom:longitude":-73.66502,
    "iso:country":"US",
    "sg:address":"7 Greenwich Hills Dr",
    "sg:city":"Greenwich",
    "sg:classifiers":[
        {
            "category":"Insurance",
            "subcategory":"Hazard Insurance",
            "type":"Services"
        }
    ],
    "sg:owner":"simplegeo",
    "sg:phone":"+1 203 618 3200",
    "sg:postcode":"06831",
    "sg:province":"NY",
    "sg:tags":[
        "underwriter",
        "reinsurance",
        "property",
        "casualty"
    ],
    "src:geom":"simplegeo",
    "wof:belongsto":[
        420555461,
        102191575,
        404495949,
        85633793,
        85930937,
        102084283,
        85688629
    ],
    "wof:breaches":[],
    "wof:concordances":{
        "sg:id":"SG_24tifqvKtvMpcHlfhRLLQ9_41.026209_-73.665020@1294177022"
    },
    "wof:country":"US",
    "wof:geomhash":"4d466ca4b87a1ff31aa136970abb4c88",
    "wof:hierarchy":[
        {
            "continent_id":102191575,
            "country_id":85633793,
            "county_id":102084283,
            "localadmin_id":404495949,
            "locality_id":85930937,
            "neighbourhood_id":420555461,
            "region_id":85688629,
            "venue_id":554940821
        }
    ],
    "wof:id":554940821,
    "wof:lastmodified":1461017681,
    "wof:name":"Folksamerica Holding Company",
    "wof:parent_id":420555461,
    "wof:placetype":"venue",
    "wof:superseded_by":[],
    "wof:supersedes":[],
    "wof:tags":[
        "underwriter",
        "reinsurance",
        "property",
        "casualty"
    ]
},
  "bbox": [
    -73.66502,
    41.026209,
    -73.66502,
    41.026209
],
  "geometry": {"coordinates":[-73.66502,41.026209],"type":"Point"}
}