{
  "id": 555132859,
  "type": "Feature",
  "properties": {
    "edtf:cessation":"uuuu",
    "edtf:inception":"uuuu",
    "geom:area":0.0,
    "geom:bbox":"-78.657628,42.619017,-78.657628,42.619017",
    "geom:latitude":42.619017,
    "geom:longitude":-78.657628,
    "iso:country":"US",
    "sg:address":"9452 State Rd",
    "sg:city":"Glenwood",
    "sg:classifiers":[
        {
            "category":"Shopping",
            "subcategory":"Bicycles & Sporting Goods",
            "type":"Retail Goods"
        }
    ],
    "sg:owner":"simplegeo",
    "sg:phone":"+1 716 941 5548",
    "sg:postcode":"14069",
    "sg:province":"NY",
    "sg:tags":[
        "equipment",
        "skiing"
    ],
    "src:geom":"simplegeo",
    "wof:belongsto":[],
    "wof:breaches":[],
    "wof:concordances":{
        "sg:id":"SG_4BQ0nlCBE0Fes2s9ANtwpU_42.619017_-78.657628@1294177022"
    },
    "wof:country":"US",
    "wof:geomhash":"aaedf6530f1009f7bb68791e26785699",
    "wof:hierarchy":[],
    "wof:id":555132859,
    "wof:lastmodified":1461022761,
    "wof:name":"Glenwood Depot Ltd",
    "wof:parent_id":-1,
    "wof:placetype":"venue",
    "wof:superseded_by":[],
    "wof:supersedes":[],
    "wof:tags":[
        "equipment",
        "skiing"
    ]
},
  "bbox": [
    -78.657628,
    42.619017,
    -78.657628,
    42.619017
],
  "geometry": {"coordinates":[-78.657628,42.619017],"type":"Point"}
}