{
  "id": 555042469,
  "type": "Feature",
  "properties": {
    "edtf:cessation":"uuuu",
    "edtf:inception":"uuuu",
    "geom:area":0.0,
    "geom:bbox":"-73.523858,40.854104,-73.523858,40.854104",
    "geom:latitude":40.854104,
    "geom:longitude":-73.523858,
    "iso:country":"US",
    "sg:address":"14 Huckleberry Ln",
    "sg:city":"Oyster Bay",
    "sg:classifiers":[
        {
            "category":"Taxi",
            "subcategory":"",
            "type":"Transportation"
        }
    ],
    "sg:owner":"simplegeo",
    "sg:phone":"+1 631 905 0999",
    "sg:postcode":"11771",
    "sg:province":"NY",
    "sg:tags":[
        "taxicab"
    ],
    "src:geom":"simplegeo",
    "wof:belongsto":[],
    "wof:breaches":[],
    "wof:concordances":{
        "sg:id":"SG_6j9csl2lLJLv9YMLjorqn8_40.854104_-73.523858@1294177022"
    },
    "wof:country":"US",
    "wof:geomhash":"062eb48483b8d145e5cc22e07ed72f27",
    "wof:hierarchy":[],
    "wof:id":555042469,
    "wof:lastmodified":1461020446,
    "wof:name":"Day & Night Taxi",
    "wof:parent_id":-1,
    "wof:placetype":"venue",
    "wof:superseded_by":[],
    "wof:supersedes":[],
    "wof:tags":[
        "taxicab"
    ]
},
  "bbox": [
    -73.523858,
    40.854104,
    -73.523858,
    40.854104
],
  "geometry": {"coordinates":[-73.523858,40.854104],"type":"Point"}
}