{
  "id": 554935619,
  "type": "Feature",
  "properties": {
    "edtf:cessation":"uuuu",
    "edtf:inception":"uuuu",
    "geom:area":0.0,
    "geom:bbox":"-73.497489,41.144314,-73.497489,41.144314",
    "geom:latitude":41.144314,
    "geom:longitude":-73.497489,
    "iso:country":"US",
    "sg:address":"24 Pine St",
    "sg:city":"New Canaan",
    "sg:classifiers":[
        {
            "category":"Taxi",
            "subcategory":"",
            "type":"Transportation"
        }
    ],
    "sg:owner":"simplegeo",
    "sg:phone":"+1 203 972 3888",
    "sg:postcode":"06840",
    "sg:province":"NY",
    "sg:tags":[
        "taxicab"
    ],
    "src:geom":"simplegeo",
    "wof:belongsto":[
        85688629,
        85633793,
        85851779,
        102084283
    ],
    "wof:breaches":[],
    "wof:concordances":{
        "sg:id":"SG_7khQnVtvp1nCLTydmazraL_41.144314_-73.497489@1294177022"
    },
    "wof:country":"US",
    "wof:geomhash":"0bb67491e5782fe02420a693134a00df",
    "wof:hierarchy":[
        {
            "country_id":85633793,
            "county_id":102084283,
            "neighbourhood_id":85851779,
            "region_id":85688629,
            "venue_id":554935619
        }
    ],
    "wof:id":554935619,
    "wof:lastmodified":1461017097,
    "wof:name":"A 1 Taxi",
    "wof:parent_id":85851779,
    "wof:placetype":"venue",
    "wof:superseded_by":[],
    "wof:supersedes":[],
    "wof:tags":[
        "taxicab"
    ]
},
  "bbox": [
    -73.497489,
    41.144314,
    -73.497489,
    41.144314
],
  "geometry": {"coordinates":[-73.497489,41.144314],"type":"Point"}
}