{
  "id": 571607455,
  "type": "Feature",
  "properties": {
    "edtf:cessation":"uuuu",
    "edtf:inception":"uuuu",
    "geom:area":0.0,
    "geom:bbox":"-73.577566,40.7486,-73.577566,40.7486",
    "geom:latitude":40.7486,
    "geom:longitude":-73.577566,
    "iso:country":"US",
    "sg:address":"948 Linden Ave",
    "sg:city":"Westbury",
    "sg:classifiers":[
        {
            "category":"Building & Trades",
            "subcategory":"Landscaping Services",
            "type":"Services"
        }
    ],
    "sg:owner":"simplegeo",
    "sg:phone":"+1 516 333 7827",
    "sg:postcode":"11590",
    "sg:province":"NY",
    "sg:tags":[
        "landscape",
        "contractor"
    ],
    "src:geom":"simplegeo",
    "wof:belongsto":[
        85846785,
        102191575,
        404521473,
        85633793,
        85979181,
        102082371,
        85688543
    ],
    "wof:breaches":[],
    "wof:concordances":{
        "sg:id":"SG_2RM0xslzoRmlw3d7oIvCap_40.749038_-73.577711@1293134755"
    },
    "wof:country":"US",
    "wof:geomhash":"1b43d91c47542b77eba8e3c05eb6c71e",
    "wof:hierarchy":[
        {
            "continent_id":102191575,
            "country_id":85633793,
            "county_id":102082371,
            "localadmin_id":404521473,
            "locality_id":85979181,
            "neighbourhood_id":85846785,
            "region_id":85688543,
            "venue_id":571607455
        }
    ],
    "wof:id":571607455,
    "wof:lastmodified":1461039594,
    "wof:name":"Anel Landscaping Inc",
    "wof:parent_id":85846785,
    "wof:placetype":"venue",
    "wof:superseded_by":[],
    "wof:supersedes":[],
    "wof:tags":[
        "landscape",
        "contractor"
    ]
},
  "bbox": [
    -73.577566,
    40.7486,
    -73.577566,
    40.7486
],
  "geometry": {"coordinates":[-73.577566,40.7486],"type":"Point"}
}