{
  "id": 555662521,
  "type": "Feature",
  "properties": {
    "edtf:cessation":"uuuu",
    "edtf:inception":"uuuu",
    "geom:area":0.0,
    "geom:bbox":"-75.243336,42.995713,-75.243336,42.995713",
    "geom:latitude":42.995713,
    "geom:longitude":-75.243336,
    "iso:country":"US",
    "sg:address":"2694 Church Rd",
    "sg:city":"Sauquoit",
    "sg:classifiers":[
        {
            "category":"Manufacturing",
            "subcategory":"Signs",
            "type":"Manufacturing & Wholesale Goods"
        }
    ],
    "sg:owner":"simplegeo",
    "sg:phone":"+1   ",
    "sg:postcode":"13456",
    "sg:province":"NY",
    "sg:tags":[
        "specialty",
        "mfg"
    ],
    "src:geom":"simplegeo",
    "wof:belongsto":[],
    "wof:breaches":[],
    "wof:concordances":{
        "sg:id":"SG_2XsflVQsK3rds0eK3xJxlt_42.995713_-75.243336@1294177022"
    },
    "wof:country":"US",
    "wof:geomhash":"a84bb69d5fa01a6e3ee3121f79f8d095",
    "wof:hierarchy":[],
    "wof:id":555662521,
    "wof:lastmodified":1461034871,
    "wof:name":"Lem Art Studio",
    "wof:parent_id":420529273,
    "wof:placetype":"venue",
    "wof:superseded_by":[],
    "wof:supersedes":[],
    "wof:tags":[
        "specialty",
        "mfg"
    ]
},
  "bbox": [
    -75.243336,
    42.995713,
    -75.243336,
    42.995713
],
  "geometry": {"coordinates":[-75.243336,42.995713],"type":"Point"}
}