{
  "id": 554941393,
  "type": "Feature",
  "properties": {
    "edtf:cessation":"uuuu",
    "edtf:inception":"uuuu",
    "geom:area":0.0,
    "geom:bbox":"-73.701234,41.066753,-73.701234,41.066753",
    "geom:latitude":41.066753,
    "geom:longitude":-73.701234,
    "iso:country":"US",
    "sg:address":"2 Hangar Rd",
    "sg:city":"White Plains",
    "sg:classifiers":[
        {
            "category":"Airport",
            "subcategory":"",
            "type":"Transportation"
        }
    ],
    "sg:owner":"simplegeo",
    "sg:phone":"+1   ",
    "sg:postcode":"10604",
    "sg:province":"NY",
    "src:geom":"simplegeo",
    "wof:belongsto":[
        85845073,
        102191575,
        404523361,
        85633793,
        85978735,
        102082373,
        85688543
    ],
    "wof:breaches":[],
    "wof:concordances":{
        "sg:id":"SG_2MDy1rab4pT0KFhN7PmrmI_41.066753_-73.701234@1294177022"
    },
    "wof:country":"US",
    "wof:geomhash":"1dc43b91b4342d07c0de8a833d1691d1",
    "wof:hierarchy":[
        {
            "continent_id":102191575,
            "country_id":85633793,
            "county_id":102082373,
            "localadmin_id":404523361,
            "locality_id":85978735,
            "neighbourhood_id":85845073,
            "region_id":85688543,
            "venue_id":554941393
        }
    ],
    "wof:id":554941393,
    "wof:lastmodified":1461017744,
    "wof:name":"Arg",
    "wof:parent_id":85845073,
    "wof:placetype":"venue",
    "wof:superseded_by":[],
    "wof:supersedes":[],
    "wof:tags":[]
},
  "bbox": [
    -73.701234,
    41.066753,
    -73.701234,
    41.066753
],
  "geometry": {"coordinates":[-73.701234,41.066753],"type":"Point"}
}