{
  "id": 554940815,
  "type": "Feature",
  "properties": {
    "edtf:cessation":"uuuu",
    "edtf:inception":"uuuu",
    "geom:area":0.0,
    "geom:bbox":"-77.301378,41.986037,-77.301378,41.986037",
    "geom:latitude":41.986037,
    "geom:longitude":-77.301378,
    "iso:country":"US",
    "sg:address":"9 E River St Exd",
    "sg:city":"Elkland",
    "sg:classifiers":[
        {
            "category":"Wholesale",
            "subcategory":"Meat",
            "type":"Manufacturing & Wholesale Goods"
        }
    ],
    "sg:owner":"simplegeo",
    "sg:phone":"+1 814 258 7283",
    "sg:postcode":"16920",
    "sg:province":"NY",
    "sg:tags":[
        "product"
    ],
    "src:geom":"simplegeo",
    "wof:belongsto":[
        85688481,
        85633793,
        101717081,
        102080937,
        85807903
    ],
    "wof:breaches":[],
    "wof:concordances":{
        "sg:id":"SG_68mQijR43c5VAHWn0fF66M_41.986037_-77.301378@1294177022"
    },
    "wof:country":"US",
    "wof:geomhash":"2e2febce877054932c6b5f31dc558fd1",
    "wof:hierarchy":[
        {
            "country_id":85633793,
            "county_id":102080937,
            "locality_id":101717081,
            "neighbourhood_id":85807903,
            "region_id":85688481,
            "venue_id":554940815
        }
    ],
    "wof:id":554940815,
    "wof:lastmodified":1461017681,
    "wof:name":"Painter's Meat Products",
    "wof:parent_id":85807903,
    "wof:placetype":"venue",
    "wof:superseded_by":[],
    "wof:supersedes":[],
    "wof:tags":[
        "product"
    ]
},
  "bbox": [
    -77.301378,
    41.986037,
    -77.301378,
    41.986037
],
  "geometry": {"coordinates":[-77.301378,41.986037],"type":"Point"}
}