{
  "id": 554934801,
  "type": "Feature",
  "properties": {
    "edtf:cessation":"uuuu",
    "edtf:inception":"uuuu",
    "geom:area":0.0,
    "geom:bbox":"-73.656312,41.009576,-73.656312,41.009576",
    "geom:latitude":41.009576,
    "geom:longitude":-73.656312,
    "iso:country":"US",
    "sg:address":"435 N Main St",
    "sg:city":"Port Chester",
    "sg:classifiers":[
        {
            "category":"Bars & Pubs",
            "subcategory":"",
            "type":"Food & Drink"
        }
    ],
    "sg:owner":"simplegeo",
    "sg:phone":"+1 914 937 9695",
    "sg:postcode":"10573",
    "sg:province":"NY",
    "src:geom":"simplegeo",
    "wof:belongsto":[
        85885307,
        102191575,
        404495949,
        85633793,
        85930941,
        102084283,
        85688629,
        85808713,
        404523389,
        85978705,
        102082373,
        85688543
    ],
    "wof:breaches":[],
    "wof:concordances":{
        "sg:id":"SG_2BTiovUoUqNSnILz0HnZBA_41.009576_-73.656312@1294177022"
    },
    "wof:country":"US",
    "wof:geomhash":"81ab7176247b88b6e1f9ee6d60372a0e",
    "wof:hierarchy":[
        {
            "continent_id":102191575,
            "country_id":85633793,
            "county_id":102084283,
            "localadmin_id":404495949,
            "locality_id":85930941,
            "neighbourhood_id":85885307,
            "region_id":85688629,
            "venue_id":554934801
        },
        {
            "continent_id":102191575,
            "country_id":85633793,
            "county_id":102082373,
            "localadmin_id":404523389,
            "locality_id":85978705,
            "neighbourhood_id":85808713,
            "region_id":85688543,
            "venue_id":554934801
        }
    ],
    "wof:id":554934801,
    "wof:lastmodified":1461016985,
    "wof:name":"Teri's Tavern",
    "wof:parent_id":-1,
    "wof:placetype":"venue",
    "wof:superseded_by":[],
    "wof:supersedes":[],
    "wof:tags":[]
},
  "bbox": [
    -73.656312,
    41.009576,
    -73.656312,
    41.009576
],
  "geometry": {"coordinates":[-73.656312,41.009576],"type":"Point"}
}