{
  "id": 554939025,
  "type": "Feature",
  "properties": {
    "edtf:cessation":"uuuu",
    "edtf:inception":"uuuu",
    "geom:area":0.0,
    "geom:bbox":"-73.493871,41.146764,-73.493871,41.146764",
    "geom:latitude":41.146764,
    "geom:longitude":-73.493871,
    "iso:country":"US",
    "sg:address":"140 Elm St",
    "sg:city":"New Canaan",
    "sg:classifiers":[
        {
            "category":"Professional",
            "subcategory":"Lawyer & Legal Services",
            "type":"Services"
        }
    ],
    "sg:owner":"simplegeo",
    "sg:phone":"+1 203 966 1400",
    "sg:postcode":"06840",
    "sg:province":"NY",
    "sg:tags":[
        "attorney"
    ],
    "src:geom":"simplegeo",
    "wof:belongsto":[
        85688629,
        85633793,
        85851779,
        102084283
    ],
    "wof:breaches":[],
    "wof:concordances":{
        "sg:id":"SG_2EOeG40RbgiKAkECLAhS2F_41.146764_-73.493871@1294177022"
    },
    "wof:country":"US",
    "wof:geomhash":"b03e945ea4be14a8124d21dfbd9347bd",
    "wof:hierarchy":[
        {
            "country_id":85633793,
            "county_id":102084283,
            "neighbourhood_id":85851779,
            "region_id":85688629,
            "venue_id":554939025
        }
    ],
    "wof:id":554939025,
    "wof:lastmodified":1461017520,
    "wof:name":"Jaffe & Jaffe",
    "wof:parent_id":85851779,
    "wof:placetype":"venue",
    "wof:superseded_by":[],
    "wof:supersedes":[],
    "wof:tags":[
        "attorney"
    ]
},
  "bbox": [
    -73.493871,
    41.146764,
    -73.493871,
    41.146764
],
  "geometry": {"coordinates":[-73.493871,41.146764],"type":"Point"}
}