{
  "id": 554936623,
  "type": "Feature",
  "properties": {
    "edtf:cessation":"uuuu",
    "edtf:inception":"uuuu",
    "geom:area":0.0,
    "geom:bbox":"-74.143219,41.107046,-74.143219,41.107046",
    "geom:latitude":41.107046,
    "geom:longitude":-74.143219,
    "iso:country":"US",
    "sg:address":"18 Hillside Ave",
    "sg:city":"Suffern",
    "sg:classifiers":[
        {
            "category":"Professional",
            "subcategory":"Management & Consulting",
            "type":"Services"
        }
    ],
    "sg:owner":"simplegeo",
    "sg:phone":"+1   ",
    "sg:postcode":"10901",
    "sg:province":"NY",
    "src:geom":"simplegeo",
    "wof:belongsto":[
        85855885,
        102191575,
        404523097,
        85633793,
        85978523,
        102082385,
        85688543
    ],
    "wof:breaches":[],
    "wof:concordances":{
        "sg:id":"SG_1kGliBm9xxXJdf8sVKAh6E_41.107046_-74.143219@1294177022"
    },
    "wof:country":"US",
    "wof:geomhash":"38b6d57e6178af4dfcd5410d61d6a575",
    "wof:hierarchy":[
        {
            "continent_id":102191575,
            "country_id":85633793,
            "county_id":102082385,
            "localadmin_id":404523097,
            "locality_id":85978523,
            "neighbourhood_id":85855885,
            "region_id":85688543,
            "venue_id":554936623
        }
    ],
    "wof:id":554936623,
    "wof:lastmodified":1461017249,
    "wof:name":"Ej Enterprises",
    "wof:parent_id":85855885,
    "wof:placetype":"venue",
    "wof:superseded_by":[],
    "wof:supersedes":[],
    "wof:tags":[]
},
  "bbox": [
    -74.143219,
    41.107046,
    -74.143219,
    41.107046
],
  "geometry": {"coordinates":[-74.143219,41.107046],"type":"Point"}
}