{
  "id": 571680931,
  "type": "Feature",
  "properties": {
    "edtf:cessation":"uuuu",
    "edtf:inception":"uuuu",
    "geom:area":0.0,
    "geom:bbox":"-73.857782,40.89284,-73.857782,40.89284",
    "geom:latitude":40.89284,
    "geom:longitude":-73.857782,
    "iso:country":"US",
    "sg:address":"4174 White Plains Rd",
    "sg:city":"Bronx",
    "sg:classifiers":[
        {
            "category":"Restaurant",
            "subcategory":"",
            "type":"Food & Drink"
        }
    ],
    "sg:menulink":"http://www.allmenus.com/ny/bronx/189141-mcdonalds/menu/",
    "sg:owner":"simplegeo",
    "sg:postcode":"10466",
    "sg:province":"NY",
    "sg:tags":[
        "burger",
        "american"
    ],
    "src:geom":"simplegeo",
    "wof:belongsto":[],
    "wof:breaches":[],
    "wof:concordances":{
        "sg:id":"SG_0V0hVFtKviJKqVF1qdB5yD_40.892840_-73.857782@1299784598"
    },
    "wof:country":"US",
    "wof:geomhash":"0c96f5056cb259237fa098e8ff72d916",
    "wof:hierarchy":[],
    "wof:id":571680931,
    "wof:lastmodified":1461041147,
    "wof:name":"McDonald's",
    "wof:parent_id":-1,
    "wof:placetype":"venue",
    "wof:superseded_by":[],
    "wof:supersedes":[],
    "wof:tags":[
        "burger",
        "american"
    ]
},
  "bbox": [
    -73.857782,
    40.89284,
    -73.857782,
    40.89284
],
  "geometry": {"coordinates":[-73.857782,40.89284],"type":"Point"}
}