{
  "id": 554934271,
  "type": "Feature",
  "properties": {
    "edtf:cessation":"uuuu",
    "edtf:inception":"uuuu",
    "geom:area":0.0,
    "geom:bbox":"-73.657135,41.023622,-73.657135,41.023622",
    "geom:latitude":41.023622,
    "geom:longitude":-73.657135,
    "iso:country":"US",
    "sg:address":"34 Halock Dr",
    "sg:city":"Greenwich",
    "sg:classifiers":[
        {
            "category":"Manufacturing",
            "subcategory":"Printing",
            "type":"Manufacturing & Wholesale Goods"
        }
    ],
    "sg:owner":"simplegeo",
    "sg:phone":"+1 203 531 7513",
    "sg:postcode":"06831",
    "sg:province":"NY",
    "sg:tags":[
        "lithographic",
        "commercial"
    ],
    "src:geom":"simplegeo",
    "wof:belongsto":[
        85885307,
        102191575,
        404495949,
        85633793,
        85930941,
        102084283,
        85688629,
        420555461,
        85930937
    ],
    "wof:breaches":[],
    "wof:concordances":{
        "sg:id":"SG_7c2yf0sgke2UlXvgXNYP4p_41.023622_-73.657135@1294177022"
    },
    "wof:country":"US",
    "wof:geomhash":"e634a7df322e493399d952113971d1bc",
    "wof:hierarchy":[
        {
            "continent_id":102191575,
            "country_id":85633793,
            "county_id":102084283,
            "localadmin_id":404495949,
            "locality_id":85930941,
            "neighbourhood_id":85885307,
            "region_id":85688629,
            "venue_id":554934271
        },
        {
            "continent_id":102191575,
            "country_id":85633793,
            "county_id":102084283,
            "localadmin_id":404495949,
            "locality_id":85930937,
            "neighbourhood_id":420555461,
            "region_id":85688629,
            "venue_id":554934271
        }
    ],
    "wof:id":554934271,
    "wof:lastmodified":1461016921,
    "wof:name":"Log Cabin Graphics",
    "wof:parent_id":-1,
    "wof:placetype":"venue",
    "wof:superseded_by":[],
    "wof:supersedes":[],
    "wof:tags":[
        "lithographic",
        "commercial"
    ]
},
  "bbox": [
    -73.657135,
    41.023622,
    -73.657135,
    41.023622
],
  "geometry": {"coordinates":[-73.657135,41.023622],"type":"Point"}
}