{
  "id": 554938737,
  "type": "Feature",
  "properties": {
    "edtf:cessation":"uuuu",
    "edtf:inception":"uuuu",
    "geom:area":0.0,
    "geom:bbox":"-73.489209,41.144222,-73.489209,41.144222",
    "geom:latitude":41.144222,
    "geom:longitude":-73.489209,
    "iso:country":"US",
    "sg:address":"31 Hoyt St",
    "sg:city":"New Canaan",
    "sg:classifiers":[
        {
            "category":"Social Services",
            "subcategory":"Child Care",
            "type":"Services"
        }
    ],
    "sg:owner":"simplegeo",
    "sg:phone":"+1   ",
    "sg:postcode":"06840",
    "sg:province":"NY",
    "sg:tags":[
        "day"
    ],
    "src:geom":"simplegeo",
    "wof:belongsto":[
        85688629,
        85633793,
        85851779,
        102084283
    ],
    "wof:breaches":[],
    "wof:concordances":{
        "sg:id":"SG_3ofj5lmlLHUnW8NrRcKLDl_41.144222_-73.489209@1294177022"
    },
    "wof:country":"US",
    "wof:geomhash":"7d91b1f2aca58da157a35a440be5a2a4",
    "wof:hierarchy":[
        {
            "country_id":85633793,
            "county_id":102084283,
            "neighbourhood_id":85851779,
            "region_id":85688629,
            "venue_id":554938737
        }
    ],
    "wof:id":554938737,
    "wof:lastmodified":1461017499,
    "wof:name":"Start Head Publications LLC",
    "wof:parent_id":85851779,
    "wof:placetype":"venue",
    "wof:superseded_by":[],
    "wof:supersedes":[],
    "wof:tags":[
        "day"
    ]
},
  "bbox": [
    -73.489209,
    41.144222,
    -73.489209,
    41.144222
],
  "geometry": {"coordinates":[-73.489209,41.144222],"type":"Point"}
}