{
  "id": 554940069,
  "type": "Feature",
  "properties": {
    "edtf:cessation":"uuuu",
    "edtf:inception":"uuuu",
    "geom:area":0.0,
    "geom:bbox":"-77.310586,41.989805,-77.310586,41.989805",
    "geom:latitude":41.989805,
    "geom:longitude":-77.310586,
    "iso:country":"US",
    "sg:address":"104 Coates St",
    "sg:city":"Elkland",
    "sg:classifiers":[
        {
            "category":"Personal",
            "subcategory":"Beauty Salon",
            "type":"Services"
        }
    ],
    "sg:owner":"simplegeo",
    "sg:phone":"+1   ",
    "sg:postcode":"16920",
    "sg:province":"NY",
    "sg:tags":[
        "shop"
    ],
    "src:geom":"simplegeo",
    "wof:belongsto":[
        85688481,
        85633793,
        101717081,
        102080937,
        85807903
    ],
    "wof:breaches":[],
    "wof:concordances":{
        "sg:id":"SG_5ksD0BfSEG9utpLnG4c1Yq_41.989805_-77.310586@1294177022"
    },
    "wof:country":"US",
    "wof:geomhash":"dbd65d38c71e24b7d804f3122a6572b0",
    "wof:hierarchy":[
        {
            "country_id":85633793,
            "county_id":102080937,
            "locality_id":101717081,
            "neighbourhood_id":85807903,
            "region_id":85688481,
            "venue_id":554940069
        }
    ],
    "wof:id":554940069,
    "wof:lastmodified":1461017622,
    "wof:name":"Jaynes",
    "wof:parent_id":85807903,
    "wof:placetype":"venue",
    "wof:superseded_by":[],
    "wof:supersedes":[],
    "wof:tags":[
        "shop"
    ]
},
  "bbox": [
    -77.310586,
    41.989805,
    -77.310586,
    41.989805
],
  "geometry": {"coordinates":[-77.310586,41.989805],"type":"Point"}
}