{
  "id": 554935709,
  "type": "Feature",
  "properties": {
    "edtf:cessation":"uuuu",
    "edtf:inception":"uuuu",
    "geom:area":0.0,
    "geom:bbox":"-73.498474,41.151513,-73.498474,41.151513",
    "geom:latitude":41.151513,
    "geom:longitude":-73.498474,
    "iso:country":"US",
    "sg:address":"73 Oenoke Ridge",
    "sg:city":"New Canaan",
    "sg:classifiers":[
        {
            "category":"Organizations",
            "subcategory":"Non-profit Organization",
            "type":"Services"
        },
        {
            "category":"Social Services",
            "subcategory":"Adult Care",
            "type":"Services"
        }
    ],
    "sg:owner":"simplegeo",
    "sg:phone":"+1 203 966 1272",
    "sg:postcode":"06840",
    "sg:province":"NY",
    "sg:tags":[
        "residential",
        "facility"
    ],
    "src:geom":"simplegeo",
    "wof:belongsto":[
        85688629,
        85633793,
        85851779,
        102084283
    ],
    "wof:breaches":[],
    "wof:concordances":{
        "sg:id":"SG_0raYwhdD8Vn73PqXkcHUmc_41.151513_-73.498474@1294177022"
    },
    "wof:country":"US",
    "wof:geomhash":"aa025796d7b423d554aca72497ddf2fa",
    "wof:hierarchy":[
        {
            "country_id":85633793,
            "county_id":102084283,
            "neighbourhood_id":85851779,
            "region_id":85688629,
            "venue_id":554935709
        }
    ],
    "wof:id":554935709,
    "wof:lastmodified":1461017109,
    "wof:name":"New Canaan Inn Inc",
    "wof:parent_id":85851779,
    "wof:placetype":"venue",
    "wof:superseded_by":[],
    "wof:supersedes":[],
    "wof:tags":[
        "residential",
        "facility"
    ]
},
  "bbox": [
    -73.498474,
    41.151513,
    -73.498474,
    41.151513
],
  "geometry": {"coordinates":[-73.498474,41.151513],"type":"Point"}
}