{
  "id": 554933991,
  "type": "Feature",
  "properties": {
    "edtf:cessation":"uuuu",
    "edtf:inception":"uuuu",
    "geom:area":0.0,
    "geom:bbox":"-73.541197,41.170687,-73.541197,41.170687",
    "geom:latitude":41.170687,
    "geom:longitude":-73.541197,
    "iso:country":"US",
    "sg:address":"172 Dans Hwy",
    "sg:city":"New Canaan",
    "sg:classifiers":[
        {
            "category":"Banks & Credit Unions",
            "subcategory":"Financial Services",
            "type":"Services"
        }
    ],
    "sg:owner":"simplegeo",
    "sg:phone":"+1 203 972 3129",
    "sg:postcode":"06840",
    "sg:province":"NY",
    "sg:tags":[
        "investor"
    ],
    "src:geom":"simplegeo",
    "wof:belongsto":[],
    "wof:breaches":[],
    "wof:concordances":{
        "sg:id":"SG_5B5Ba4zPxUMfQgCgmXbnIL_41.170687_-73.541197@1294177022"
    },
    "wof:country":"US",
    "wof:geomhash":"06da0d5cfc82ed2c56b563b7f85f9f68",
    "wof:hierarchy":[],
    "wof:id":554933991,
    "wof:lastmodified":1461016881,
    "wof:name":"Comet Ventures LLC",
    "wof:parent_id":-1,
    "wof:placetype":"venue",
    "wof:superseded_by":[],
    "wof:supersedes":[],
    "wof:tags":[
        "investor"
    ]
},
  "bbox": [
    -73.541197,
    41.170687,
    -73.541197,
    41.170687
],
  "geometry": {"coordinates":[-73.541197,41.170687],"type":"Point"}
}