{
  "id": 554934193,
  "type": "Feature",
  "properties": {
    "edtf:cessation":"uuuu",
    "edtf:inception":"uuuu",
    "geom:area":0.0,
    "geom:bbox":"-73.498653,41.145893,-73.498653,41.145893",
    "geom:latitude":41.145893,
    "geom:longitude":-73.498653,
    "iso:country":"US",
    "sg:address":"191 Elm St",
    "sg:city":"New Canaan",
    "sg:classifiers":[
        {
            "category":"Professional",
            "subcategory":"Management & Consulting",
            "type":"Services"
        }
    ],
    "sg:owner":"simplegeo",
    "sg:phone":"+1   ",
    "sg:postcode":"06840",
    "sg:province":"NY",
    "sg:tags":[
        "business"
    ],
    "src:geom":"simplegeo",
    "wof:belongsto":[
        85688629,
        85633793,
        85851779,
        102084283
    ],
    "wof:breaches":[],
    "wof:concordances":{
        "sg:id":"SG_4ZGZEFLpk2TLMfpyz1gdhH_41.145893_-73.498653@1294177022"
    },
    "wof:country":"US",
    "wof:geomhash":"5f3ab96b67b8f24ad7fe2a60bc62d4f3",
    "wof:hierarchy":[
        {
            "country_id":85633793,
            "county_id":102084283,
            "neighbourhood_id":85851779,
            "region_id":85688629,
            "venue_id":554934193
        }
    ],
    "wof:id":554934193,
    "wof:lastmodified":1461016910,
    "wof:name":"Dunbar Educational Consultants",
    "wof:parent_id":85851779,
    "wof:placetype":"venue",
    "wof:superseded_by":[],
    "wof:supersedes":[],
    "wof:tags":[
        "business"
    ]
},
  "bbox": [
    -73.498653,
    41.145893,
    -73.498653,
    41.145893
],
  "geometry": {"coordinates":[-73.498653,41.145893],"type":"Point"}
}