{
  "id": 554941893,
  "type": "Feature",
  "properties": {
    "edtf:cessation":"uuuu",
    "edtf:inception":"uuuu",
    "geom:area":0.0,
    "geom:bbox":"-73.662431,41.037765,-73.662431,41.037765",
    "geom:latitude":41.037765,
    "geom:longitude":-73.662431,
    "iso:country":"US",
    "sg:address":"239 Glenville Rd",
    "sg:city":"Greenwich",
    "sg:classifiers":[
        {
            "category":"Health Services",
            "subcategory":"Doctor",
            "type":"Services"
        }
    ],
    "sg:owner":"simplegeo",
    "sg:phone":"+1 203 532 0600",
    "sg:postcode":"06831",
    "sg:province":"NY",
    "sg:tags":[
        "specializing",
        "physician",
        "surgeon",
        "oncology"
    ],
    "src:geom":"simplegeo",
    "wof:belongsto":[
        420555529,
        102191575,
        404495949,
        85633793,
        85930941,
        102084283,
        85688629
    ],
    "wof:breaches":[],
    "wof:concordances":{
        "sg:id":"SG_1T0hkzR5ymlvA2zhtwtxqh_41.037765_-73.662431@1294177022"
    },
    "wof:country":"US",
    "wof:geomhash":"7a4c135ad4e83a0746205616e1ca7bf1",
    "wof:hierarchy":[
        {
            "continent_id":102191575,
            "country_id":85633793,
            "county_id":102084283,
            "localadmin_id":404495949,
            "locality_id":85930941,
            "neighbourhood_id":420555529,
            "region_id":85688629,
            "venue_id":554941893
        }
    ],
    "wof:id":554941893,
    "wof:lastmodified":1461017819,
    "wof:name":"Integrative Oncology LLC",
    "wof:parent_id":420555529,
    "wof:placetype":"venue",
    "wof:superseded_by":[],
    "wof:supersedes":[],
    "wof:tags":[
        "specializing",
        "physician",
        "surgeon",
        "oncology"
    ]
},
  "bbox": [
    -73.662431,
    41.037765,
    -73.662431,
    41.037765
],
  "geometry": {"coordinates":[-73.662431,41.037765],"type":"Point"}
}