{
  "id": 554934983,
  "type": "Feature",
  "properties": {
    "edtf:cessation":"uuuu",
    "edtf:inception":"uuuu",
    "geom:area":0.0,
    "geom:bbox":"-73.708605,41.091022,-73.708605,41.091022",
    "geom:latitude":41.091022,
    "geom:longitude":-73.708605,
    "iso:country":"US",
    "sg:address":"48 Locust Rd",
    "sg:city":"Greenwich",
    "sg:classifiers":[
        {
            "category":"Insurance",
            "subcategory":"Insurance Agent",
            "type":"Services"
        }
    ],
    "sg:owner":"simplegeo",
    "sg:phone":"+1 203 532 9152",
    "sg:postcode":"06831",
    "sg:province":"NY",
    "src:geom":"simplegeo",
    "wof:belongsto":[
        85688629,
        85633793,
        85837667,
        102084283
    ],
    "wof:breaches":[],
    "wof:concordances":{
        "sg:id":"SG_1oYrKQOS3qxHDQ0tZ0TP3t_41.091022_-73.708605@1294177022"
    },
    "wof:country":"US",
    "wof:geomhash":"c5509c6c20d19fd58f2c92da9c6239b9",
    "wof:hierarchy":[
        {
            "country_id":85633793,
            "county_id":102084283,
            "neighbourhood_id":85837667,
            "region_id":85688629,
            "venue_id":554934983
        }
    ],
    "wof:id":554934983,
    "wof:lastmodified":1461017007,
    "wof:name":"Residual Risk Solutions LLC",
    "wof:parent_id":85837667,
    "wof:placetype":"venue",
    "wof:superseded_by":[],
    "wof:supersedes":[],
    "wof:tags":[]
},
  "bbox": [
    -73.708605,
    41.091022,
    -73.708605,
    41.091022
],
  "geometry": {"coordinates":[-73.70860500000001,41.091022],"type":"Point"}
}