{
  "id": 554939369,
  "type": "Feature",
  "properties": {
    "edtf:cessation":"uuuu",
    "edtf:inception":"uuuu",
    "geom:area":0.0,
    "geom:bbox":"-73.492246,41.143212,-73.492246,41.143212",
    "geom:latitude":41.143212,
    "geom:longitude":-73.492246,
    "iso:country":"US",
    "sg:address":"73 South Ave",
    "sg:city":"New Canaan",
    "sg:classifiers":[
        {
            "category":"Professional",
            "subcategory":"",
            "type":"Services"
        }
    ],
    "sg:owner":"simplegeo",
    "sg:phone":"+1 203 972 3177",
    "sg:postcode":"06840",
    "sg:province":"NY",
    "src:geom":"simplegeo",
    "wof:belongsto":[
        85688629,
        85633793,
        85851779,
        102084283
    ],
    "wof:breaches":[],
    "wof:concordances":{
        "sg:id":"SG_5Vr820LZ4E4CzsMMgKumgE_41.143212_-73.492246@1294177022"
    },
    "wof:country":"US",
    "wof:geomhash":"5d6f2e4528d08fd97576e7934f8d7213",
    "wof:hierarchy":[
        {
            "country_id":85633793,
            "county_id":102084283,
            "neighbourhood_id":85851779,
            "region_id":85688629,
            "venue_id":554939369
        }
    ],
    "wof:id":554939369,
    "wof:lastmodified":1461017556,
    "wof:name":"2beep LLC",
    "wof:parent_id":85851779,
    "wof:placetype":"venue",
    "wof:superseded_by":[],
    "wof:supersedes":[],
    "wof:tags":[]
},
  "bbox": [
    -73.492246,
    41.143212,
    -73.492246,
    41.143212
],
  "geometry": {"coordinates":[-73.49224599999999,41.143212],"type":"Point"}
}