{
  "id": 554941379,
  "type": "Feature",
  "properties": {
    "edtf:cessation":"uuuu",
    "edtf:inception":"uuuu",
    "geom:area":0.0,
    "geom:bbox":"-74.048921,41.083871,-74.048921,41.083871",
    "geom:latitude":41.083871,
    "geom:longitude":-74.048921,
    "iso:country":"US",
    "sg:address":"77 Sutin Pl",
    "sg:city":"Spring Valley",
    "sg:classifiers":[
        {
            "category":"Wholesale",
            "subcategory":"Machinery & Supplies",
            "type":"Manufacturing & Wholesale Goods"
        }
    ],
    "sg:owner":"simplegeo",
    "sg:phone":"+1 845 352 4292",
    "sg:postcode":"10977",
    "sg:province":"NY",
    "sg:tags":[
        "janitor"
    ],
    "src:geom":"simplegeo",
    "wof:belongsto":[
        85853261,
        102191575,
        404523097,
        85633793,
        85978555,
        102082385,
        85688543
    ],
    "wof:breaches":[],
    "wof:concordances":{
        "sg:id":"SG_1JfG32BdXWvxnucyrlSJ3V_41.083871_-74.048921@1294177022"
    },
    "wof:country":"US",
    "wof:geomhash":"335c761952d13497a670e76c53f5d0f8",
    "wof:hierarchy":[
        {
            "continent_id":102191575,
            "country_id":85633793,
            "county_id":102082385,
            "localadmin_id":404523097,
            "locality_id":85978555,
            "neighbourhood_id":85853261,
            "region_id":85688543,
            "venue_id":554941379
        }
    ],
    "wof:id":554941379,
    "wof:lastmodified":1461017735,
    "wof:name":"Sherry Enterprises Inc",
    "wof:parent_id":85853261,
    "wof:placetype":"venue",
    "wof:superseded_by":[],
    "wof:supersedes":[],
    "wof:tags":[
        "janitor"
    ]
},
  "bbox": [
    -74.048921,
    41.083871,
    -74.048921,
    41.083871
],
  "geometry": {"coordinates":[-74.04892100000001,41.083871],"type":"Point"}
}