{
  "id": 554940583,
  "type": "Feature",
  "properties": {
    "edtf:cessation":"uuuu",
    "edtf:inception":"uuuu",
    "geom:area":0.0,
    "geom:bbox":"-73.654176,41.021943,-73.654176,41.021943",
    "geom:latitude":41.021943,
    "geom:longitude":-73.654176,
    "iso:country":"US",
    "sg:address":"17 Moshier St",
    "sg:city":"Greenwich",
    "sg:classifiers":[
        {
            "category":"Organizations",
            "subcategory":"Religious Organization",
            "type":"Services"
        }
    ],
    "sg:owner":"simplegeo",
    "sg:phone":"+1   ",
    "sg:postcode":"06831",
    "sg:province":"NY",
    "src:geom":"simplegeo",
    "wof:belongsto":[
        85885307,
        102191575,
        404495949,
        85633793,
        85930941,
        102084283,
        85688629,
        420555461,
        85930937
    ],
    "wof:breaches":[],
    "wof:concordances":{
        "sg:id":"SG_14YaIVg4DPHP580BEV5ju4_41.021943_-73.654176@1294177022"
    },
    "wof:country":"US",
    "wof:geomhash":"736b19f336c5f6e7cdba7dc2a7d33887",
    "wof:hierarchy":[
        {
            "continent_id":102191575,
            "country_id":85633793,
            "county_id":102084283,
            "localadmin_id":404495949,
            "locality_id":85930941,
            "neighbourhood_id":85885307,
            "region_id":85688629,
            "venue_id":554940583
        },
        {
            "continent_id":102191575,
            "country_id":85633793,
            "county_id":102084283,
            "localadmin_id":404495949,
            "locality_id":85930937,
            "neighbourhood_id":420555461,
            "region_id":85688629,
            "venue_id":554940583
        }
    ],
    "wof:id":554940583,
    "wof:lastmodified":1461017664,
    "wof:name":"Japanese Evang Chrch Chappaqua",
    "wof:parent_id":-1,
    "wof:placetype":"venue",
    "wof:superseded_by":[],
    "wof:supersedes":[],
    "wof:tags":[]
},
  "bbox": [
    -73.654176,
    41.021943,
    -73.654176,
    41.021943
],
  "geometry": {"coordinates":[-73.65417600000001,41.021943],"type":"Point"}
}