{
  "id": 571485851,
  "type": "Feature",
  "properties": {
    "edtf:cessation":"uuuu",
    "edtf:inception":"uuuu",
    "geom:area":0.0,
    "geom:bbox":"-73.369366,43.026994,-73.369366,43.026994",
    "geom:latitude":43.026994,
    "geom:longitude":-73.369366,
    "iso:country":"US",
    "sg:address":"100 E Main St",
    "sg:city":"Cambridge",
    "sg:classifiers":[
        {
            "category":"Health Services",
            "subcategory":"Health Practitioner",
            "type":"Services"
        }
    ],
    "sg:owner":"simplegeo",
    "sg:phone":"+1 518 677 8346",
    "sg:postcode":"12816",
    "sg:province":"NY",
    "sg:tags":[
        "psychologist"
    ],
    "src:geom":"simplegeo",
    "wof:belongsto":[],
    "wof:breaches":[],
    "wof:concordances":{
        "sg:id":"SG_6TExsldOCmTtYEOJvNwYDO_43.026994_-73.369366@1294177022"
    },
    "wof:country":"US",
    "wof:geomhash":"c89b6930db9a96d4145657830303af5b",
    "wof:hierarchy":[],
    "wof:id":571485851,
    "wof:lastmodified":1461036824,
    "wof:name":"Main Street Counseling",
    "wof:parent_id":420530335,
    "wof:placetype":"venue",
    "wof:superseded_by":[],
    "wof:supersedes":[],
    "wof:tags":[
        "psychologist"
    ]
},
  "bbox": [
    -73.369366,
    43.026994,
    -73.369366,
    43.026994
],
  "geometry": {"coordinates":[-73.369366,43.026994],"type":"Point"}
}