{
  "id": 554941987,
  "type": "Feature",
  "properties": {
    "edtf:cessation":"uuuu",
    "edtf:inception":"uuuu",
    "geom:area":0.0,
    "geom:bbox":"-73.480858,41.135857,-73.480858,41.135857",
    "geom:latitude":41.135857,
    "geom:longitude":-73.480858,
    "iso:country":"US",
    "sg:address":"156 Farm Rd",
    "sg:city":"New Canaan",
    "sg:classifiers":[
        {
            "category":"Professional",
            "subcategory":"Business Services",
            "type":"Services"
        }
    ],
    "sg:owner":"simplegeo",
    "sg:phone":"+1 203 966 3032",
    "sg:postcode":"06840",
    "sg:province":"NY",
    "sg:tags":[
        "interior",
        "consultant",
        "design",
        "decorator"
    ],
    "src:geom":"simplegeo",
    "wof:belongsto":[
        85688629,
        85633793,
        85851779,
        102084283
    ],
    "wof:breaches":[],
    "wof:concordances":{
        "sg:id":"SG_504ZmyMhUV43ARcl8Utf0a_41.135857_-73.480858@1294177022"
    },
    "wof:country":"US",
    "wof:geomhash":"6884c850d09d78437112357779574dc1",
    "wof:hierarchy":[
        {
            "country_id":85633793,
            "county_id":102084283,
            "neighbourhood_id":85851779,
            "region_id":85688629,
            "venue_id":554941987
        }
    ],
    "wof:id":554941987,
    "wof:lastmodified":1461017827,
    "wof:name":"Ladd Design",
    "wof:parent_id":85851779,
    "wof:placetype":"venue",
    "wof:superseded_by":[],
    "wof:supersedes":[],
    "wof:tags":[
        "interior",
        "consultant",
        "design",
        "decorator"
    ]
},
  "bbox": [
    -73.480858,
    41.135857,
    -73.480858,
    41.135857
],
  "geometry": {"coordinates":[-73.480858,41.135857],"type":"Point"}
}