{
  "id": 555258713,
  "type": "Feature",
  "properties": {
    "edtf:cessation":"uuuu",
    "edtf:inception":"uuuu",
    "geom:area":0.0,
    "geom:bbox":"-73.423993,40.687691,-73.423993,40.687691",
    "geom:latitude":40.687691,
    "geom:longitude":-73.423993,
    "iso:country":"US",
    "sg:address":"61 Sunset Ave",
    "sg:city":"Amityville",
    "sg:classifiers":[
        {
            "category":"Utilities",
            "subcategory":"Fuel Oil & Lpg",
            "type":"Services"
        }
    ],
    "sg:owner":"simplegeo",
    "sg:phone":"+1   ",
    "sg:postcode":"11701",
    "sg:province":"NY",
    "sg:tags":[
        "dealer"
    ],
    "src:geom":"simplegeo",
    "wof:belongsto":[],
    "wof:breaches":[],
    "wof:concordances":{
        "sg:id":"SG_6r25bVksptT3PPa8sfcG5Y_40.687691_-73.423993@1294177022"
    },
    "wof:country":"US",
    "wof:geomhash":"758a1b4d90f6f408536ab3ce807608ac",
    "wof:hierarchy":[],
    "wof:id":555258713,
    "wof:lastmodified":1461025556,
    "wof:name":"Ibed Fuel Co",
    "wof:parent_id":-1,
    "wof:placetype":"venue",
    "wof:superseded_by":[],
    "wof:supersedes":[],
    "wof:tags":[
        "dealer"
    ]
},
  "bbox": [
    -73.423993,
    40.687691,
    -73.423993,
    40.687691
],
  "geometry": {"coordinates":[-73.423993,40.687691],"type":"Point"}
}