{
  "id": 554940733,
  "type": "Feature",
  "properties": {
    "edtf:cessation":"uuuu",
    "edtf:inception":"uuuu",
    "geom:area":0.0,
    "geom:bbox":"-73.449503,41.154741,-73.449503,41.154741",
    "geom:latitude":41.154741,
    "geom:longitude":-73.449503,
    "iso:country":"US",
    "sg:address":"207 Mill Rd",
    "sg:city":"New Canaan",
    "sg:classifiers":[
        {
            "category":"Professional",
            "subcategory":"Business Services",
            "type":"Services"
        }
    ],
    "sg:owner":"simplegeo",
    "sg:phone":"+1   ",
    "sg:postcode":"06840",
    "sg:province":"NY",
    "src:geom":"simplegeo",
    "wof:belongsto":[
        85688629,
        85633793,
        85848785,
        102084283
    ],
    "wof:breaches":[],
    "wof:concordances":{
        "sg:id":"SG_68qrFoo5SJ1xFHQH66WZhF_41.154741_-73.449503@1294177022"
    },
    "wof:country":"US",
    "wof:geomhash":"f99a4dfd176d3f38dbab6f049660ec6a",
    "wof:hierarchy":[
        {
            "country_id":85633793,
            "county_id":102084283,
            "neighbourhood_id":85848785,
            "region_id":85688629,
            "venue_id":554940733
        }
    ],
    "wof:id":554940733,
    "wof:lastmodified":1461017674,
    "wof:name":"Pamela Barnett Designs",
    "wof:parent_id":85848785,
    "wof:placetype":"venue",
    "wof:superseded_by":[],
    "wof:supersedes":[],
    "wof:tags":[]
},
  "bbox": [
    -73.449503,
    41.154741,
    -73.449503,
    41.154741
],
  "geometry": {"coordinates":[-73.44950300000001,41.154741],"type":"Point"}
}