{
  "id": 554935813,
  "type": "Feature",
  "properties": {
    "edtf:cessation":"uuuu",
    "edtf:inception":"uuuu",
    "geom:area":0.0,
    "geom:bbox":"-74.115091,41.096855,-74.115091,41.096855",
    "geom:latitude":41.096855,
    "geom:longitude":-74.115091,
    "iso:country":"US",
    "sg:address":"3 Beatrix Rd",
    "sg:city":"Airmont",
    "sg:classifiers":[
        {
            "category":"Building & Trades",
            "subcategory":"Plumbing",
            "type":"Services"
        }
    ],
    "sg:owner":"simplegeo",
    "sg:phone":"+1 845 357 4151",
    "sg:postcode":"10901",
    "sg:province":"NY",
    "sg:tags":[
        "conditioning",
        "air",
        "system",
        "contractor"
    ],
    "src:geom":"simplegeo",
    "wof:belongsto":[
        85832837,
        102191575,
        404523097,
        85633793,
        85978559,
        102082385,
        85688543
    ],
    "wof:breaches":[],
    "wof:concordances":{
        "sg:id":"SG_1N7n6nzRJhHPwmBqVcfSFA_41.096855_-74.115091@1294177022"
    },
    "wof:country":"US",
    "wof:geomhash":"2767c294136567abcc8089db944749d3",
    "wof:hierarchy":[
        {
            "continent_id":102191575,
            "country_id":85633793,
            "county_id":102082385,
            "localadmin_id":404523097,
            "locality_id":85978559,
            "neighbourhood_id":85832837,
            "region_id":85688543,
            "venue_id":554935813
        }
    ],
    "wof:id":554935813,
    "wof:lastmodified":1461017123,
    "wof:name":"Ideal Comfort Air",
    "wof:parent_id":85832837,
    "wof:placetype":"venue",
    "wof:superseded_by":[],
    "wof:supersedes":[],
    "wof:tags":[
        "conditioning",
        "air",
        "system",
        "contractor"
    ]
},
  "bbox": [
    -74.115091,
    41.096855,
    -74.115091,
    41.096855
],
  "geometry": {"coordinates":[-74.11509100000001,41.096855],"type":"Point"}
}