{
  "id": 554940507,
  "type": "Feature",
  "properties": {
    "edtf:cessation":"uuuu",
    "edtf:inception":"uuuu",
    "geom:area":0.0,
    "geom:bbox":"-74.09886,41.09213,-74.09886,41.09213",
    "geom:latitude":41.09213,
    "geom:longitude":-74.09886,
    "iso:country":"US",
    "sg:address":"9 Rustic Dr",
    "sg:city":"Monsey",
    "sg:classifiers":[
        {
            "category":"Restaurant",
            "subcategory":"",
            "type":"Food & Drink"
        }
    ],
    "sg:owner":"simplegeo",
    "sg:phone":"+1   ",
    "sg:postcode":"10952",
    "sg:province":"NY",
    "sg:tags":[
        "eating"
    ],
    "src:geom":"simplegeo",
    "wof:belongsto":[
        85832837,
        102191575,
        404523097,
        85633793,
        85978559,
        102082385,
        85688543
    ],
    "wof:breaches":[],
    "wof:concordances":{
        "sg:id":"SG_41YEw3ZCo2eIKSzwYsf1GZ_41.092130_-74.098860@1294177022"
    },
    "wof:country":"US",
    "wof:geomhash":"468c5aaced1e955b330f67a84cc62f81",
    "wof:hierarchy":[
        {
            "continent_id":102191575,
            "country_id":85633793,
            "county_id":102082385,
            "localadmin_id":404523097,
            "locality_id":85978559,
            "neighbourhood_id":85832837,
            "region_id":85688543,
            "venue_id":554940507
        }
    ],
    "wof:id":554940507,
    "wof:lastmodified":1461017658,
    "wof:name":"Quantum Soup",
    "wof:parent_id":85832837,
    "wof:placetype":"venue",
    "wof:superseded_by":[],
    "wof:supersedes":[],
    "wof:tags":[
        "eating"
    ]
},
  "bbox": [
    -74.09886,
    41.09213,
    -74.09886,
    41.09213
],
  "geometry": {"coordinates":[-74.09886,41.09213],"type":"Point"}
}