{
  "id": 554934071,
  "type": "Feature",
  "properties": {
    "edtf:cessation":"uuuu",
    "edtf:inception":"uuuu",
    "geom:area":0.0,
    "geom:bbox":"-73.654738,41.019255,-73.654738,41.019255",
    "geom:latitude":41.019255,
    "geom:longitude":-73.654738,
    "iso:country":"US",
    "sg:address":"85 Pemberwick Rd",
    "sg:city":"Greenwich",
    "sg:classifiers":[
        {
            "category":"Retail",
            "subcategory":"Repair Shop",
            "type":"Services"
        }
    ],
    "sg:owner":"simplegeo",
    "sg:phone":"+1 203 531 1155",
    "sg:postcode":"06831",
    "sg:province":"NY",
    "sg:tags":[
        "upholsterer"
    ],
    "src:geom":"simplegeo",
    "wof:belongsto":[
        85885307,
        102191575,
        404495949,
        85633793,
        85930941,
        102084283,
        85688629,
        420555461,
        85930937
    ],
    "wof:breaches":[],
    "wof:concordances":{
        "sg:id":"SG_62F00PPl5pRNSurCLTk6Cv_41.019255_-73.654738@1294177022"
    },
    "wof:country":"US",
    "wof:geomhash":"a953fd990a8265c530e3c7bbc9e9ba4d",
    "wof:hierarchy":[
        {
            "continent_id":102191575,
            "country_id":85633793,
            "county_id":102084283,
            "localadmin_id":404495949,
            "locality_id":85930941,
            "neighbourhood_id":85885307,
            "region_id":85688629,
            "venue_id":554934071
        },
        {
            "continent_id":102191575,
            "country_id":85633793,
            "county_id":102084283,
            "localadmin_id":404495949,
            "locality_id":85930937,
            "neighbourhood_id":420555461,
            "region_id":85688629,
            "venue_id":554934071
        }
    ],
    "wof:id":554934071,
    "wof:lastmodified":1461016896,
    "wof:name":"Port Chester Upholstery Co",
    "wof:parent_id":-1,
    "wof:placetype":"venue",
    "wof:superseded_by":[],
    "wof:supersedes":[],
    "wof:tags":[
        "upholsterer"
    ]
},
  "bbox": [
    -73.654738,
    41.019255,
    -73.654738,
    41.019255
],
  "geometry": {"coordinates":[-73.65473799999999,41.019255],"type":"Point"}
}