{
  "id": 554940015,
  "type": "Feature",
  "properties": {
    "edtf:cessation":"uuuu",
    "edtf:inception":"uuuu",
    "geom:area":0.0,
    "geom:bbox":"-73.504363,41.121775,-73.504363,41.121775",
    "geom:latitude":41.121775,
    "geom:longitude":-73.504363,
    "iso:country":"US",
    "sg:address":"111 Spring Water Ln",
    "sg:city":"New Canaan",
    "sg:classifiers":[
        {
            "category":"Professional",
            "subcategory":"",
            "type":"Services"
        }
    ],
    "sg:owner":"simplegeo",
    "sg:phone":"+1 203 966 2539",
    "sg:postcode":"06840",
    "sg:province":"NY",
    "src:geom":"simplegeo",
    "wof:belongsto":[
        85688629,
        85633793,
        85851779,
        102084283
    ],
    "wof:breaches":[],
    "wof:concordances":{
        "sg:id":"SG_0T9xYd01lpD03ixvU1mQmr_41.121775_-73.504363@1294177022"
    },
    "wof:country":"US",
    "wof:geomhash":"4673f7756bd3e543c208cb8d88d5a151",
    "wof:hierarchy":[
        {
            "country_id":85633793,
            "county_id":102084283,
            "neighbourhood_id":85851779,
            "region_id":85688629,
            "venue_id":554940015
        }
    ],
    "wof:id":554940015,
    "wof:lastmodified":1461017616,
    "wof:name":"Alex G Nason Foundation I",
    "wof:parent_id":85851779,
    "wof:placetype":"venue",
    "wof:superseded_by":[],
    "wof:supersedes":[],
    "wof:tags":[]
},
  "bbox": [
    -73.504363,
    41.121775,
    -73.504363,
    41.121775
],
  "geometry": {"coordinates":[-73.504363,41.121775],"type":"Point"}
}