{
  "id": 572171735,
  "type": "Feature",
  "properties": {
    "edtf:cessation":"uuuu",
    "edtf:inception":"uuuu",
    "geom:area":0.0,
    "geom:bbox":"-74.254494,40.653059,-74.254494,40.653059",
    "geom:latitude":40.653059,
    "geom:longitude":-74.254494,
    "iso:country":"US",
    "sg:address":"842 5th Ave",
    "sg:city":"Brooklyn",
    "sg:classifiers":[
        {
            "category":"Autos & Motor Vehicles",
            "subcategory":"Fuel & Gas Station",
            "type":"Retail Goods"
        }
    ],
    "sg:owner":"simplegeo",
    "sg:phone":"+1 718 499 6290",
    "sg:postcode":"11232",
    "sg:province":"NY",
    "src:geom":"simplegeo",
    "wof:belongsto":[
        85817887,
        102191575,
        404477587,
        85633793,
        85975833,
        102085995,
        85688607
    ],
    "wof:breaches":[],
    "wof:concordances":{
        "sg:id":"SG_3bsPAAGmLXd2fHMHeTZKtk_40.653059_-74.254494@1303262349"
    },
    "wof:country":"US",
    "wof:geomhash":"c5e832ea9a9809f70c4031408e3dbabc",
    "wof:hierarchy":[
        {
            "continent_id":102191575,
            "country_id":85633793,
            "county_id":102085995,
            "localadmin_id":404477587,
            "locality_id":85975833,
            "neighbourhood_id":85817887,
            "region_id":85688607,
            "venue_id":572171735
        }
    ],
    "wof:id":572171735,
    "wof:lastmodified":1461051461,
    "wof:name":"CMBA SS Auto Diagnosis Center",
    "wof:parent_id":85817887,
    "wof:placetype":"venue",
    "wof:superseded_by":[],
    "wof:supersedes":[],
    "wof:tags":[]
},
  "bbox": [
    -74.254494,
    40.653059,
    -74.254494,
    40.653059
],
  "geometry": {"coordinates":[-74.25449399999999,40.653059],"type":"Point"}
}