{
  "id": 555469291,
  "type": "Feature",
  "properties": {
    "edtf:cessation":"uuuu",
    "edtf:inception":"uuuu",
    "geom:area":0.0,
    "geom:bbox":"-74.069971,42.893322,-74.069971,42.893322",
    "geom:latitude":42.893322,
    "geom:longitude":-74.069971,
    "iso:country":"US",
    "sg:address":"7052 Amsterdam Rd",
    "sg:city":"Scotia",
    "sg:classifiers":[
        {
            "category":"Shopping",
            "subcategory":"Used Merchandise",
            "type":"Retail Goods"
        }
    ],
    "sg:owner":"simplegeo",
    "sg:phone":"+1 518 887 3026",
    "sg:postcode":"12302",
    "sg:province":"NY",
    "sg:tags":[
        "antique"
    ],
    "src:geom":"simplegeo",
    "wof:belongsto":[],
    "wof:breaches":[],
    "wof:concordances":{
        "sg:id":"SG_27dtxXF67tyo3w37wjqpUJ_42.893322_-74.069971@1294177022"
    },
    "wof:country":"US",
    "wof:geomhash":"094a0a8f79b71629d174e45bb98cfd15",
    "wof:hierarchy":[],
    "wof:id":555469291,
    "wof:lastmodified":1461030643,
    "wof:name":"Aunt Katie's Attic",
    "wof:parent_id":-1,
    "wof:placetype":"venue",
    "wof:superseded_by":[],
    "wof:supersedes":[],
    "wof:tags":[
        "antique"
    ]
},
  "bbox": [
    -74.069971,
    42.893322,
    -74.069971,
    42.893322
],
  "geometry": {"coordinates":[-74.069971,42.893322],"type":"Point"}
}