{
  "id": 554936923,
  "type": "Feature",
  "properties": {
    "edtf:cessation":"uuuu",
    "edtf:inception":"uuuu",
    "geom:area":0.0,
    "geom:bbox":"-73.459547,41.140822,-73.459547,41.140822",
    "geom:latitude":41.140822,
    "geom:longitude":-73.459547,
    "iso:country":"US",
    "sg:address":"140 Pocconock Trl",
    "sg:city":"New Canaan",
    "sg:classifiers":[
        {
            "category":"Real Estate",
            "subcategory":"Developer",
            "type":"Services"
        }
    ],
    "sg:owner":"simplegeo",
    "sg:phone":"+1 203 972 1007",
    "sg:postcode":"06840",
    "sg:province":"NY",
    "src:geom":"simplegeo",
    "wof:belongsto":[
        85879307,
        102191575,
        404495959,
        85633793,
        85930795,
        102084283,
        85688629,
        85848785
    ],
    "wof:breaches":[],
    "wof:concordances":{
        "sg:id":"SG_4i2VYhKvrJSPsTQ5psb4vn_41.140822_-73.459547@1294177022"
    },
    "wof:country":"US",
    "wof:geomhash":"9347ca3710ae423540270e5cb843e665",
    "wof:hierarchy":[
        {
            "continent_id":102191575,
            "country_id":85633793,
            "county_id":102084283,
            "localadmin_id":404495959,
            "locality_id":85930795,
            "neighbourhood_id":85879307,
            "region_id":85688629,
            "venue_id":554936923
        },
        {
            "country_id":85633793,
            "county_id":102084283,
            "neighbourhood_id":85848785,
            "region_id":85688629,
            "venue_id":554936923
        }
    ],
    "wof:id":554936923,
    "wof:lastmodified":1461017293,
    "wof:name":"North South Development Corp",
    "wof:parent_id":-1,
    "wof:placetype":"venue",
    "wof:superseded_by":[],
    "wof:supersedes":[],
    "wof:tags":[]
},
  "bbox": [
    -73.459547,
    41.140822,
    -73.459547,
    41.140822
],
  "geometry": {"coordinates":[-73.459547,41.140822],"type":"Point"}
}