{
  "id": 554935317,
  "type": "Feature",
  "properties": {
    "edtf:cessation":"uuuu",
    "edtf:inception":"uuuu",
    "geom:area":0.0,
    "geom:bbox":"-73.491547,41.141423,-73.491547,41.141423",
    "geom:latitude":41.141423,
    "geom:longitude":-73.491547,
    "iso:country":"US",
    "sg:address":"147 South Ave",
    "sg:city":"New Canaan",
    "sg:classifiers":[
        {
            "category":"Health Services",
            "subcategory":"Podiatrist",
            "type":"Services"
        }
    ],
    "sg:owner":"simplegeo",
    "sg:phone":"+1 203 966 9906",
    "sg:postcode":"06840",
    "sg:province":"NY",
    "src:geom":"simplegeo",
    "wof:belongsto":[
        85688629,
        85633793,
        85851779,
        102084283
    ],
    "wof:breaches":[],
    "wof:concordances":{
        "sg:id":"SG_3xi6YgNvx5f9kjztH9NG91_41.141423_-73.491547@1294177022"
    },
    "wof:country":"US",
    "wof:geomhash":"497540c153109abadd51aedccfd44c3f",
    "wof:hierarchy":[
        {
            "country_id":85633793,
            "county_id":102084283,
            "neighbourhood_id":85851779,
            "region_id":85688629,
            "venue_id":554935317
        }
    ],
    "wof:id":554935317,
    "wof:lastmodified":1461017053,
    "wof:name":"New Canaan Podiatry Assoc",
    "wof:parent_id":85851779,
    "wof:placetype":"venue",
    "wof:superseded_by":[],
    "wof:supersedes":[],
    "wof:tags":[]
},
  "bbox": [
    -73.491547,
    41.141423,
    -73.491547,
    41.141423
],
  "geometry": {"coordinates":[-73.491547,41.141423],"type":"Point"}
}