{
  "id": 572170859,
  "type": "Feature",
  "properties": {
    "edtf:cessation":"uuuu",
    "edtf:inception":"uuuu",
    "geom:area":0.0,
    "geom:bbox":"-74.835219,40.6474,-74.835219,40.6474",
    "geom:latitude":40.6474,
    "geom:longitude":-74.835219,
    "iso:country":"US",
    "sg:address":"211 53rd St",
    "sg:city":"Brooklyn",
    "sg:classifiers":[
        {
            "category":"Communications",
            "subcategory":"Newspaper",
            "type":"Services"
        }
    ],
    "sg:owner":"simplegeo",
    "sg:phone":"+1 718 492 4582",
    "sg:postcode":"11220",
    "sg:province":"NY",
    "sg:tags":[
        "magazine"
    ],
    "src:geom":"simplegeo",
    "wof:belongsto":[
        85688607,
        85633793,
        85842965,
        102085997
    ],
    "wof:breaches":[],
    "wof:concordances":{
        "sg:id":"SG_0uk0yYMDhl3nlH9HiT9BkD_40.647400_-74.835219@1303262344"
    },
    "wof:country":"US",
    "wof:geomhash":"3b1453c167e40d9973d82c9349a2cf5c",
    "wof:hierarchy":[
        {
            "country_id":85633793,
            "county_id":102085997,
            "neighbourhood_id":85842965,
            "region_id":85688607,
            "venue_id":572170859
        }
    ],
    "wof:id":572170859,
    "wof:lastmodified":1461051434,
    "wof:name":"Macs Magazine Distributor",
    "wof:parent_id":85842965,
    "wof:placetype":"venue",
    "wof:superseded_by":[],
    "wof:supersedes":[],
    "wof:tags":[
        "magazine"
    ]
},
  "bbox": [
    -74.835219,
    40.6474,
    -74.835219,
    40.6474
],
  "geometry": {"coordinates":[-74.835219,40.6474],"type":"Point"}
}