{
  "id": 554940213,
  "type": "Feature",
  "properties": {
    "edtf:cessation":"uuuu",
    "edtf:inception":"uuuu",
    "geom:area":0.0,
    "geom:bbox":"-73.494168,41.146716,-73.494168,41.146716",
    "geom:latitude":41.146716,
    "geom:longitude":-73.494168,
    "iso:country":"US",
    "sg:address":"120 Elm St",
    "sg:city":"New Canaan",
    "sg:classifiers":[
        {
            "category":"Shopping",
            "subcategory":"Clothing, Apparel, & Fashions",
            "type":"Retail Goods"
        }
    ],
    "sg:owner":"simplegeo",
    "sg:phone":"+1 203 966 2466",
    "sg:postcode":"06840",
    "sg:province":"NY",
    "sg:tags":[
        "infant",
        "wear"
    ],
    "src:geom":"simplegeo",
    "wof:belongsto":[
        85688629,
        85633793,
        85851779,
        102084283
    ],
    "wof:breaches":[],
    "wof:concordances":{
        "sg:id":"SG_0n88faHVyBz6r63FNI9T4b_41.146716_-73.494168@1294177022"
    },
    "wof:country":"US",
    "wof:geomhash":"c006718768627d51a1586d92a1082a3a",
    "wof:hierarchy":[
        {
            "country_id":85633793,
            "county_id":102084283,
            "neighbourhood_id":85851779,
            "region_id":85688629,
            "venue_id":554940213
        }
    ],
    "wof:id":554940213,
    "wof:lastmodified":1461017635,
    "wof:name":"Littlejohn's",
    "wof:parent_id":85851779,
    "wof:placetype":"venue",
    "wof:superseded_by":[],
    "wof:supersedes":[],
    "wof:tags":[
        "infant",
        "wear"
    ]
},
  "bbox": [
    -73.494168,
    41.146716,
    -73.494168,
    41.146716
],
  "geometry": {"coordinates":[-73.494168,41.146716],"type":"Point"}
}