{
  "id": 554941291,
  "type": "Feature",
  "properties": {
    "edtf:cessation":"uuuu",
    "edtf:inception":"uuuu",
    "geom:area":0.0,
    "geom:bbox":"-73.475036,41.1252,-73.475036,41.1252",
    "geom:latitude":41.1252,
    "geom:longitude":-73.475036,
    "iso:country":"US",
    "sg:address":"25 Shagbark Dr",
    "sg:city":"New Canaan",
    "sg:classifiers":[
        {
            "category":"Professional",
            "subcategory":"Computer Services",
            "type":"Services"
        }
    ],
    "sg:owner":"simplegeo",
    "sg:phone":"+1   ",
    "sg:postcode":"06840",
    "sg:province":"NY",
    "sg:tags":[
        "resellers",
        "consultant",
        "added",
        "value"
    ],
    "src:geom":"simplegeo",
    "wof:belongsto":[
        85688629,
        85633793,
        85851779,
        102084283
    ],
    "wof:breaches":[],
    "wof:concordances":{
        "sg:id":"SG_7Q43q1p5ZKmh84IGmukPfx_41.125200_-73.475036@1294177022"
    },
    "wof:country":"US",
    "wof:geomhash":"af6650e0206724727e729b17ccf986cb",
    "wof:hierarchy":[
        {
            "country_id":85633793,
            "county_id":102084283,
            "neighbourhood_id":85851779,
            "region_id":85688629,
            "venue_id":554941291
        }
    ],
    "wof:id":554941291,
    "wof:lastmodified":1461017726,
    "wof:name":"Acad Computer Services LLC",
    "wof:parent_id":85851779,
    "wof:placetype":"venue",
    "wof:superseded_by":[],
    "wof:supersedes":[],
    "wof:tags":[
        "resellers",
        "consultant",
        "added",
        "value"
    ]
},
  "bbox": [
    -73.475036,
    41.1252,
    -73.475036,
    41.1252
],
  "geometry": {"coordinates":[-73.475036,41.1252],"type":"Point"}
}