{
  "id": 555073009,
  "type": "Feature",
  "properties": {
    "edtf:cessation":"uuuu",
    "edtf:inception":"uuuu",
    "geom:area":0.0,
    "geom:bbox":"-77.640697,42.29081,-77.640697,42.29081",
    "geom:latitude":42.29081,
    "geom:longitude":-77.640697,
    "iso:country":"US",
    "sg:address":"6020 Marley Rd",
    "sg:city":"Hornell",
    "sg:classifiers":[
        {
            "category":"Real Estate",
            "subcategory":"Real Estate Services",
            "type":"Services"
        }
    ],
    "sg:owner":"simplegeo",
    "sg:phone":"+1 607 324 5513",
    "sg:postcode":"14843",
    "sg:province":"NY",
    "sg:tags":[
        "abstract"
    ],
    "src:geom":"simplegeo",
    "wof:belongsto":[],
    "wof:breaches":[],
    "wof:concordances":{
        "sg:id":"SG_6VZG51RuSE9uKK2kYmM7ys_42.290810_-77.640697@1294177022"
    },
    "wof:country":"US",
    "wof:geomhash":"ec4a9f4d138775d3c4a14358a9d18b48",
    "wof:hierarchy":[],
    "wof:id":555073009,
    "wof:lastmodified":1461021309,
    "wof:name":"Edutele Search & Services",
    "wof:parent_id":420530003,
    "wof:placetype":"venue",
    "wof:superseded_by":[],
    "wof:supersedes":[],
    "wof:tags":[
        "abstract"
    ]
},
  "bbox": [
    -77.640697,
    42.29081,
    -77.640697,
    42.29081
],
  "geometry": {"coordinates":[-77.640697,42.29081],"type":"Point"}
}