{
  "id": 555485579,
  "type": "Feature",
  "properties": {
    "edtf:cessation":"uuuu",
    "edtf:inception":"uuuu",
    "geom:area":0.0,
    "geom:bbox":"-73.862972,41.715766,-73.862972,41.715766",
    "geom:latitude":41.715766,
    "geom:longitude":-73.862972,
    "iso:country":"US",
    "sg:address":"12 Hornbeck Rd",
    "sg:city":"Poughkeepsie",
    "sg:classifiers":[
        {
            "category":"Health Services",
            "subcategory":"Health Practitioner",
            "type":"Services"
        }
    ],
    "sg:owner":"simplegeo",
    "sg:phone":"+1 845 454 8793",
    "sg:postcode":"12603",
    "sg:province":"NY",
    "sg:tags":[
        "psychologist"
    ],
    "src:geom":"simplegeo",
    "wof:belongsto":[],
    "wof:breaches":[],
    "wof:concordances":{
        "sg:id":"SG_4TcjFhkJd2kDWqV826KlLe_41.715766_-73.862972@1294177022"
    },
    "wof:country":"US",
    "wof:geomhash":"42038b29249ec536c36122b962c09301",
    "wof:hierarchy":[],
    "wof:id":555485579,
    "wof:lastmodified":1461031013,
    "wof:name":"Howard M Cohen",
    "wof:parent_id":420528499,
    "wof:placetype":"venue",
    "wof:superseded_by":[],
    "wof:supersedes":[],
    "wof:tags":[
        "psychologist"
    ]
},
  "bbox": [
    -73.862972,
    41.715766,
    -73.862972,
    41.715766
],
  "geometry": {"coordinates":[-73.862972,41.715766],"type":"Point"}
}