{
  "id": 554934391,
  "type": "Feature",
  "properties": {
    "edtf:cessation":"uuuu",
    "edtf:inception":"uuuu",
    "geom:area":0.0,
    "geom:bbox":"-73.496303,41.149632,-73.496303,41.149632",
    "geom:latitude":41.149632,
    "geom:longitude":-73.496303,
    "iso:country":"US",
    "sg:address":"5 Oenoke Ridge",
    "sg:city":"New Canaan",
    "sg:classifiers":[
        {
            "category":"Organizations",
            "subcategory":"Religious Organization",
            "type":"Services"
        }
    ],
    "sg:owner":"simplegeo",
    "sg:phone":"+1 203 966 3913",
    "sg:postcode":"06840",
    "sg:province":"NY",
    "sg:tags":[
        "church"
    ],
    "sg:website":"www.stmichaelslutheran.org",
    "src:geom":"simplegeo",
    "wof:belongsto":[
        85688629,
        85633793,
        85851779,
        102084283
    ],
    "wof:breaches":[],
    "wof:concordances":{
        "sg:id":"SG_6T9TGqSgXvcfr1iWdfMfSF_41.149632_-73.496303@1294177022"
    },
    "wof:country":"US",
    "wof:geomhash":"34f7ce51f3771823fe6f132ee7afdf68",
    "wof:hierarchy":[
        {
            "country_id":85633793,
            "county_id":102084283,
            "neighbourhood_id":85851779,
            "region_id":85688629,
            "venue_id":554934391
        }
    ],
    "wof:id":554934391,
    "wof:lastmodified":1461016932,
    "wof:name":"St Michael's Lutheran Church",
    "wof:parent_id":85851779,
    "wof:placetype":"venue",
    "wof:superseded_by":[],
    "wof:supersedes":[],
    "wof:tags":[
        "church"
    ]
},
  "bbox": [
    -73.496303,
    41.149632,
    -73.496303,
    41.149632
],
  "geometry": {"coordinates":[-73.496303,41.149632],"type":"Point"}
}