{
  "id": 554935857,
  "type": "Feature",
  "properties": {
    "edtf:cessation":"uuuu",
    "edtf:inception":"uuuu",
    "geom:area":0.0,
    "geom:bbox":"-73.715205,41.061394,-73.715205,41.061394",
    "geom:latitude":41.061394,
    "geom:longitude":-73.715205,
    "iso:country":"US",
    "sg:address":"85 Tower Rd",
    "sg:city":"White Plains",
    "sg:classifiers":[
        {
            "category":"Professional",
            "subcategory":"",
            "type":"Services"
        }
    ],
    "sg:owner":"simplegeo",
    "sg:phone":"+1 914 683 3929",
    "sg:postcode":"10604",
    "sg:province":"NY",
    "sg:tags":[
        "establishment"
    ],
    "src:geom":"simplegeo",
    "wof:belongsto":[
        85845073,
        102191575,
        404523361,
        85633793,
        85978735,
        102082373,
        85688543
    ],
    "wof:breaches":[],
    "wof:concordances":{
        "sg:id":"SG_6oZXevdzq9JmyNoGUTJQ7X_41.061394_-73.715205@1294177022"
    },
    "wof:country":"US",
    "wof:geomhash":"e0679dc9187e0caad29c079098839f08",
    "wof:hierarchy":[
        {
            "continent_id":102191575,
            "country_id":85633793,
            "county_id":102082373,
            "localadmin_id":404523361,
            "locality_id":85978735,
            "neighbourhood_id":85845073,
            "region_id":85688543,
            "venue_id":554935857
        }
    ],
    "wof:id":554935857,
    "wof:lastmodified":1461017129,
    "wof:name":"Support Systems Jett",
    "wof:parent_id":85845073,
    "wof:placetype":"venue",
    "wof:superseded_by":[],
    "wof:supersedes":[],
    "wof:tags":[
        "establishment"
    ]
},
  "bbox": [
    -73.715205,
    41.061394,
    -73.715205,
    41.061394
],
  "geometry": {"coordinates":[-73.715205,41.061394],"type":"Point"}
}