{
  "id": 572099149,
  "type": "Feature",
  "properties": {
    "edtf:cessation":"uuuu",
    "edtf:inception":"uuuu",
    "geom:area":0.0,
    "geom:bbox":"-74.438911,41.49923,-74.438911,41.49923",
    "geom:latitude":41.49923,
    "geom:longitude":-74.438911,
    "iso:country":"US",
    "sg:address":"604 Van Burenville Rd",
    "sg:city":"Middletown",
    "sg:classifiers":[
        {
            "category":"Building & Trades",
            "subcategory":"Construction",
            "type":"Services"
        }
    ],
    "sg:owner":"simplegeo",
    "sg:phone":"+1 845 386 3714",
    "sg:postcode":"10940",
    "sg:province":"NY",
    "sg:tags":[
        "mason",
        "masonry",
        "industrial",
        "contractors-commercial",
        "contractor"
    ],
    "src:geom":"simplegeo",
    "wof:belongsto":[],
    "wof:breaches":[],
    "wof:concordances":{
        "sg:id":"SG_1Dx5ITopSsP7yUIQMNEOn4_41.499230_-74.438911@1303262328"
    },
    "wof:country":"US",
    "wof:geomhash":"45b4af228ecbb9ffdf2cdd450d982245",
    "wof:hierarchy":[],
    "wof:id":572099149,
    "wof:lastmodified":1461049945,
    "wof:name":"Bills Masonry",
    "wof:parent_id":420529499,
    "wof:placetype":"venue",
    "wof:superseded_by":[],
    "wof:supersedes":[],
    "wof:tags":[
        "mason",
        "masonry",
        "industrial",
        "contractors-commercial",
        "contractor"
    ]
},
  "bbox": [
    -74.438911,
    41.49923,
    -74.438911,
    41.49923
],
  "geometry": {"coordinates":[-74.438911,41.49923],"type":"Point"}
}