{
  "id": 572170917,
  "type": "Feature",
  "properties": {
    "edtf:cessation":"uuuu",
    "edtf:inception":"uuuu",
    "geom:area":0.0,
    "geom:bbox":"-74.143117,40.643791,-74.143117,40.643791",
    "geom:latitude":40.643791,
    "geom:longitude":-74.143117,
    "iso:country":"US",
    "sg:address":"506 52nd St",
    "sg:city":"Brooklyn",
    "sg:classifiers":[
        {
            "category":"Shopping",
            "subcategory":"Florist",
            "type":"Retail Goods"
        }
    ],
    "sg:owner":"simplegeo",
    "sg:phone":"+1 718 439 3652",
    "sg:postcode":"11220",
    "sg:province":"NY",
    "src:geom":"simplegeo",
    "wof:belongsto":[
        85805819,
        102191575,
        404478127,
        85633793,
        85975307,
        102080719,
        85688607
    ],
    "wof:breaches":[],
    "wof:concordances":{
        "sg:id":"SG_53ZA2zmCnZSJQiCpV85Qr2_40.643791_-74.143117@1303262344"
    },
    "wof:country":"US",
    "wof:geomhash":"ae8861cae18621f79c8aba5ddec2fcec",
    "wof:hierarchy":[
        {
            "continent_id":102191575,
            "country_id":85633793,
            "county_id":102080719,
            "localadmin_id":404478127,
            "locality_id":85975307,
            "neighbourhood_id":85805819,
            "region_id":85688607,
            "venue_id":572170917
        }
    ],
    "wof:id":572170917,
    "wof:lastmodified":1461051436,
    "wof:name":"Angelica Flower Shop",
    "wof:parent_id":85805819,
    "wof:placetype":"venue",
    "wof:superseded_by":[],
    "wof:supersedes":[],
    "wof:tags":[]
},
  "bbox": [
    -74.143117,
    40.643791,
    -74.143117,
    40.643791
],
  "geometry": {"coordinates":[-74.143117,40.643791],"type":"Point"}
}