{
  "id": 555581483,
  "type": "Feature",
  "properties": {
    "edtf:cessation":"uuuu",
    "edtf:inception":"uuuu",
    "geom:area":0.0,
    "geom:bbox":"-78.941534,42.471259,-78.941534,42.471259",
    "geom:latitude":42.471259,
    "geom:longitude":-78.941534,
    "iso:country":"US",
    "sg:address":"255 Aldrich St",
    "sg:city":"Gowanda",
    "sg:classifiers":[
        {
            "category":"Retail",
            "subcategory":"Funeral Services",
            "type":"Services"
        }
    ],
    "sg:owner":"simplegeo",
    "sg:phone":"+1 716 532 1318",
    "sg:postcode":"14070",
    "sg:province":"NY",
    "sg:tags":[
        "director"
    ],
    "src:geom":"simplegeo",
    "wof:belongsto":[],
    "wof:breaches":[],
    "wof:concordances":{
        "sg:id":"SG_5Cai9EosxfV1OsB8bhTw5h_42.471259_-78.941534@1294177022"
    },
    "wof:country":"US",
    "wof:geomhash":"c15adb6db2d66006d151c24e896b4496",
    "wof:hierarchy":[],
    "wof:id":555581483,
    "wof:lastmodified":1461033195,
    "wof:name":"Hills Funeral Chapel",
    "wof:parent_id":-1,
    "wof:placetype":"venue",
    "wof:superseded_by":[],
    "wof:supersedes":[],
    "wof:tags":[
        "director"
    ]
},
  "bbox": [
    -78.941534,
    42.471259,
    -78.941534,
    42.471259
],
  "geometry": {"coordinates":[-78.941534,42.471259],"type":"Point"}
}