{
  "id": 555459105,
  "type": "Feature",
  "properties": {
    "edtf:cessation":"uuuu",
    "edtf:inception":"uuuu",
    "geom:area":0.0,
    "geom:bbox":"-74.986798,44.67582,-74.986798,44.67582",
    "geom:latitude":44.67582,
    "geom:longitude":-74.986798,
    "iso:country":"US",
    "sg:address":"100 Market St",
    "sg:city":"Potsdam",
    "sg:classifiers":[
        {
            "category":"Real Estate",
            "subcategory":"Real Estate Agent",
            "type":"Services"
        }
    ],
    "sg:owner":"simplegeo",
    "sg:phone":"+1 315 265 3361",
    "sg:postcode":"13676",
    "sg:province":"NY",
    "src:geom":"simplegeo",
    "wof:belongsto":[],
    "wof:breaches":[],
    "wof:concordances":{
        "sg:id":"SG_1hJmNGzWLYyDmoELMrpUyR_44.675820_-74.986798@1294177022"
    },
    "wof:country":"US",
    "wof:geomhash":"afc68c0e3dd6839c6ccc998f8215e0fa",
    "wof:hierarchy":[],
    "wof:id":555459105,
    "wof:lastmodified":1461030375,
    "wof:name":"Swept Away",
    "wof:parent_id":420529805,
    "wof:placetype":"venue",
    "wof:superseded_by":[],
    "wof:supersedes":[],
    "wof:tags":[]
},
  "bbox": [
    -74.986798,
    44.67582,
    -74.986798,
    44.67582
],
  "geometry": {"coordinates":[-74.98679799999999,44.67582],"type":"Point"}
}