{
  "id": 554937159,
  "type": "Feature",
  "properties": {
    "edtf:cessation":"uuuu",
    "edtf:inception":"uuuu",
    "geom:area":0.0,
    "geom:bbox":"-73.644496,41.023047,-73.644496,41.023047",
    "geom:latitude":41.023047,
    "geom:longitude":-73.644496,
    "iso:country":"US",
    "sg:address":"7 Upland Dr",
    "sg:city":"Greenwich",
    "sg:classifiers":[
        {
            "category":"Organizations",
            "subcategory":"Membership Organization",
            "type":"Services"
        }
    ],
    "sg:owner":"simplegeo",
    "sg:phone":"+1   ",
    "sg:postcode":"06831",
    "sg:province":"NY",
    "sg:tags":[
        "charitable",
        "grant"
    ],
    "src:geom":"simplegeo",
    "wof:belongsto":[
        85885307,
        102191575,
        404495949,
        85633793,
        85930941,
        102084283,
        85688629,
        420555529
    ],
    "wof:breaches":[],
    "wof:concordances":{
        "sg:id":"SG_6PpXqnD2oizeHOGM13mcUx_41.023047_-73.644496@1294177022"
    },
    "wof:country":"US",
    "wof:geomhash":"c42b4b017e0af55d31169ebf1b76ffbf",
    "wof:hierarchy":[
        {
            "continent_id":102191575,
            "country_id":85633793,
            "county_id":102084283,
            "localadmin_id":404495949,
            "locality_id":85930941,
            "neighbourhood_id":85885307,
            "region_id":85688629,
            "venue_id":554937159
        },
        {
            "continent_id":102191575,
            "country_id":85633793,
            "county_id":102084283,
            "localadmin_id":404495949,
            "locality_id":85930941,
            "neighbourhood_id":420555529,
            "region_id":85688629,
            "venue_id":554937159
        }
    ],
    "wof:id":554937159,
    "wof:lastmodified":1461017324,
    "wof:name":"Mayer Phillips Fmly Ltd Partne",
    "wof:parent_id":-1,
    "wof:placetype":"venue",
    "wof:superseded_by":[],
    "wof:supersedes":[],
    "wof:tags":[
        "charitable",
        "grant"
    ]
},
  "bbox": [
    -73.644496,
    41.023047,
    -73.644496,
    41.023047
],
  "geometry": {"coordinates":[-73.644496,41.023047],"type":"Point"}
}