{
  "id": 554937649,
  "type": "Feature",
  "properties": {
    "edtf:cessation":"uuuu",
    "edtf:inception":"uuuu",
    "geom:area":0.0,
    "geom:bbox":"-74.081348,41.078346,-74.081348,41.078346",
    "geom:latitude":41.078346,
    "geom:longitude":-74.081348,
    "iso:country":"US",
    "sg:address":"715 Saddle River Rd",
    "sg:city":"Monsey",
    "sg:classifiers":[
        {
            "category":"Health Services",
            "subcategory":"Chiropractor",
            "type":"Services"
        }
    ],
    "sg:owner":"simplegeo",
    "sg:phone":"+1 845 425 6900",
    "sg:postcode":"10952",
    "sg:province":"NY",
    "src:geom":"simplegeo",
    "wof:belongsto":[
        85853261,
        102191575,
        404523097,
        85633793,
        85978555,
        102082385,
        85688543
    ],
    "wof:breaches":[],
    "wof:concordances":{
        "sg:id":"SG_1A1dsg9QsYxEVQSNhFq5GI_41.078346_-74.081348@1294177022"
    },
    "wof:country":"US",
    "wof:geomhash":"2de888b36727a3925e074d50c8605368",
    "wof:hierarchy":[
        {
            "continent_id":102191575,
            "country_id":85633793,
            "county_id":102082385,
            "localadmin_id":404523097,
            "locality_id":85978555,
            "neighbourhood_id":85853261,
            "region_id":85688543,
            "venue_id":554937649
        }
    ],
    "wof:id":554937649,
    "wof:lastmodified":1461017399,
    "wof:name":"Chestnut Ridge Chiropractic",
    "wof:parent_id":85853261,
    "wof:placetype":"venue",
    "wof:superseded_by":[],
    "wof:supersedes":[],
    "wof:tags":[]
},
  "bbox": [
    -74.081348,
    41.078346,
    -74.081348,
    41.078346
],
  "geometry": {"coordinates":[-74.08134800000001,41.078346],"type":"Point"}
}