{
  "id": 572171585,
  "type": "Feature",
  "properties": {
    "edtf:cessation":"uuuu",
    "edtf:inception":"uuuu",
    "geom:area":0.0,
    "geom:bbox":"-74.283095,40.653263,-74.283095,40.653263",
    "geom:latitude":40.653263,
    "geom:longitude":-74.283095,
    "iso:country":"US",
    "sg:address":"3021 3rd Ave",
    "sg:city":"Brooklyn",
    "sg:classifiers":[
        {
            "category":"Professional",
            "subcategory":"Computer Services",
            "type":"Services"
        }
    ],
    "sg:owner":"simplegeo",
    "sg:phone":"+1 718 676 6628",
    "sg:postcode":"11232",
    "sg:province":"NY",
    "sg:tags":[
        "stereo",
        "installation"
    ],
    "src:geom":"simplegeo",
    "wof:belongsto":[
        85688607,
        85633793,
        85850963,
        102085995
    ],
    "wof:breaches":[],
    "wof:concordances":{
        "sg:id":"SG_5YSLNEUM0i22On0t2mVaoT_40.653263_-74.283095@1303262348"
    },
    "wof:country":"US",
    "wof:geomhash":"737cf4f9e6713fa5a5fc0576a3a29708",
    "wof:hierarchy":[
        {
            "country_id":85633793,
            "county_id":102085995,
            "neighbourhood_id":85850963,
            "region_id":85688607,
            "venue_id":572171585
        }
    ],
    "wof:id":572171585,
    "wof:lastmodified":1461051458,
    "wof:name":"Auto Sound",
    "wof:parent_id":85850963,
    "wof:placetype":"venue",
    "wof:superseded_by":[],
    "wof:supersedes":[],
    "wof:tags":[
        "stereo",
        "installation"
    ]
},
  "bbox": [
    -74.283095,
    40.653263,
    -74.283095,
    40.653263
],
  "geometry": {"coordinates":[-74.283095,40.653263],"type":"Point"}
}