{
  "id": 554939241,
  "type": "Feature",
  "properties": {
    "edtf:cessation":"uuuu",
    "edtf:inception":"uuuu",
    "geom:area":0.0,
    "geom:bbox":"-73.486503,41.147699,-73.486503,41.147699",
    "geom:latitude":41.147699,
    "geom:longitude":-73.486503,
    "iso:country":"US",
    "sg:address":"86 Summer St",
    "sg:city":"New Canaan",
    "sg:classifiers":[
        {
            "category":"Arts & Performance",
            "subcategory":"Theater",
            "type":"Entertainment"
        }
    ],
    "sg:owner":"simplegeo",
    "sg:phone":"+1 203 972 7271",
    "sg:postcode":"06840",
    "sg:province":"NY",
    "sg:tags":[
        "band",
        "orchestra"
    ],
    "sg:website":"www.thewingnuts.com",
    "src:geom":"simplegeo",
    "wof:belongsto":[
        85688629,
        85633793,
        85851779,
        102084283
    ],
    "wof:breaches":[],
    "wof:concordances":{
        "sg:id":"SG_0ZsVG3E55GYH84g3cAzp6x_41.147699_-73.486503@1294177022"
    },
    "wof:country":"US",
    "wof:geomhash":"764175812cbc033c84b5d9bc4a8e03b9",
    "wof:hierarchy":[
        {
            "country_id":85633793,
            "county_id":102084283,
            "neighbourhood_id":85851779,
            "region_id":85688629,
            "venue_id":554939241
        }
    ],
    "wof:id":554939241,
    "wof:lastmodified":1461017542,
    "wof:name":"Wingnuts",
    "wof:parent_id":85851779,
    "wof:placetype":"venue",
    "wof:superseded_by":[],
    "wof:supersedes":[],
    "wof:tags":[
        "band",
        "orchestra"
    ]
},
  "bbox": [
    -73.486503,
    41.147699,
    -73.486503,
    41.147699
],
  "geometry": {"coordinates":[-73.486503,41.147699],"type":"Point"}
}