{
  "id": 554939895,
  "type": "Feature",
  "properties": {
    "edtf:cessation":"uuuu",
    "edtf:inception":"uuuu",
    "geom:area":0.0,
    "geom:bbox":"-74.070038,41.092486,-74.070038,41.092486",
    "geom:latitude":41.092486,
    "geom:longitude":-74.070038,
    "iso:country":"US",
    "sg:address":"15 Margetts Rd",
    "sg:city":"Monsey",
    "sg:classifiers":[
        {
            "category":"Organizations",
            "subcategory":"Religious Organization",
            "type":"Services"
        }
    ],
    "sg:owner":"simplegeo",
    "sg:phone":"+1 845 573 9080",
    "sg:postcode":"10952",
    "sg:province":"NY",
    "sg:tags":[
        "church"
    ],
    "src:geom":"simplegeo",
    "wof:belongsto":[
        85853261,
        102191575,
        404523097,
        85633793,
        85978555,
        102082385,
        85688543
    ],
    "wof:breaches":[],
    "wof:concordances":{
        "sg:id":"SG_5l3NWiWtZ25fNszuMRiKvg_41.092486_-74.070038@1294177022"
    },
    "wof:country":"US",
    "wof:geomhash":"8826b7743e1b343b7da8c4f6434d083a",
    "wof:hierarchy":[
        {
            "continent_id":102191575,
            "country_id":85633793,
            "county_id":102082385,
            "localadmin_id":404523097,
            "locality_id":85978555,
            "neighbourhood_id":85853261,
            "region_id":85688543,
            "venue_id":554939895
        }
    ],
    "wof:id":554939895,
    "wof:lastmodified":1461017605,
    "wof:name":"Christian Community",
    "wof:parent_id":85853261,
    "wof:placetype":"venue",
    "wof:superseded_by":[],
    "wof:supersedes":[],
    "wof:tags":[
        "church"
    ]
},
  "bbox": [
    -74.070038,
    41.092486,
    -74.070038,
    41.092486
],
  "geometry": {"coordinates":[-74.070038,41.092486],"type":"Point"}
}