{
  "id": 554936767,
  "type": "Feature",
  "properties": {
    "edtf:cessation":"uuuu",
    "edtf:inception":"uuuu",
    "geom:area":0.0,
    "geom:bbox":"-73.515783,41.14498,-73.515783,41.14498",
    "geom:latitude":41.14498,
    "geom:longitude":-73.515783,
    "iso:country":"US",
    "sg:address":"232 Bridle Path Ln",
    "sg:city":"New Canaan",
    "sg:classifiers":[
        {
            "category":"Organizations",
            "subcategory":"Labor Organization",
            "type":"Services"
        }
    ],
    "sg:owner":"simplegeo",
    "sg:phone":"+1   ",
    "sg:postcode":"06840",
    "sg:province":"NY",
    "src:geom":"simplegeo",
    "wof:belongsto":[
        85688629,
        85633793,
        85842701,
        102084283
    ],
    "wof:breaches":[],
    "wof:concordances":{
        "sg:id":"SG_28wMkKYMEBOTXbf1PlqcTG_41.144980_-73.515783@1294177022"
    },
    "wof:country":"US",
    "wof:geomhash":"1cec340362c793c1a10ec479c7350c43",
    "wof:hierarchy":[
        {
            "country_id":85633793,
            "county_id":102084283,
            "neighbourhood_id":85842701,
            "region_id":85688629,
            "venue_id":554936767
        }
    ],
    "wof:id":554936767,
    "wof:lastmodified":1461017273,
    "wof:name":"Julie Brotherhood Taylor",
    "wof:parent_id":85842701,
    "wof:placetype":"venue",
    "wof:superseded_by":[],
    "wof:supersedes":[],
    "wof:tags":[]
},
  "bbox": [
    -73.515783,
    41.14498,
    -73.515783,
    41.14498
],
  "geometry": {"coordinates":[-73.515783,41.14498],"type":"Point"}
}