{
  "id": 572176379,
  "type": "Feature",
  "properties": {
    "edtf:cessation":"uuuu",
    "edtf:inception":"uuuu",
    "geom:area":0.0,
    "geom:bbox":"-73.461141,43.883868,-73.461141,43.883868",
    "geom:latitude":43.883868,
    "geom:longitude":-73.461141,
    "iso:country":"US",
    "sg:address":"120 Warner Hill Rd",
    "sg:city":"Ticonderoga",
    "sg:classifiers":[
        {
            "category":"Insurance",
            "subcategory":"Hazard Insurance",
            "type":"Services"
        }
    ],
    "sg:owner":"simplegeo",
    "sg:phone":"+1 518 503 5022",
    "sg:postcode":"12883",
    "sg:province":"NY",
    "src:geom":"simplegeo",
    "wof:belongsto":[
        85688763,
        85633793,
        85868815,
        102080765
    ],
    "wof:breaches":[],
    "wof:concordances":{
        "sg:id":"SG_73gyVxjaKUcqiddByYMUws_43.883868_-73.461141@1303262390"
    },
    "wof:country":"US",
    "wof:geomhash":"7cdc6428968a375a3894ef901f51098c",
    "wof:hierarchy":[
        {
            "country_id":85633793,
            "county_id":102080765,
            "neighbourhood_id":85868815,
            "region_id":85688763,
            "venue_id":572176379
        }
    ],
    "wof:id":572176379,
    "wof:lastmodified":1461051614,
    "wof:name":"Robert L Fuller",
    "wof:parent_id":85868815,
    "wof:placetype":"venue",
    "wof:superseded_by":[],
    "wof:supersedes":[],
    "wof:tags":[]
},
  "bbox": [
    -73.461141,
    43.883868,
    -73.461141,
    43.883868
],
  "geometry": {"coordinates":[-73.461141,43.883868],"type":"Point"}
}