{
  "id": 554934135,
  "type": "Feature",
  "properties": {
    "edtf:cessation":"uuuu",
    "edtf:inception":"uuuu",
    "geom:area":0.0,
    "geom:bbox":"-73.46072,44.044539,-73.46072,44.044539",
    "geom:latitude":44.044539,
    "geom:longitude":-73.46072,
    "iso:country":"US",
    "sg:address":"14 Elizabeth St",
    "sg:city":"Port Henry",
    "sg:classifiers":[
        {
            "category":"Building & Trades",
            "subcategory":"Plumbing",
            "type":"Services"
        }
    ],
    "sg:owner":"simplegeo",
    "sg:phone":"+1 518 546 8252",
    "sg:postcode":"12974",
    "sg:province":"NY",
    "sg:tags":[
        "contractor"
    ],
    "src:geom":"simplegeo",
    "wof:belongsto":[
        85688763,
        85633793,
        85857981,
        102080765
    ],
    "wof:breaches":[],
    "wof:concordances":{
        "sg:id":"SG_6FEmROc422avGs1Sma2kjh_44.044539_-73.460720@1294177022"
    },
    "wof:country":"US",
    "wof:geomhash":"2f6f0e3bc40b5a28a9ef1ac11a213412",
    "wof:hierarchy":[
        {
            "country_id":85633793,
            "county_id":102080765,
            "neighbourhood_id":85857981,
            "region_id":85688763,
            "venue_id":554934135
        }
    ],
    "wof:id":554934135,
    "wof:lastmodified":1461016904,
    "wof:name":"Salerno & Son Plumbing & Htg",
    "wof:parent_id":85857981,
    "wof:placetype":"venue",
    "wof:superseded_by":[],
    "wof:supersedes":[],
    "wof:tags":[
        "contractor"
    ]
},
  "bbox": [
    -73.46072,
    44.044539,
    -73.46072,
    44.044539
],
  "geometry": {"coordinates":[-73.46071999999999,44.044539],"type":"Point"}
}