{
  "id": 554935031,
  "type": "Feature",
  "properties": {
    "edtf:cessation":"uuuu",
    "edtf:inception":"uuuu",
    "geom:area":0.0,
    "geom:bbox":"-73.686525,41.047202,-73.686525,41.047202",
    "geom:latitude":41.047202,
    "geom:longitude":-73.686525,
    "iso:country":"US",
    "sg:address":"33 Arrowwood Cir",
    "sg:city":"Port Chester",
    "sg:classifiers":[
        {
            "category":"Real Estate",
            "subcategory":"Real Estate Agent",
            "type":"Services"
        }
    ],
    "sg:owner":"simplegeo",
    "sg:phone":"+1 914 937 7771",
    "sg:postcode":"10573",
    "sg:province":"NY",
    "src:geom":"simplegeo",
    "wof:belongsto":[
        85845073,
        102191575,
        404523361,
        85633793,
        85978735,
        102082373,
        85688543
    ],
    "wof:breaches":[],
    "wof:concordances":{
        "sg:id":"SG_5dRPar0ZsiGW3AtLcdb30D_41.047202_-73.686525@1294177022"
    },
    "wof:country":"US",
    "wof:geomhash":"51376da1e6d8643180d765681b15f8c1",
    "wof:hierarchy":[
        {
            "continent_id":102191575,
            "country_id":85633793,
            "county_id":102082373,
            "localadmin_id":404523361,
            "locality_id":85978735,
            "neighbourhood_id":85845073,
            "region_id":85688543,
            "venue_id":554935031
        }
    ],
    "wof:id":554935031,
    "wof:lastmodified":1461017013,
    "wof:name":"K & L Properties Inc",
    "wof:parent_id":85845073,
    "wof:placetype":"venue",
    "wof:superseded_by":[],
    "wof:supersedes":[],
    "wof:tags":[]
},
  "bbox": [
    -73.686525,
    41.047202,
    -73.686525,
    41.047202
],
  "geometry": {"coordinates":[-73.686525,41.047202],"type":"Point"}
}