{
  "id": 555657469,
  "type": "Feature",
  "properties": {
    "edtf:cessation":"uuuu",
    "edtf:inception":"uuuu",
    "geom:area":0.0,
    "geom:bbox":"-73.856816,40.89594,-73.856816,40.89594",
    "geom:latitude":40.89594,
    "geom:longitude":-73.856816,
    "iso:country":"US",
    "sg:address":"693 E 236th St",
    "sg:city":"Bronx",
    "sg:classifiers":[
        {
            "category":"Organizations",
            "subcategory":"Religious Organization",
            "type":"Services"
        }
    ],
    "sg:owner":"simplegeo",
    "sg:phone":"+1 718 324 2471",
    "sg:postcode":"10466",
    "sg:province":"NY",
    "sg:tags":[
        "clergy"
    ],
    "src:geom":"simplegeo",
    "wof:belongsto":[],
    "wof:breaches":[],
    "wof:concordances":{
        "sg:id":"SG_1CZ9IwVaytjwHNEvKOE7jR_40.895940_-73.856816@1294177022"
    },
    "wof:country":"US",
    "wof:geomhash":"3f31e6f3bc236ad88bca829d9499bdc4",
    "wof:hierarchy":[],
    "wof:id":555657469,
    "wof:lastmodified":1461034767,
    "wof:name":"Benj W Helfgott",
    "wof:parent_id":-1,
    "wof:placetype":"venue",
    "wof:superseded_by":[],
    "wof:supersedes":[],
    "wof:tags":[
        "clergy"
    ]
},
  "bbox": [
    -73.856816,
    40.89594,
    -73.856816,
    40.89594
],
  "geometry": {"coordinates":[-73.85681599999999,40.89594],"type":"Point"}
}