{
  "id": 572170727,
  "type": "Feature",
  "properties": {
    "edtf:cessation":"uuuu",
    "edtf:inception":"uuuu",
    "geom:area":0.0,
    "geom:bbox":"-74.273325,40.645431,-74.273325,40.645431",
    "geom:latitude":40.645431,
    "geom:longitude":-74.273325,
    "iso:country":"US",
    "sg:address":"145 58th St",
    "sg:city":"Brooklyn",
    "sg:classifiers":[
        {
            "category":"Home & Garden",
            "subcategory":"Furniture",
            "type":"Retail Goods"
        }
    ],
    "sg:owner":"simplegeo",
    "sg:phone":"+1 718 439 1108",
    "sg:postcode":"11220",
    "sg:province":"NY",
    "sg:tags":[
        "store"
    ],
    "src:geom":"simplegeo",
    "wof:belongsto":[
        85688607,
        85633793,
        85850963,
        102085995
    ],
    "wof:breaches":[],
    "wof:concordances":{
        "sg:id":"SG_0C91NyFUe3Y5BDREI18tfP_40.645431_-74.273325@1303262344"
    },
    "wof:country":"US",
    "wof:geomhash":"da3c988c0dcea8296e01d2df4851aa80",
    "wof:hierarchy":[
        {
            "country_id":85633793,
            "county_id":102085995,
            "neighbourhood_id":85850963,
            "region_id":85688607,
            "venue_id":572170727
        }
    ],
    "wof:id":572170727,
    "wof:lastmodified":1461051431,
    "wof:name":"Best Designs",
    "wof:parent_id":85850963,
    "wof:placetype":"venue",
    "wof:superseded_by":[],
    "wof:supersedes":[],
    "wof:tags":[
        "store"
    ]
},
  "bbox": [
    -74.273325,
    40.645431,
    -74.273325,
    40.645431
],
  "geometry": {"coordinates":[-74.273325,40.645431],"type":"Point"}
}