{
  "id": 554937573,
  "type": "Feature",
  "properties": {
    "edtf:cessation":"uuuu",
    "edtf:inception":"uuuu",
    "geom:area":0.0,
    "geom:bbox":"-73.650502,41.016085,-73.650502,41.016085",
    "geom:latitude":41.016085,
    "geom:longitude":-73.650502,
    "iso:country":"US",
    "sg:address":"21 Weaver St",
    "sg:city":"Greenwich",
    "sg:classifiers":[
        {
            "category":"Professional",
            "subcategory":"Art Services",
            "type":"Services"
        }
    ],
    "sg:owner":"simplegeo",
    "sg:phone":"+1   ",
    "sg:postcode":"06831",
    "sg:province":"NY",
    "sg:tags":[
        "photography",
        "commercial"
    ],
    "src:geom":"simplegeo",
    "wof:belongsto":[
        85885307,
        102191575,
        404495949,
        85633793,
        85930941,
        102084283,
        85688629,
        420555461,
        85930937
    ],
    "wof:breaches":[],
    "wof:concordances":{
        "sg:id":"SG_7MYvUKzJFYs11iyewBzuZX_41.016085_-73.650502@1294177022"
    },
    "wof:country":"US",
    "wof:geomhash":"ed973e988a728a4d07c48755a4bb8b1c",
    "wof:hierarchy":[
        {
            "continent_id":102191575,
            "country_id":85633793,
            "county_id":102084283,
            "localadmin_id":404495949,
            "locality_id":85930941,
            "neighbourhood_id":85885307,
            "region_id":85688629,
            "venue_id":554937573
        },
        {
            "continent_id":102191575,
            "country_id":85633793,
            "county_id":102084283,
            "localadmin_id":404495949,
            "locality_id":85930937,
            "neighbourhood_id":420555461,
            "region_id":85688629,
            "venue_id":554937573
        }
    ],
    "wof:id":554937573,
    "wof:lastmodified":1461017389,
    "wof:name":"Kalisher Simpson",
    "wof:parent_id":-1,
    "wof:placetype":"venue",
    "wof:superseded_by":[],
    "wof:supersedes":[],
    "wof:tags":[
        "photography",
        "commercial"
    ]
},
  "bbox": [
    -73.650502,
    41.016085,
    -73.650502,
    41.016085
],
  "geometry": {"coordinates":[-73.650502,41.016085],"type":"Point"}
}