{
  "id": 554935643,
  "type": "Feature",
  "properties": {
    "edtf:cessation":"uuuu",
    "edtf:inception":"uuuu",
    "geom:area":0.0,
    "geom:bbox":"-73.492048,41.148987,-73.492048,41.148987",
    "geom:latitude":41.148987,
    "geom:longitude":-73.492048,
    "iso:country":"US",
    "sg:address":"2 Locust Ave",
    "sg:city":"New Canaan",
    "sg:classifiers":[
        {
            "category":"Shopping",
            "subcategory":"Used Merchandise",
            "type":"Retail Goods"
        }
    ],
    "sg:owner":"simplegeo",
    "sg:phone":"+1 203 966 2361",
    "sg:postcode":"06840",
    "sg:province":"NY",
    "sg:tags":[
        "shop",
        "thrift"
    ],
    "src:geom":"simplegeo",
    "wof:belongsto":[
        85688629,
        85633793,
        85851779,
        102084283
    ],
    "wof:breaches":[],
    "wof:concordances":{
        "sg:id":"SG_1e869bw7kcFop7hx2XtSqs_41.148987_-73.492048@1294177022"
    },
    "wof:country":"US",
    "wof:geomhash":"d4804a19815f2d5dfe2f0143332fd4f1",
    "wof:hierarchy":[
        {
            "country_id":85633793,
            "county_id":102084283,
            "neighbourhood_id":85851779,
            "region_id":85688629,
            "venue_id":554935643
        }
    ],
    "wof:id":554935643,
    "wof:lastmodified":1461017102,
    "wof:name":"Thrift Shop Of New Canaan",
    "wof:parent_id":85851779,
    "wof:placetype":"venue",
    "wof:superseded_by":[],
    "wof:supersedes":[],
    "wof:tags":[
        "shop",
        "thrift"
    ]
},
  "bbox": [
    -73.492048,
    41.148987,
    -73.492048,
    41.148987
],
  "geometry": {"coordinates":[-73.492048,41.148987],"type":"Point"}
}