{
  "id": 554935919,
  "type": "Feature",
  "properties": {
    "edtf:cessation":"uuuu",
    "edtf:inception":"uuuu",
    "geom:area":0.0,
    "geom:bbox":"-73.657618,41.012644,-73.657618,41.012644",
    "geom:latitude":41.012644,
    "geom:longitude":-73.657618,
    "iso:country":"US",
    "sg:address":"216 Madison Ave",
    "sg:city":"Port Chester",
    "sg:classifiers":[
        {
            "category":"Building & Trades",
            "subcategory":"Construction",
            "type":"Services"
        }
    ],
    "sg:owner":"simplegeo",
    "sg:phone":"+1 914 937 2954",
    "sg:postcode":"10573",
    "sg:province":"NY",
    "sg:tags":[
        "painter"
    ],
    "src:geom":"simplegeo",
    "wof:belongsto":[
        85885307,
        102191575,
        404495949,
        85633793,
        85930941,
        102084283,
        85688629
    ],
    "wof:breaches":[],
    "wof:concordances":{
        "sg:id":"SG_02kuadZ43X84ZD47PdcA21_41.012644_-73.657618@1294177022"
    },
    "wof:country":"US",
    "wof:geomhash":"55800bc118bbb2747784d9c70ed919bf",
    "wof:hierarchy":[
        {
            "continent_id":102191575,
            "country_id":85633793,
            "county_id":102084283,
            "localadmin_id":404495949,
            "locality_id":85930941,
            "neighbourhood_id":85885307,
            "region_id":85688629,
            "venue_id":554935919
        }
    ],
    "wof:id":554935919,
    "wof:lastmodified":1461017136,
    "wof:name":"Professional Painting",
    "wof:parent_id":85885307,
    "wof:placetype":"venue",
    "wof:superseded_by":[],
    "wof:supersedes":[],
    "wof:tags":[
        "painter"
    ]
},
  "bbox": [
    -73.657618,
    41.012644,
    -73.657618,
    41.012644
],
  "geometry": {"coordinates":[-73.657618,41.012644],"type":"Point"}
}