{
  "id": 554936993,
  "type": "Feature",
  "properties": {
    "edtf:cessation":"uuuu",
    "edtf:inception":"uuuu",
    "geom:area":0.0,
    "geom:bbox":"-73.488245,41.153297,-73.488245,41.153297",
    "geom:latitude":41.153297,
    "geom:longitude":-73.488245,
    "iso:country":"US",
    "sg:address":"181 Brushy Ridge Rd",
    "sg:city":"New Canaan",
    "sg:classifiers":[
        {
            "category":"Professional",
            "subcategory":"Management & Consulting",
            "type":"Services"
        }
    ],
    "sg:owner":"simplegeo",
    "sg:phone":"+1   ",
    "sg:postcode":"06840",
    "sg:province":"NY",
    "sg:tags":[
        "business"
    ],
    "src:geom":"simplegeo",
    "wof:belongsto":[
        85688629,
        85633793,
        85851779,
        102084283
    ],
    "wof:breaches":[],
    "wof:concordances":{
        "sg:id":"SG_3YEUt3kZgD3SMFds1V9eyY_41.153297_-73.488245@1294177022"
    },
    "wof:country":"US",
    "wof:geomhash":"72fea4b82429f549ec94a4770272d815",
    "wof:hierarchy":[
        {
            "country_id":85633793,
            "county_id":102084283,
            "neighbourhood_id":85851779,
            "region_id":85688629,
            "venue_id":554936993
        }
    ],
    "wof:id":554936993,
    "wof:lastmodified":1461017303,
    "wof:name":"Logan Group LLC",
    "wof:parent_id":85851779,
    "wof:placetype":"venue",
    "wof:superseded_by":[],
    "wof:supersedes":[],
    "wof:tags":[
        "business"
    ]
},
  "bbox": [
    -73.488245,
    41.153297,
    -73.488245,
    41.153297
],
  "geometry": {"coordinates":[-73.48824500000001,41.153297],"type":"Point"}
}