{
  "id": 554935493,
  "type": "Feature",
  "properties": {
    "edtf:cessation":"uuuu",
    "edtf:inception":"uuuu",
    "geom:area":0.0,
    "geom:bbox":"-73.495137,41.146715,-73.495137,41.146715",
    "geom:latitude":41.146715,
    "geom:longitude":-73.495137,
    "iso:country":"US",
    "sg:address":"71 Elm St",
    "sg:city":"New Canaan",
    "sg:classifiers":[
        {
            "category":"Professional",
            "subcategory":"Lawyer & Legal Services",
            "type":"Services"
        }
    ],
    "sg:owner":"simplegeo",
    "sg:phone":"+1 203 966 9911",
    "sg:postcode":"06840",
    "sg:province":"NY",
    "sg:tags":[
        "attorney"
    ],
    "src:geom":"simplegeo",
    "wof:belongsto":[
        85688629,
        85633793,
        85851779,
        102084283
    ],
    "wof:breaches":[],
    "wof:concordances":{
        "sg:id":"SG_21cONUtPnV11EhsOQ0B6dR_41.146715_-73.495137@1294177022"
    },
    "wof:country":"US",
    "wof:geomhash":"18561e2cf19ead0a293acd9ac73ab9d0",
    "wof:hierarchy":[
        {
            "country_id":85633793,
            "county_id":102084283,
            "neighbourhood_id":85851779,
            "region_id":85688629,
            "venue_id":554935493
        }
    ],
    "wof:id":554935493,
    "wof:lastmodified":1461017075,
    "wof:name":"Chanler Law Group",
    "wof:parent_id":85851779,
    "wof:placetype":"venue",
    "wof:superseded_by":[],
    "wof:supersedes":[],
    "wof:tags":[
        "attorney"
    ]
},
  "bbox": [
    -73.495137,
    41.146715,
    -73.495137,
    41.146715
],
  "geometry": {"coordinates":[-73.495137,41.146715],"type":"Point"}
}