{
  "id": 554934203,
  "type": "Feature",
  "properties": {
    "edtf:cessation":"uuuu",
    "edtf:inception":"uuuu",
    "geom:area":0.0,
    "geom:bbox":"-73.49494,41.136613,-73.49494,41.136613",
    "geom:latitude":41.136613,
    "geom:longitude":-73.49494,
    "iso:country":"US",
    "sg:address":"68 Old Stamford Rd",
    "sg:city":"New Canaan",
    "sg:classifiers":[
        {
            "category":"Professional",
            "subcategory":"Management & Consulting",
            "type":"Services"
        }
    ],
    "sg:owner":"simplegeo",
    "sg:phone":"+1   ",
    "sg:postcode":"06840",
    "sg:province":"NY",
    "src:geom":"simplegeo",
    "wof:belongsto":[
        85688629,
        85633793,
        85851779,
        102084283
    ],
    "wof:breaches":[],
    "wof:concordances":{
        "sg:id":"SG_56NCF8fg4mlpqM4R6MsKWv_41.136613_-73.494940@1294177022"
    },
    "wof:country":"US",
    "wof:geomhash":"58ba8df0768449dbb5c35bcf496da134",
    "wof:hierarchy":[
        {
            "country_id":85633793,
            "county_id":102084283,
            "neighbourhood_id":85851779,
            "region_id":85688629,
            "venue_id":554934203
        }
    ],
    "wof:id":554934203,
    "wof:lastmodified":1461016911,
    "wof:name":"Gary S Gruber",
    "wof:parent_id":85851779,
    "wof:placetype":"venue",
    "wof:superseded_by":[],
    "wof:supersedes":[],
    "wof:tags":[]
},
  "bbox": [
    -73.49494,
    41.136613,
    -73.49494,
    41.136613
],
  "geometry": {"coordinates":[-73.49494,41.136613],"type":"Point"}
}