{
  "id": 554936423,
  "type": "Feature",
  "properties": {
    "edtf:cessation":"uuuu",
    "edtf:inception":"uuuu",
    "geom:area":0.0,
    "geom:bbox":"-73.497975,41.157269,-73.497975,41.157269",
    "geom:latitude":41.157269,
    "geom:longitude":-73.497975,
    "iso:country":"US",
    "sg:address":"24 Rural Dr",
    "sg:city":"New Canaan",
    "sg:classifiers":[
        {
            "category":"Insurance",
            "subcategory":"Insurance Agent",
            "type":"Services"
        }
    ],
    "sg:owner":"simplegeo",
    "sg:phone":"+1 203 972 1585",
    "sg:postcode":"06840",
    "sg:province":"NY",
    "src:geom":"simplegeo",
    "wof:belongsto":[
        85688629,
        85633793,
        85851779,
        102084283
    ],
    "wof:breaches":[],
    "wof:concordances":{
        "sg:id":"SG_66fOGQVjHZQlHD0fXgTaSH_41.157269_-73.497975@1294177022"
    },
    "wof:country":"US",
    "wof:geomhash":"2489d20dad3508157a8179d385afe57c",
    "wof:hierarchy":[
        {
            "country_id":85633793,
            "county_id":102084283,
            "neighbourhood_id":85851779,
            "region_id":85688629,
            "venue_id":554936423
        }
    ],
    "wof:id":554936423,
    "wof:lastmodified":1461017219,
    "wof:name":"Kabele & Associates LLC",
    "wof:parent_id":85851779,
    "wof:placetype":"venue",
    "wof:superseded_by":[],
    "wof:supersedes":[],
    "wof:tags":[]
},
  "bbox": [
    -73.497975,
    41.157269,
    -73.497975,
    41.157269
],
  "geometry": {"coordinates":[-73.497975,41.157269],"type":"Point"}
}