{
  "id": 554936713,
  "type": "Feature",
  "properties": {
    "edtf:cessation":"uuuu",
    "edtf:inception":"uuuu",
    "geom:area":0.0,
    "geom:bbox":"-73.535292,41.180526,-73.535292,41.180526",
    "geom:latitude":41.180526,
    "geom:longitude":-73.535292,
    "iso:country":"US",
    "sg:address":"456 Lost District Dr",
    "sg:city":"New Canaan",
    "sg:classifiers":[
        {
            "category":"Professional",
            "subcategory":"Management & Consulting",
            "type":"Services"
        }
    ],
    "sg:owner":"simplegeo",
    "sg:phone":"+1 203 972 4359",
    "sg:postcode":"06840",
    "sg:province":"NY",
    "sg:tags":[
        "consultant"
    ],
    "src:geom":"simplegeo",
    "wof:belongsto":[],
    "wof:breaches":[],
    "wof:concordances":{
        "sg:id":"SG_5HIKZjvZMYtNwF5imBb0YL_41.180526_-73.535292@1294177022"
    },
    "wof:country":"US",
    "wof:geomhash":"8f686542a71a3d196c0f2ba3f0d16adb",
    "wof:hierarchy":[],
    "wof:id":554936713,
    "wof:lastmodified":1461017265,
    "wof:name":"Nutmeg Systems",
    "wof:parent_id":-1,
    "wof:placetype":"venue",
    "wof:superseded_by":[],
    "wof:supersedes":[],
    "wof:tags":[
        "consultant"
    ]
},
  "bbox": [
    -73.535292,
    41.180526,
    -73.535292,
    41.180526
],
  "geometry": {"coordinates":[-73.535292,41.180526],"type":"Point"}
}