{
  "id": 554937355,
  "type": "Feature",
  "properties": {
    "edtf:cessation":"uuuu",
    "edtf:inception":"uuuu",
    "geom:area":0.0,
    "geom:bbox":"-79.712835,42.265919,-79.712835,42.265919",
    "geom:latitude":42.265919,
    "geom:longitude":-79.712835,
    "iso:country":"US",
    "sg:address":"1 Goodrich St",
    "sg:city":"Ripley",
    "sg:classifiers":[
        {
            "category":"Health Services",
            "subcategory":"Doctor",
            "type":"Services"
        }
    ],
    "sg:owner":"simplegeo",
    "sg:phone":"+1 716 736 6300",
    "sg:postcode":"14775",
    "sg:province":"NY",
    "sg:tags":[
        "physician",
        "surgeon"
    ],
    "src:geom":"simplegeo",
    "wof:belongsto":[
        85688481,
        85633793,
        85850957,
        102080955
    ],
    "wof:breaches":[],
    "wof:concordances":{
        "sg:id":"SG_5WdKfK0rSGwWXFaC6vQu4t_42.265919_-79.712835@1294177022"
    },
    "wof:country":"US",
    "wof:geomhash":"ef60fb52717c1c3b428a192166b25f6c",
    "wof:hierarchy":[
        {
            "country_id":85633793,
            "county_id":102080955,
            "neighbourhood_id":85850957,
            "region_id":85688481,
            "venue_id":554937355
        }
    ],
    "wof:id":554937355,
    "wof:lastmodified":1461017357,
    "wof:name":"Grant W Stephenson MD",
    "wof:parent_id":85850957,
    "wof:placetype":"venue",
    "wof:superseded_by":[],
    "wof:supersedes":[],
    "wof:tags":[
        "physician",
        "surgeon"
    ]
},
  "bbox": [
    -79.712835,
    42.265919,
    -79.712835,
    42.265919
],
  "geometry": {"coordinates":[-79.712835,42.265919],"type":"Point"}
}