{
  "id": 554934171,
  "type": "Feature",
  "properties": {
    "edtf:cessation":"uuuu",
    "edtf:inception":"uuuu",
    "geom:area":0.0,
    "geom:bbox":"-73.493071,41.148268,-73.493071,41.148268",
    "geom:latitude":41.148268,
    "geom:longitude":-73.493071,
    "iso:country":"US",
    "sg:address":"80 Main St",
    "sg:city":"New Canaan",
    "sg:classifiers":[
        {
            "category":"Home & Garden",
            "subcategory":"Home Furnishings",
            "type":"Retail Goods"
        }
    ],
    "sg:owner":"simplegeo",
    "sg:phone":"+1 203 972 1610",
    "sg:postcode":"06840",
    "sg:province":"NY",
    "sg:tags":[
        "pottery"
    ],
    "src:geom":"simplegeo",
    "wof:belongsto":[
        85688629,
        85633793,
        85851779,
        102084283
    ],
    "wof:breaches":[],
    "wof:concordances":{
        "sg:id":"SG_6aDVNMc2noPTD3VvBDHicC_41.148268_-73.493071@1294177022"
    },
    "wof:country":"US",
    "wof:geomhash":"9cb82762f4ec0d49b2541124675f39ba",
    "wof:hierarchy":[
        {
            "country_id":85633793,
            "county_id":102084283,
            "neighbourhood_id":85851779,
            "region_id":85688629,
            "venue_id":554934171
        }
    ],
    "wof:id":554934171,
    "wof:lastmodified":1461016907,
    "wof:name":"Art & Soul",
    "wof:parent_id":85851779,
    "wof:placetype":"venue",
    "wof:superseded_by":[],
    "wof:supersedes":[],
    "wof:tags":[
        "pottery"
    ]
},
  "bbox": [
    -73.493071,
    41.148268,
    -73.493071,
    41.148268
],
  "geometry": {"coordinates":[-73.493071,41.148268],"type":"Point"}
}