{
  "id": 554935425,
  "type": "Feature",
  "properties": {
    "edtf:cessation":"uuuu",
    "edtf:inception":"uuuu",
    "geom:area":0.0,
    "geom:bbox":"-79.750807,42.248227,-79.750807,42.248227",
    "geom:latitude":42.248227,
    "geom:longitude":-79.750807,
    "iso:country":"US",
    "sg:address":"10646 W Main Rd",
    "sg:city":"Ripley",
    "sg:classifiers":[
        {
            "category":"Farming",
            "subcategory":"Farm",
            "type":"Manufacturing & Wholesale Goods"
        }
    ],
    "sg:owner":"simplegeo",
    "sg:phone":"+1 716 736 3021",
    "sg:postcode":"14775",
    "sg:province":"NY",
    "src:geom":"simplegeo",
    "wof:belongsto":[
        85688481,
        85633793,
        85850957,
        102080955
    ],
    "wof:breaches":[],
    "wof:concordances":{
        "sg:id":"SG_73AYBpg41pOLTGPaCE4xML_42.248227_-79.750807@1294177022"
    },
    "wof:country":"US",
    "wof:geomhash":"8daac7f37afe41448971da8fbdce8879",
    "wof:hierarchy":[
        {
            "country_id":85633793,
            "county_id":102080955,
            "neighbourhood_id":85850957,
            "region_id":85688481,
            "venue_id":554935425
        }
    ],
    "wof:id":554935425,
    "wof:lastmodified":1461017068,
    "wof:name":"Orton Farms",
    "wof:parent_id":85850957,
    "wof:placetype":"venue",
    "wof:superseded_by":[],
    "wof:supersedes":[],
    "wof:tags":[]
},
  "bbox": [
    -79.750807,
    42.248227,
    -79.750807,
    42.248227
],
  "geometry": {"coordinates":[-79.75080699999999,42.248227],"type":"Point"}
}