{
  "id": 554934765,
  "type": "Feature",
  "properties": {
    "edtf:cessation":"uuuu",
    "edtf:inception":"uuuu",
    "geom:area":0.0,
    "geom:bbox":"-73.664496,41.118215,-73.664496,41.118215",
    "geom:latitude":41.118215,
    "geom:longitude":-73.664496,
    "iso:country":"US",
    "sg:address":"13 Aiken Rd",
    "sg:city":"Greenwich",
    "sg:classifiers":[
        {
            "category":"Insurance",
            "subcategory":"Insurance Agent",
            "type":"Services"
        }
    ],
    "sg:owner":"simplegeo",
    "sg:phone":"+1 203 622 6592",
    "sg:postcode":"06831",
    "sg:province":"NY",
    "sg:tags":[
        "for",
        "business",
        "f",
        "agency",
        "an",
        "compensation",
        "design",
        "plan"
    ],
    "src:geom":"simplegeo",
    "wof:belongsto":[],
    "wof:breaches":[],
    "wof:concordances":{
        "sg:id":"SG_6vQF1DXjtNPVHf3cGF2GUC_41.118215_-73.664496@1294177022"
    },
    "wof:country":"US",
    "wof:geomhash":"4617488be83d00154b1e4b3ea107a68f",
    "wof:hierarchy":[],
    "wof:id":554934765,
    "wof:lastmodified":1461016981,
    "wof:name":"Chodos & Co Kc",
    "wof:parent_id":-1,
    "wof:placetype":"venue",
    "wof:superseded_by":[],
    "wof:supersedes":[],
    "wof:tags":[
        "for",
        "business",
        "f",
        "agency",
        "an",
        "compensation",
        "design",
        "plan"
    ]
},
  "bbox": [
    -73.664496,
    41.118215,
    -73.664496,
    41.118215
],
  "geometry": {"coordinates":[-73.664496,41.118215],"type":"Point"}
}