{
  "id": 555277379,
  "type": "Feature",
  "properties": {
    "edtf:cessation":"uuuu",
    "edtf:inception":"uuuu",
    "geom:area":0.0,
    "geom:bbox":"-77.305301,43.124289,-77.305301,43.124289",
    "geom:latitude":43.124289,
    "geom:longitude":-77.305301,
    "iso:country":"US",
    "sg:address":"1529 Waterford Rd",
    "sg:city":"Walworth",
    "sg:classifiers":[
        {
            "category":"Social Services",
            "subcategory":"Child Care",
            "type":"Services"
        }
    ],
    "sg:owner":"simplegeo",
    "sg:phone":"+1   ",
    "sg:postcode":"14568",
    "sg:province":"NY",
    "sg:tags":[
        "day"
    ],
    "src:geom":"simplegeo",
    "wof:belongsto":[],
    "wof:breaches":[],
    "wof:concordances":{
        "sg:id":"SG_5P3SwWjzLbHkvyriWWfzFw_43.124289_-77.305301@1294177022"
    },
    "wof:country":"US",
    "wof:geomhash":"0e3fecfcfccd83266c21a1e07b22f174",
    "wof:hierarchy":[],
    "wof:id":555277379,
    "wof:lastmodified":1461025992,
    "wof:name":"Flacks Day Care Home",
    "wof:parent_id":420530375,
    "wof:placetype":"venue",
    "wof:superseded_by":[],
    "wof:supersedes":[],
    "wof:tags":[
        "day"
    ]
},
  "bbox": [
    -77.305301,
    43.124289,
    -77.305301,
    43.124289
],
  "geometry": {"coordinates":[-77.305301,43.124289],"type":"Point"}
}