{
  "id": 554939301,
  "type": "Feature",
  "properties": {
    "edtf:cessation":"uuuu",
    "edtf:inception":"uuuu",
    "geom:area":0.0,
    "geom:bbox":"-74.061007,41.076666,-74.061007,41.076666",
    "geom:latitude":41.076666,
    "geom:longitude":-74.061007,
    "iso:country":"US",
    "sg:address":"6 Ferruzza Dr",
    "sg:city":"Spring Valley",
    "sg:classifiers":[
        {
            "category":"Wholesale",
            "subcategory":"Durable Goods & Equipment",
            "type":"Manufacturing & Wholesale Goods"
        }
    ],
    "sg:owner":"simplegeo",
    "sg:phone":"+1 845 426 7673",
    "sg:postcode":"10977",
    "sg:province":"NY",
    "sg:tags":[
        "laser"
    ],
    "src:geom":"simplegeo",
    "wof:belongsto":[
        85853261,
        102191575,
        404523097,
        85633793,
        85978555,
        102082385,
        85688543
    ],
    "wof:breaches":[],
    "wof:concordances":{
        "sg:id":"SG_21sBA3EUMpECnowF4OY0CY_41.076666_-74.061007@1294177022"
    },
    "wof:country":"US",
    "wof:geomhash":"eb5675c36cca927290e8945db50543e3",
    "wof:hierarchy":[
        {
            "continent_id":102191575,
            "country_id":85633793,
            "county_id":102082385,
            "localadmin_id":404523097,
            "locality_id":85978555,
            "neighbourhood_id":85853261,
            "region_id":85688543,
            "venue_id":554939301
        }
    ],
    "wof:id":554939301,
    "wof:lastmodified":1461017550,
    "wof:name":"Green-Rose Lasers",
    "wof:parent_id":85853261,
    "wof:placetype":"venue",
    "wof:superseded_by":[],
    "wof:supersedes":[],
    "wof:tags":[
        "laser"
    ]
},
  "bbox": [
    -74.061007,
    41.076666,
    -74.061007,
    41.076666
],
  "geometry": {"coordinates":[-74.061007,41.076666],"type":"Point"}
}