{
  "id": 554937091,
  "type": "Feature",
  "properties": {
    "edtf:cessation":"uuuu",
    "edtf:inception":"uuuu",
    "geom:area":0.0,
    "geom:bbox":"-77.313128,41.989114,-77.313128,41.989114",
    "geom:latitude":41.989114,
    "geom:longitude":-77.313128,
    "iso:country":"US",
    "sg:address":"114 Parkhurst St",
    "sg:city":"Elkland",
    "sg:classifiers":[
        {
            "category":"Restaurant",
            "subcategory":"",
            "type":"Food & Drink"
        }
    ],
    "sg:owner":"simplegeo",
    "sg:phone":"+1 814 258 7908",
    "sg:postcode":"16920",
    "sg:province":"NY",
    "sg:tags":[
        "eating"
    ],
    "src:geom":"simplegeo",
    "wof:belongsto":[
        85688481,
        85633793,
        101717081,
        102080937,
        85807903
    ],
    "wof:breaches":[],
    "wof:concordances":{
        "sg:id":"SG_6Ag3bMLBpI37UUVroRwIsd_41.989114_-77.313128@1294177022"
    },
    "wof:country":"US",
    "wof:geomhash":"ac4a3ac9579e67a62ff27a611fe56c94",
    "wof:hierarchy":[
        {
            "country_id":85633793,
            "county_id":102080937,
            "locality_id":101717081,
            "neighbourhood_id":85807903,
            "region_id":85688481,
            "venue_id":554937091
        }
    ],
    "wof:id":554937091,
    "wof:lastmodified":1461017316,
    "wof:name":"Ridge Runner Cafe",
    "wof:parent_id":85807903,
    "wof:placetype":"venue",
    "wof:superseded_by":[],
    "wof:supersedes":[],
    "wof:tags":[
        "eating"
    ]
},
  "bbox": [
    -77.313128,
    41.989114,
    -77.313128,
    41.989114
],
  "geometry": {"coordinates":[-77.31312800000001,41.989114],"type":"Point"}
}