{
  "id": 554934125,
  "type": "Feature",
  "properties": {
    "edtf:cessation":"uuuu",
    "edtf:inception":"uuuu",
    "geom:area":0.0,
    "geom:bbox":"-73.492302,41.147501,-73.492302,41.147501",
    "geom:latitude":41.147501,
    "geom:longitude":-73.492302,
    "iso:country":"US",
    "sg:address":"114 Main St",
    "sg:city":"New Canaan",
    "sg:classifiers":[
        {
            "category":"Shopping",
            "subcategory":"Used Merchandise",
            "type":"Retail Goods"
        }
    ],
    "sg:owner":"simplegeo",
    "sg:phone":"+1 203 966 5657",
    "sg:postcode":"06840",
    "sg:province":"NY",
    "sg:tags":[
        "antique"
    ],
    "src:geom":"simplegeo",
    "wof:belongsto":[
        85688629,
        85633793,
        85851779,
        102084283
    ],
    "wof:breaches":[],
    "wof:concordances":{
        "sg:id":"SG_1aaKQLMoT4b241Y0LZSq86_41.147501_-73.492302@1294177022"
    },
    "wof:country":"US",
    "wof:geomhash":"f970f04fb9eee79496891e06ac7186cf",
    "wof:hierarchy":[
        {
            "country_id":85633793,
            "county_id":102084283,
            "neighbourhood_id":85851779,
            "region_id":85688629,
            "venue_id":554934125
        }
    ],
    "wof:id":554934125,
    "wof:lastmodified":1461016903,
    "wof:name":"Evans-Leonard Antiques",
    "wof:parent_id":85851779,
    "wof:placetype":"venue",
    "wof:superseded_by":[],
    "wof:supersedes":[],
    "wof:tags":[
        "antique"
    ]
},
  "bbox": [
    -73.492302,
    41.147501,
    -73.492302,
    41.147501
],
  "geometry": {"coordinates":[-73.492302,41.147501],"type":"Point"}
}