{
  "id": 572171645,
  "type": "Feature",
  "properties": {
    "edtf:cessation":"uuuu",
    "edtf:inception":"uuuu",
    "geom:area":0.0,
    "geom:bbox":"-74.146045,40.653833,-74.146045,40.653833",
    "geom:latitude":40.653833,
    "geom:longitude":-74.146045,
    "iso:country":"US",
    "sg:address":"214 41st St",
    "sg:city":"Brooklyn",
    "sg:classifiers":[
        {
            "category":"Shopping",
            "subcategory":"Stationery & Office Supplies",
            "type":"Retail Goods"
        }
    ],
    "sg:owner":"simplegeo",
    "sg:phone":"+1 718 499 2386",
    "sg:postcode":"11232",
    "sg:province":"NY",
    "sg:tags":[
        "equipment"
    ],
    "src:geom":"simplegeo",
    "wof:belongsto":[
        85805819,
        102191575,
        404478127,
        85633793,
        85975307,
        102080719,
        85688607
    ],
    "wof:breaches":[],
    "wof:concordances":{
        "sg:id":"SG_0mu6dLdcZUbCYWV4IRBqxt_40.653833_-74.146045@1303262348"
    },
    "wof:country":"US",
    "wof:geomhash":"3a951af35c6c11e2ea9f0a85ee151d71",
    "wof:hierarchy":[
        {
            "continent_id":102191575,
            "country_id":85633793,
            "county_id":102080719,
            "localadmin_id":404478127,
            "locality_id":85975307,
            "neighbourhood_id":85805819,
            "region_id":85688607,
            "venue_id":572171645
        }
    ],
    "wof:id":572171645,
    "wof:lastmodified":1461051459,
    "wof:name":"Knoll Inc",
    "wof:parent_id":85805819,
    "wof:placetype":"venue",
    "wof:superseded_by":[],
    "wof:supersedes":[],
    "wof:tags":[
        "equipment"
    ]
},
  "bbox": [
    -74.146045,
    40.653833,
    -74.146045,
    40.653833
],
  "geometry": {"coordinates":[-74.146045,40.653833],"type":"Point"}
}