{
  "id": 555504385,
  "type": "Feature",
  "properties": {
    "edtf:cessation":"uuuu",
    "edtf:inception":"uuuu",
    "geom:area":0.0,
    "geom:bbox":"-74.141941,42.625444,-74.141941,42.625444",
    "geom:latitude":42.625444,
    "geom:longitude":-74.141941,
    "iso:country":"US",
    "sg:address":"1738 Helderberg Trl",
    "sg:city":"Berne",
    "sg:classifiers":[
        {
            "category":"Organizations",
            "subcategory":"Community Association",
            "type":"Services"
        }
    ],
    "sg:owner":"simplegeo",
    "sg:phone":"+1   ",
    "sg:postcode":"12023",
    "sg:province":"NY",
    "src:geom":"simplegeo",
    "wof:belongsto":[],
    "wof:breaches":[],
    "wof:concordances":{
        "sg:id":"SG_5M36V9HsJR5as3lxqdR6qq_42.625444_-74.141941@1294177022"
    },
    "wof:country":"US",
    "wof:geomhash":"5ef1ec5aa23aa92bd53495e49e250d03",
    "wof:hierarchy":[],
    "wof:id":555504385,
    "wof:lastmodified":1461031467,
    "wof:name":"Berne School",
    "wof:parent_id":-1,
    "wof:placetype":"venue",
    "wof:superseded_by":[],
    "wof:supersedes":[],
    "wof:tags":[]
},
  "bbox": [
    -74.141941,
    42.625444,
    -74.141941,
    42.625444
],
  "geometry": {"coordinates":[-74.141941,42.625444],"type":"Point"}
}