{
  "id": 554935379,
  "type": "Feature",
  "properties": {
    "edtf:cessation":"uuuu",
    "edtf:inception":"uuuu",
    "geom:area":0.0,
    "geom:bbox":"-73.468031,41.128201,-73.468031,41.128201",
    "geom:latitude":41.128201,
    "geom:longitude":-73.468031,
    "iso:country":"US",
    "sg:address":"225 Marvin Ridge Rd",
    "sg:city":"New Canaan",
    "sg:classifiers":[
        {
            "category":"Professional",
            "subcategory":"",
            "type":"Services"
        }
    ],
    "sg:owner":"simplegeo",
    "sg:phone":"+1 203 966 8123",
    "sg:postcode":"06840",
    "sg:province":"NY",
    "sg:tags":[
        "establishment"
    ],
    "src:geom":"simplegeo",
    "wof:belongsto":[
        85688629,
        85633793,
        85851779,
        102084283
    ],
    "wof:breaches":[],
    "wof:concordances":{
        "sg:id":"SG_2sYmQtMHcXJQQjrAPn6PUI_41.128201_-73.468031@1294177022"
    },
    "wof:country":"US",
    "wof:geomhash":"3314e0ff145bf33ed6d02f9e65e29f67",
    "wof:hierarchy":[
        {
            "country_id":85633793,
            "county_id":102084283,
            "neighbourhood_id":85851779,
            "region_id":85688629,
            "venue_id":554935379
        }
    ],
    "wof:id":554935379,
    "wof:lastmodified":1461017063,
    "wof:name":"Filatov Design Co",
    "wof:parent_id":85851779,
    "wof:placetype":"venue",
    "wof:superseded_by":[],
    "wof:supersedes":[],
    "wof:tags":[
        "establishment"
    ]
},
  "bbox": [
    -73.468031,
    41.128201,
    -73.468031,
    41.128201
],
  "geometry": {"coordinates":[-73.468031,41.128201],"type":"Point"}
}