{
  "id": 554937253,
  "type": "Feature",
  "properties": {
    "edtf:cessation":"uuuu",
    "edtf:inception":"uuuu",
    "geom:area":0.0,
    "geom:bbox":"-79.716966,42.275488,-79.716966,42.275488",
    "geom:latitude":42.275488,
    "geom:longitude":-79.716966,
    "iso:country":"US",
    "sg:address":"6531 N State St",
    "sg:city":"Ripley",
    "sg:classifiers":[
        {
            "category":"Professional",
            "subcategory":"",
            "type":"Services"
        }
    ],
    "sg:owner":"simplegeo",
    "sg:phone":"+1 716 736 4942",
    "sg:postcode":"14775",
    "sg:province":"NY",
    "sg:tags":[
        "establishment"
    ],
    "src:geom":"simplegeo",
    "wof:belongsto":[
        85688481,
        85633793,
        85850957,
        102080955
    ],
    "wof:breaches":[],
    "wof:concordances":{
        "sg:id":"SG_4Otx0xga3R5jgLSBilPinT_42.275488_-79.716966@1294177022"
    },
    "wof:country":"US",
    "wof:geomhash":"1085ebe078beb726f7915a7b9240d09d",
    "wof:hierarchy":[
        {
            "country_id":85633793,
            "county_id":102080955,
            "neighbourhood_id":85850957,
            "region_id":85688481,
            "venue_id":554937253
        }
    ],
    "wof:id":554937253,
    "wof:lastmodified":1461017341,
    "wof:name":"Arnold Family Trust II",
    "wof:parent_id":85850957,
    "wof:placetype":"venue",
    "wof:superseded_by":[],
    "wof:supersedes":[],
    "wof:tags":[
        "establishment"
    ]
},
  "bbox": [
    -79.716966,
    42.275488,
    -79.716966,
    42.275488
],
  "geometry": {"coordinates":[-79.716966,42.275488],"type":"Point"}
}