{
  "id": 554941313,
  "type": "Feature",
  "properties": {
    "edtf:cessation":"uuuu",
    "edtf:inception":"uuuu",
    "geom:area":0.0,
    "geom:bbox":"-73.492372,41.1471,-73.492372,41.1471",
    "geom:latitude":41.1471,
    "geom:longitude":-73.492372,
    "iso:country":"US",
    "sg:address":"47 Elm St",
    "sg:city":"New Canaan",
    "sg:classifiers":[
        {
            "category":"Wholesale",
            "subcategory":"Chemicals & Plastics",
            "type":"Manufacturing & Wholesale Goods"
        }
    ],
    "sg:owner":"simplegeo",
    "sg:phone":"+1 203 966 1525",
    "sg:postcode":"06840",
    "sg:province":"NY",
    "src:geom":"simplegeo",
    "wof:belongsto":[
        85688629,
        85633793,
        85851779,
        102084283
    ],
    "wof:breaches":[],
    "wof:concordances":{
        "sg:id":"SG_0BXfgSNW0qEx5oE78hJKSW_41.147100_-73.492372@1294177022"
    },
    "wof:country":"US",
    "wof:geomhash":"7fe10ca657a9f3eed51dbbeab569d61c",
    "wof:hierarchy":[
        {
            "country_id":85633793,
            "county_id":102084283,
            "neighbourhood_id":85851779,
            "region_id":85688629,
            "venue_id":554941313
        }
    ],
    "wof:id":554941313,
    "wof:lastmodified":1461017728,
    "wof:name":"Total Specialty Chemicals Inc",
    "wof:parent_id":85851779,
    "wof:placetype":"venue",
    "wof:superseded_by":[],
    "wof:supersedes":[],
    "wof:tags":[]
},
  "bbox": [
    -73.492372,
    41.1471,
    -73.492372,
    41.1471
],
  "geometry": {"coordinates":[-73.492372,41.1471],"type":"Point"}
}