{
  "id": 554938919,
  "type": "Feature",
  "properties": {
    "edtf:cessation":"uuuu",
    "edtf:inception":"uuuu",
    "geom:area":0.0,
    "geom:bbox":"-73.459612,44.048576,-73.459612,44.048576",
    "geom:latitude":44.048576,
    "geom:longitude":-73.459612,
    "iso:country":"US",
    "sg:address":"12 Broad St",
    "sg:city":"Port Henry",
    "sg:classifiers":[
        {
            "category":"Restaurant",
            "subcategory":"",
            "type":"Food & Drink"
        }
    ],
    "sg:owner":"simplegeo",
    "sg:phone":"+1   ",
    "sg:postcode":"12974",
    "sg:province":"NY",
    "sg:tags":[
        "eating"
    ],
    "src:geom":"simplegeo",
    "wof:belongsto":[
        85688763,
        85633793,
        85857981,
        102080765
    ],
    "wof:breaches":[],
    "wof:concordances":{
        "sg:id":"SG_5scXmrgfthu79V71NAP7UG_44.048576_-73.459612@1294177022"
    },
    "wof:country":"US",
    "wof:geomhash":"b6802461040c631e1ae6af1a629de4f9",
    "wof:hierarchy":[
        {
            "country_id":85633793,
            "county_id":102080765,
            "neighbourhood_id":85857981,
            "region_id":85688763,
            "venue_id":554938919
        }
    ],
    "wof:id":554938919,
    "wof:lastmodified":1461017512,
    "wof:name":"Golden Palace",
    "wof:parent_id":85857981,
    "wof:placetype":"venue",
    "wof:superseded_by":[],
    "wof:supersedes":[],
    "wof:tags":[
        "eating"
    ]
},
  "bbox": [
    -73.459612,
    44.048576,
    -73.459612,
    44.048576
],
  "geometry": {"coordinates":[-73.45961200000001,44.048576],"type":"Point"}
}