{
  "id": 554940773,
  "type": "Feature",
  "properties": {
    "edtf:cessation":"uuuu",
    "edtf:inception":"uuuu",
    "geom:area":0.0,
    "geom:bbox":"-73.4937,41.132256,-73.4937,41.132256",
    "geom:latitude":41.132256,
    "geom:longitude":-73.4937,
    "iso:country":"US",
    "sg:address":"156 Gower Rd",
    "sg:city":"New Canaan",
    "sg:classifiers":[
        {
            "category":"Freight",
            "subcategory":"",
            "type":"Transportation"
        }
    ],
    "sg:owner":"simplegeo",
    "sg:phone":"+1 203 972 3593",
    "sg:postcode":"06840",
    "sg:province":"NY",
    "sg:tags":[
        "waste",
        "management",
        "providing",
        "long",
        "distance"
    ],
    "src:geom":"simplegeo",
    "wof:belongsto":[
        85688629,
        85633793,
        85851779,
        102084283
    ],
    "wof:breaches":[],
    "wof:concordances":{
        "sg:id":"SG_2GoxpWCphsi6BNPHyYK8DW_41.132256_-73.493700@1294177022"
    },
    "wof:country":"US",
    "wof:geomhash":"a0108e40a039c13edc8641b79b78e7be",
    "wof:hierarchy":[
        {
            "country_id":85633793,
            "county_id":102084283,
            "neighbourhood_id":85851779,
            "region_id":85688629,
            "venue_id":554940773
        }
    ],
    "wof:id":554940773,
    "wof:lastmodified":1461017677,
    "wof:name":"Fales Trucking Inc",
    "wof:parent_id":85851779,
    "wof:placetype":"venue",
    "wof:superseded_by":[],
    "wof:supersedes":[],
    "wof:tags":[
        "waste",
        "management",
        "providing",
        "long",
        "distance"
    ]
},
  "bbox": [
    -73.4937,
    41.132256,
    -73.4937,
    41.132256
],
  "geometry": {"coordinates":[-73.4937,41.132256],"type":"Point"}
}