{
  "id": 554935089,
  "type": "Feature",
  "properties": {
    "edtf:cessation":"uuuu",
    "edtf:inception":"uuuu",
    "geom:area":0.0,
    "geom:bbox":"-73.521826,41.12121,-73.521826,41.12121",
    "geom:latitude":41.12121,
    "geom:longitude":-73.521826,
    "iso:country":"US",
    "sg:address":"11 Skyview Ln",
    "sg:city":"New Canaan",
    "sg:classifiers":[
        {
            "category":"Professional",
            "subcategory":"",
            "type":"Services"
        }
    ],
    "sg:owner":"simplegeo",
    "sg:phone":"+1 203 966 1157",
    "sg:postcode":"06840",
    "sg:province":"NY",
    "src:geom":"simplegeo",
    "wof:belongsto":[
        85688629,
        85633793,
        85842701,
        102084283
    ],
    "wof:breaches":[],
    "wof:concordances":{
        "sg:id":"SG_1miHmdLl2hZyhElMQ2jcxQ_41.121210_-73.521826@1294177022"
    },
    "wof:country":"US",
    "wof:geomhash":"53cad4d91ed15d55d53f06dc43123ab3",
    "wof:hierarchy":[
        {
            "country_id":85633793,
            "county_id":102084283,
            "neighbourhood_id":85842701,
            "region_id":85688629,
            "venue_id":554935089
        }
    ],
    "wof:id":554935089,
    "wof:lastmodified":1461017021,
    "wof:name":"Vistas International Ltd",
    "wof:parent_id":85842701,
    "wof:placetype":"venue",
    "wof:superseded_by":[],
    "wof:supersedes":[],
    "wof:tags":[]
},
  "bbox": [
    -73.521826,
    41.12121,
    -73.521826,
    41.12121
],
  "geometry": {"coordinates":[-73.521826,41.12121],"type":"Point"}
}