{
  "id": 554937037,
  "type": "Feature",
  "properties": {
    "edtf:cessation":"uuuu",
    "edtf:inception":"uuuu",
    "geom:area":0.0,
    "geom:bbox":"-73.504629,41.149041,-73.504629,41.149041",
    "geom:latitude":41.149041,
    "geom:longitude":-73.504629,
    "iso:country":"US",
    "sg:address":"7 Kimberly Pl",
    "sg:city":"New Canaan",
    "sg:classifiers":[
        {
            "category":"Organizations",
            "subcategory":"Labor Organization",
            "type":"Services"
        }
    ],
    "sg:owner":"simplegeo",
    "sg:phone":"+1   ",
    "sg:postcode":"06840",
    "sg:province":"NY",
    "src:geom":"simplegeo",
    "wof:belongsto":[
        85688629,
        85633793,
        85851779,
        102084283
    ],
    "wof:breaches":[],
    "wof:concordances":{
        "sg:id":"SG_6veIu5lhuZ8CYeNij5M32s_41.149041_-73.504629@1294177022"
    },
    "wof:country":"US",
    "wof:geomhash":"868582cdbc1807081d8f537987ce6757",
    "wof:hierarchy":[
        {
            "country_id":85633793,
            "county_id":102084283,
            "neighbourhood_id":85851779,
            "region_id":85688629,
            "venue_id":554937037
        }
    ],
    "wof:id":554937037,
    "wof:lastmodified":1461017308,
    "wof:name":"Brotherhood Hecker William Jj",
    "wof:parent_id":85851779,
    "wof:placetype":"venue",
    "wof:superseded_by":[],
    "wof:supersedes":[],
    "wof:tags":[]
},
  "bbox": [
    -73.504629,
    41.149041,
    -73.504629,
    41.149041
],
  "geometry": {"coordinates":[-73.50462899999999,41.149041],"type":"Point"}
}