{
  "id": 555186327,
  "type": "Feature",
  "properties": {
    "edtf:cessation":"uuuu",
    "edtf:inception":"uuuu",
    "geom:area":0.0,
    "geom:bbox":"-73.713108,41.129463,-73.713108,41.129463",
    "geom:latitude":41.129463,
    "geom:longitude":-73.713108,
    "iso:country":"US",
    "sg:address":"387 Main St",
    "sg:city":"Armonk",
    "sg:classifiers":[
        {
            "category":"Shopping",
            "subcategory":"Gifts & Souvenirs",
            "type":"Retail Goods"
        }
    ],
    "sg:owner":"simplegeo",
    "sg:phone":"+1   ",
    "sg:postcode":"10504",
    "sg:province":"NY",
    "sg:tags":[
        "cards",
        "greeting"
    ],
    "src:geom":"simplegeo",
    "wof:belongsto":[],
    "wof:breaches":[],
    "wof:concordances":{
        "sg:id":"SG_11ExmwH092m9GcwNlHN6nP_41.129463_-73.713108@1294177022"
    },
    "wof:country":"US",
    "wof:geomhash":"98f374144dad222fca13a31348720be0",
    "wof:hierarchy":[],
    "wof:id":555186327,
    "wof:lastmodified":1461023957,
    "wof:name":"The Right Thing",
    "wof:parent_id":420530403,
    "wof:placetype":"venue",
    "wof:superseded_by":[],
    "wof:supersedes":[],
    "wof:tags":[
        "cards",
        "greeting"
    ]
},
  "bbox": [
    -73.713108,
    41.129463,
    -73.713108,
    41.129463
],
  "geometry": {"coordinates":[-73.71310800000001,41.129463],"type":"Point"}
}