{
  "id": 555275743,
  "type": "Feature",
  "properties": {
    "edtf:cessation":"uuuu",
    "edtf:inception":"uuuu",
    "geom:area":0.0,
    "geom:bbox":"-73.889659,42.767713,-73.889659,42.767713",
    "geom:latitude":42.767713,
    "geom:longitude":-73.889659,
    "iso:country":"US",
    "sg:address":"3821 State St",
    "sg:city":"Schenectady",
    "sg:classifiers":[
        {
            "category":"Retail",
            "subcategory":"Auto Rental",
            "type":"Services"
        }
    ],
    "sg:owner":"simplegeo",
    "sg:phone":"+1 518 377 3944",
    "sg:postcode":"12304",
    "sg:province":"NY",
    "sg:tags":[
        "renting",
        "truck",
        "leasing"
    ],
    "src:geom":"simplegeo",
    "wof:belongsto":[],
    "wof:breaches":[],
    "wof:concordances":{
        "sg:id":"SG_1zQcOGkjhl7nvZvEDgOen6_42.767713_-73.889659@1294177022"
    },
    "wof:country":"US",
    "wof:geomhash":"354846db089558725285158301b7bab3",
    "wof:hierarchy":[],
    "wof:id":555275743,
    "wof:lastmodified":1461025950,
    "wof:name":"Budget Truck Rental",
    "wof:parent_id":-1,
    "wof:placetype":"venue",
    "wof:superseded_by":[],
    "wof:supersedes":[],
    "wof:tags":[
        "renting",
        "truck",
        "leasing"
    ]
},
  "bbox": [
    -73.889659,
    42.767713,
    -73.889659,
    42.767713
],
  "geometry": {"coordinates":[-73.88965899999999,42.767713],"type":"Point"}
}