{
  "id": 554935663,
  "type": "Feature",
  "properties": {
    "edtf:cessation":"uuuu",
    "edtf:inception":"uuuu",
    "geom:area":0.0,
    "geom:bbox":"-73.458925,44.047803,-73.458925,44.047803",
    "geom:latitude":44.047803,
    "geom:longitude":-73.458925,
    "iso:country":"US",
    "sg:address":"12 St Patrick's Pl",
    "sg:city":"Port Henry",
    "sg:classifiers":[
        {
            "category":"Organizations",
            "subcategory":"Religious Organization",
            "type":"Services"
        }
    ],
    "sg:owner":"simplegeo",
    "sg:phone":"+1 518 546 7254",
    "sg:postcode":"12974",
    "sg:province":"NY",
    "src:geom":"simplegeo",
    "wof:belongsto":[
        85688763,
        85633793,
        85857981,
        102080765
    ],
    "wof:breaches":[],
    "wof:concordances":{
        "sg:id":"SG_7lfi1kuro6FHTmpXuFW7Ng_44.047803_-73.458925@1294177022"
    },
    "wof:country":"US",
    "wof:geomhash":"565993b36cfd0721a7e11915af7b11e2",
    "wof:hierarchy":[
        {
            "country_id":85633793,
            "county_id":102080765,
            "neighbourhood_id":85857981,
            "region_id":85688763,
            "venue_id":554935663
        }
    ],
    "wof:id":554935663,
    "wof:lastmodified":1461017104,
    "wof:name":"Saint Patricks Church Inc",
    "wof:parent_id":85857981,
    "wof:placetype":"venue",
    "wof:superseded_by":[],
    "wof:supersedes":[],
    "wof:tags":[]
},
  "bbox": [
    -73.458925,
    44.047803,
    -73.458925,
    44.047803
],
  "geometry": {"coordinates":[-73.45892499999999,44.047803],"type":"Point"}
}