{
  "id": 554937763,
  "type": "Feature",
  "properties": {
    "edtf:cessation":"uuuu",
    "edtf:inception":"uuuu",
    "geom:area":0.0,
    "geom:bbox":"-79.725132,42.167925,-79.725132,42.167925",
    "geom:latitude":42.167925,
    "geom:longitude":-79.725132,
    "iso:country":"US",
    "sg:address":"3762 North Rd",
    "sg:city":"Sherman",
    "sg:classifiers":[
        {
            "category":"Building & Trades",
            "subcategory":"Construction",
            "type":"Services"
        }
    ],
    "sg:owner":"simplegeo",
    "sg:phone":"+1 716 252 6517",
    "sg:postcode":"14781",
    "sg:province":"NY",
    "sg:tags":[
        "contractor"
    ],
    "src:geom":"simplegeo",
    "wof:belongsto":[
        85688481,
        85633793,
        85850957,
        102080955
    ],
    "wof:breaches":[],
    "wof:concordances":{
        "sg:id":"SG_51vJwMZntpYmvRqaN975y5_42.167925_-79.725132@1294177022"
    },
    "wof:country":"US",
    "wof:geomhash":"4415bfa34ecbfb61789b6bc70231b7ee",
    "wof:hierarchy":[
        {
            "country_id":85633793,
            "county_id":102080955,
            "neighbourhood_id":85850957,
            "region_id":85688481,
            "venue_id":554937763
        }
    ],
    "wof:id":554937763,
    "wof:lastmodified":1461017417,
    "wof:name":"McGill Masonry",
    "wof:parent_id":85850957,
    "wof:placetype":"venue",
    "wof:superseded_by":[],
    "wof:supersedes":[],
    "wof:tags":[
        "contractor"
    ]
},
  "bbox": [
    -79.725132,
    42.167925,
    -79.725132,
    42.167925
],
  "geometry": {"coordinates":[-79.725132,42.167925],"type":"Point"}
}