{
  "id": 554940723,
  "type": "Feature",
  "properties": {
    "edtf:cessation":"uuuu",
    "edtf:inception":"uuuu",
    "geom:area":0.0,
    "geom:bbox":"-73.49393,41.146754,-73.49393,41.146754",
    "geom:latitude":41.146754,
    "geom:longitude":-73.49393,
    "iso:country":"US",
    "sg:address":"136 Elm St",
    "sg:city":"New Canaan",
    "sg:classifiers":[
        {
            "category":"Shopping",
            "subcategory":"Pharmacy",
            "type":"Retail Goods"
        }
    ],
    "sg:owner":"simplegeo",
    "sg:phone":"+1 203 966 9593",
    "sg:postcode":"06840",
    "sg:province":"NY",
    "sg:website":"www.langspharmacy.com",
    "src:geom":"simplegeo",
    "wof:belongsto":[
        85688629,
        85633793,
        85851779,
        102084283
    ],
    "wof:breaches":[],
    "wof:concordances":{
        "sg:id":"SG_3JYp3gwAQkgqF0TGRk4wXS_41.146754_-73.493930@1294177022"
    },
    "wof:country":"US",
    "wof:geomhash":"776b21b058a76130e164151bfb319eac",
    "wof:hierarchy":[
        {
            "country_id":85633793,
            "county_id":102084283,
            "neighbourhood_id":85851779,
            "region_id":85688629,
            "venue_id":554940723
        }
    ],
    "wof:id":554940723,
    "wof:lastmodified":1461017673,
    "wof:name":"Lang's Pharmacy Inc",
    "wof:parent_id":85851779,
    "wof:placetype":"venue",
    "wof:superseded_by":[],
    "wof:supersedes":[],
    "wof:tags":[]
},
  "bbox": [
    -73.49393,
    41.146754,
    -73.49393,
    41.146754
],
  "geometry": {"coordinates":[-73.49393000000001,41.146754],"type":"Point"}
}