{
  "id": 554940273,
  "type": "Feature",
  "properties": {
    "edtf:cessation":"uuuu",
    "edtf:inception":"uuuu",
    "geom:area":0.0,
    "geom:bbox":"-73.497861,41.143224,-73.497861,41.143224",
    "geom:latitude":41.143224,
    "geom:longitude":-73.497861,
    "iso:country":"US",
    "sg:address":"73 Grove St",
    "sg:city":"New Canaan",
    "sg:classifiers":[
        {
            "category":"Building & Trades",
            "subcategory":"Construction",
            "type":"Services"
        }
    ],
    "sg:owner":"simplegeo",
    "sg:phone":"+1 203 966 7918",
    "sg:postcode":"06840",
    "sg:province":"NY",
    "sg:tags":[
        "repairing",
        "remodeling",
        "contractor"
    ],
    "src:geom":"simplegeo",
    "wof:belongsto":[
        85688629,
        85633793,
        85851779,
        102084283
    ],
    "wof:breaches":[],
    "wof:concordances":{
        "sg:id":"SG_2z0Hc2uWhMf5rfIluPC08h_41.143224_-73.497861@1294177022"
    },
    "wof:country":"US",
    "wof:geomhash":"9aeea31c89d10aa6d4f4c2c16d7a96a5",
    "wof:hierarchy":[
        {
            "country_id":85633793,
            "county_id":102084283,
            "neighbourhood_id":85851779,
            "region_id":85688629,
            "venue_id":554940273
        }
    ],
    "wof:id":554940273,
    "wof:lastmodified":1461017639,
    "wof:name":"West Construction",
    "wof:parent_id":85851779,
    "wof:placetype":"venue",
    "wof:superseded_by":[],
    "wof:supersedes":[],
    "wof:tags":[
        "repairing",
        "remodeling",
        "contractor"
    ]
},
  "bbox": [
    -73.497861,
    41.143224,
    -73.497861,
    41.143224
],
  "geometry": {"coordinates":[-73.497861,41.143224],"type":"Point"}
}