{
  "id": 554935909,
  "type": "Feature",
  "properties": {
    "edtf:cessation":"uuuu",
    "edtf:inception":"uuuu",
    "geom:area":0.0,
    "geom:bbox":"-73.469816,41.142883,-73.469816,41.142883",
    "geom:latitude":41.142883,
    "geom:longitude":-73.469816,
    "iso:country":"US",
    "sg:address":"409 Hoyt Farm Rd",
    "sg:city":"New Canaan",
    "sg:classifiers":[
        {
            "category":"Banks & Credit Unions",
            "subcategory":"Financial Services",
            "type":"Services"
        }
    ],
    "sg:owner":"simplegeo",
    "sg:phone":"+1 203 966 2841",
    "sg:postcode":"06840",
    "sg:province":"NY",
    "sg:tags":[
        "import",
        "export",
        "trading",
        "company"
    ],
    "src:geom":"simplegeo",
    "wof:belongsto":[
        85688629,
        85633793,
        85851779,
        102084283
    ],
    "wof:breaches":[],
    "wof:concordances":{
        "sg:id":"SG_4qNnKESKYl3yAkUMqR5yjk_41.142883_-73.469816@1294177022"
    },
    "wof:country":"US",
    "wof:geomhash":"7be4d6c2c87ce6b5d94bede364ab4983",
    "wof:hierarchy":[
        {
            "country_id":85633793,
            "county_id":102084283,
            "neighbourhood_id":85851779,
            "region_id":85688629,
            "venue_id":554935909
        }
    ],
    "wof:id":554935909,
    "wof:lastmodified":1461017135,
    "wof:name":"Amer-Asia International Corp",
    "wof:parent_id":85851779,
    "wof:placetype":"venue",
    "wof:superseded_by":[],
    "wof:supersedes":[],
    "wof:tags":[
        "import",
        "export",
        "trading",
        "company"
    ]
},
  "bbox": [
    -73.469816,
    41.142883,
    -73.469816,
    41.142883
],
  "geometry": {"coordinates":[-73.46981599999999,41.142883],"type":"Point"}
}