{
  "id": 554935443,
  "type": "Feature",
  "properties": {
    "edtf:cessation":"uuuu",
    "edtf:inception":"uuuu",
    "geom:area":0.0,
    "geom:bbox":"-73.49504,41.170658,-73.49504,41.170658",
    "geom:latitude":41.170658,
    "geom:longitude":-73.49504,
    "iso:country":"US",
    "sg:address":"507 Smith Ridge Rd",
    "sg:city":"New Canaan",
    "sg:classifiers":[
        {
            "category":"Building & Trades",
            "subcategory":"Equipment Rental",
            "type":"Services"
        },
        {
            "category":"Professional",
            "subcategory":"Management & Consulting",
            "type":"Services"
        }
    ],
    "sg:owner":"simplegeo",
    "sg:phone":"+1 203 966 2310",
    "sg:postcode":"06840",
    "sg:province":"NY",
    "sg:tags":[
        "fuel",
        "aircraft",
        "leasing",
        "financing"
    ],
    "src:geom":"simplegeo",
    "wof:belongsto":[],
    "wof:breaches":[],
    "wof:concordances":{
        "sg:id":"SG_2RONErsCOn1ZV7RR5S60Fb_41.170658_-73.495040@1294177022"
    },
    "wof:country":"US",
    "wof:geomhash":"0dac93204b0861ff4ed4632606a3c2fa",
    "wof:hierarchy":[],
    "wof:id":554935443,
    "wof:lastmodified":1461017070,
    "wof:name":"Gamble Aviation Management LTD",
    "wof:parent_id":-1,
    "wof:placetype":"venue",
    "wof:superseded_by":[],
    "wof:supersedes":[],
    "wof:tags":[
        "fuel",
        "aircraft",
        "leasing",
        "financing"
    ]
},
  "bbox": [
    -73.49504,
    41.170658,
    -73.49504,
    41.170658
],
  "geometry": {"coordinates":[-73.49504,41.170658],"type":"Point"}
}