{
  "id": 554937565,
  "type": "Feature",
  "properties": {
    "edtf:cessation":"uuuu",
    "edtf:inception":"uuuu",
    "geom:area":0.0,
    "geom:bbox":"-73.476055,41.185382,-73.476055,41.185382",
    "geom:latitude":41.185382,
    "geom:longitude":-73.476055,
    "iso:country":"US",
    "sg:address":"147 Fox Run Rd",
    "sg:city":"New Canaan",
    "sg:classifiers":[
        {
            "category":"Professional",
            "subcategory":"Business Services",
            "type":"Services"
        }
    ],
    "sg:owner":"simplegeo",
    "sg:phone":"+1 203 972 9408",
    "sg:postcode":"06840",
    "sg:province":"NY",
    "sg:tags":[
        "interior",
        "consultant",
        "design",
        "decorator"
    ],
    "src:geom":"simplegeo",
    "wof:belongsto":[],
    "wof:breaches":[],
    "wof:concordances":{
        "sg:id":"SG_0XKBrVLfFMEVxYTsAGXxoR_41.185382_-73.476055@1294177022"
    },
    "wof:country":"US",
    "wof:geomhash":"2bef25c07f9fa396de81c6a294833e76",
    "wof:hierarchy":[],
    "wof:id":554937565,
    "wof:lastmodified":1461017388,
    "wof:name":"Verrtav Fine Silks",
    "wof:parent_id":-1,
    "wof:placetype":"venue",
    "wof:superseded_by":[],
    "wof:supersedes":[],
    "wof:tags":[
        "interior",
        "consultant",
        "design",
        "decorator"
    ]
},
  "bbox": [
    -73.476055,
    41.185382,
    -73.476055,
    41.185382
],
  "geometry": {"coordinates":[-73.476055,41.185382],"type":"Point"}
}