{
  "id": 554940041,
  "type": "Feature",
  "properties": {
    "edtf:cessation":"uuuu",
    "edtf:inception":"uuuu",
    "geom:area":0.0,
    "geom:bbox":"-73.238434,42.494091,-73.238434,42.494091",
    "geom:latitude":42.494091,
    "geom:longitude":-73.238434,
    "iso:country":"US",
    "sg:address":"739 S Main St",
    "sg:city":"Lanesboro",
    "sg:classifiers":[
        {
            "category":"Restaurant",
            "subcategory":"",
            "type":"Food & Drink"
        }
    ],
    "sg:owner":"simplegeo",
    "sg:phone":"+1 413 442 0600",
    "sg:postcode":"01237",
    "sg:province":"NY",
    "src:geom":"simplegeo",
    "wof:belongsto":[
        85688645,
        85633793,
        85829509,
        102084369
    ],
    "wof:breaches":[],
    "wof:concordances":{
        "sg:id":"SG_2weS92WfzCqVb2RlEQX8xq_42.494091_-73.238434@1294177022"
    },
    "wof:country":"US",
    "wof:geomhash":"670adc21d4d889e9ffdc81ee2dedae7b",
    "wof:hierarchy":[
        {
            "country_id":85633793,
            "county_id":102084369,
            "neighbourhood_id":85829509,
            "region_id":85688645,
            "venue_id":554940041
        }
    ],
    "wof:id":554940041,
    "wof:lastmodified":1461017618,
    "wof:name":"Lanesboro Restaurant",
    "wof:parent_id":85829509,
    "wof:placetype":"venue",
    "wof:superseded_by":[],
    "wof:supersedes":[],
    "wof:tags":[]
},
  "bbox": [
    -73.238434,
    42.494091,
    -73.238434,
    42.494091
],
  "geometry": {"coordinates":[-73.238434,42.494091],"type":"Point"}
}