{
  "id": 554941321,
  "type": "Feature",
  "properties": {
    "edtf:cessation":"uuuu",
    "edtf:inception":"uuuu",
    "geom:area":0.0,
    "geom:bbox":"-73.667064,41.038809,-73.667064,41.038809",
    "geom:latitude":41.038809,
    "geom:longitude":-73.667064,
    "iso:country":"US",
    "sg:address":"11 Glen Ridge Rd",
    "sg:city":"Greenwich",
    "sg:classifiers":[
        {
            "category":"Food & Beverages",
            "subcategory":"Groceries & Convenience Stores",
            "type":"Retail Goods"
        }
    ],
    "sg:owner":"simplegeo",
    "sg:phone":"+1 203 531 0541",
    "sg:postcode":"06831",
    "sg:province":"NY",
    "sg:tags":[
        "grocer"
    ],
    "src:geom":"simplegeo",
    "wof:belongsto":[
        420555461,
        102191575,
        404495949,
        85633793,
        85930937,
        102084283,
        85688629
    ],
    "wof:breaches":[],
    "wof:concordances":{
        "sg:id":"SG_4y3dTE3xoZOj7RKdsJ28KX_41.038809_-73.667064@1294177022"
    },
    "wof:country":"US",
    "wof:geomhash":"3ee10b2b5a5398c209163186005dbf80",
    "wof:hierarchy":[
        {
            "continent_id":102191575,
            "country_id":85633793,
            "county_id":102084283,
            "localadmin_id":404495949,
            "locality_id":85930937,
            "neighbourhood_id":420555461,
            "region_id":85688629,
            "venue_id":554941321
        }
    ],
    "wof:id":554941321,
    "wof:lastmodified":1461017729,
    "wof:name":"Stop & Shop Supermarket",
    "wof:parent_id":420555461,
    "wof:placetype":"venue",
    "wof:superseded_by":[],
    "wof:supersedes":[],
    "wof:tags":[
        "grocer"
    ]
},
  "bbox": [
    -73.667064,
    41.038809,
    -73.667064,
    41.038809
],
  "geometry": {"coordinates":[-73.667064,41.038809],"type":"Point"}
}