{
  "id": 554940691,
  "type": "Feature",
  "properties": {
    "edtf:cessation":"uuuu",
    "edtf:inception":"uuuu",
    "geom:area":0.0,
    "geom:bbox":"-73.628614,41.136802,-73.628614,41.136802",
    "geom:latitude":41.136802,
    "geom:longitude":-73.628614,
    "iso:country":"US",
    "sg:address":"429 Taconic Rd",
    "sg:city":"Greenwich",
    "sg:classifiers":[
        {
            "category":"Education",
            "subcategory":"School",
            "type":"Public Place"
        }
    ],
    "sg:owner":"simplegeo",
    "sg:phone":"+1 203 629 6261",
    "sg:postcode":"06831",
    "sg:province":"NY",
    "sg:website":"www.easydoesitcook.com",
    "src:geom":"simplegeo",
    "wof:belongsto":[
        85688629,
        85633793,
        85850923,
        102084283
    ],
    "wof:breaches":[],
    "wof:concordances":{
        "sg:id":"SG_2A6LgPonRh1pIyQN5PVrRB_41.136802_-73.628614@1294177022"
    },
    "wof:country":"US",
    "wof:geomhash":"09c539052ecf19efccb325f0588d8dbb",
    "wof:hierarchy":[
        {
            "country_id":85633793,
            "county_id":102084283,
            "neighbourhood_id":85850923,
            "region_id":85688629,
            "venue_id":554940691
        }
    ],
    "wof:id":554940691,
    "wof:lastmodified":1461017671,
    "wof:name":"Gould Supt",
    "wof:parent_id":85850923,
    "wof:placetype":"venue",
    "wof:superseded_by":[],
    "wof:supersedes":[],
    "wof:tags":[]
},
  "bbox": [
    -73.628614,
    41.136802,
    -73.628614,
    41.136802
],
  "geometry": {"coordinates":[-73.628614,41.136802],"type":"Point"}
}