{
  "id": 554941825,
  "type": "Feature",
  "properties": {
    "edtf:cessation":"uuuu",
    "edtf:inception":"uuuu",
    "geom:area":0.0,
    "geom:bbox":"-79.703953,42.269726,-79.703953,42.269726",
    "geom:latitude":42.269726,
    "geom:longitude":-79.703953,
    "iso:country":"US",
    "sg:address":"29 Main St",
    "sg:city":"Ripley",
    "sg:classifiers":[
        {
            "category":"Farming",
            "subcategory":"Vineyard",
            "type":"Manufacturing & Wholesale Goods"
        }
    ],
    "sg:owner":"simplegeo",
    "sg:phone":"+1 716 736 3782",
    "sg:postcode":"14775",
    "sg:province":"NY",
    "sg:tags":[
        "grape"
    ],
    "src:geom":"simplegeo",
    "wof:belongsto":[
        85688481,
        85633793,
        85850957,
        102080955
    ],
    "wof:breaches":[],
    "wof:concordances":{
        "sg:id":"SG_3uh8vbnRQucLLpK3MNFL3A_42.269726_-79.703953@1294177022"
    },
    "wof:country":"US",
    "wof:geomhash":"7d88f7cacfd3c6afc87254baea5a6c8b",
    "wof:hierarchy":[
        {
            "country_id":85633793,
            "county_id":102080955,
            "neighbourhood_id":85850957,
            "region_id":85688481,
            "venue_id":554941825
        }
    ],
    "wof:id":554941825,
    "wof:lastmodified":1461017811,
    "wof:name":"Robert Youngs",
    "wof:parent_id":85850957,
    "wof:placetype":"venue",
    "wof:superseded_by":[],
    "wof:supersedes":[],
    "wof:tags":[
        "grape"
    ]
},
  "bbox": [
    -79.703953,
    42.269726,
    -79.703953,
    42.269726
],
  "geometry": {"coordinates":[-79.703953,42.269726],"type":"Point"}
}