{
  "id": 554937013,
  "type": "Feature",
  "properties": {
    "edtf:cessation":"uuuu",
    "edtf:inception":"uuuu",
    "geom:area":0.0,
    "geom:bbox":"-73.230417,42.519945,-73.230417,42.519945",
    "geom:latitude":42.519945,
    "geom:longitude":-73.230417,
    "iso:country":"US",
    "sg:address":"20 Bridge St",
    "sg:city":"Lanesboro",
    "sg:classifiers":[
        {
            "category":"Utilities",
            "subcategory":"Water",
            "type":"Services"
        }
    ],
    "sg:owner":"simplegeo",
    "sg:phone":"+1 413 442 5916",
    "sg:postcode":"01237",
    "sg:province":"NY",
    "sg:tags":[
        "company",
        "sewage"
    ],
    "src:geom":"simplegeo",
    "wof:belongsto":[
        85688645,
        85633793,
        85829509,
        102084369
    ],
    "wof:breaches":[],
    "wof:concordances":{
        "sg:id":"SG_05vXHX2j7G6qwPybOhwJ7Y_42.519945_-73.230417@1294177022"
    },
    "wof:country":"US",
    "wof:geomhash":"a035001e9dd571b178a81692ec274bc8",
    "wof:hierarchy":[
        {
            "country_id":85633793,
            "county_id":102084369,
            "neighbourhood_id":85829509,
            "region_id":85688645,
            "venue_id":554937013
        }
    ],
    "wof:id":554937013,
    "wof:lastmodified":1461017306,
    "wof:name":"Lanesboro Water Dept",
    "wof:parent_id":85829509,
    "wof:placetype":"venue",
    "wof:superseded_by":[],
    "wof:supersedes":[],
    "wof:tags":[
        "company",
        "sewage"
    ]
},
  "bbox": [
    -73.230417,
    42.519945,
    -73.230417,
    42.519945
],
  "geometry": {"coordinates":[-73.230417,42.519945],"type":"Point"}
}