{
  "id": 572170953,
  "type": "Feature",
  "properties": {
    "edtf:cessation":"uuuu",
    "edtf:inception":"uuuu",
    "geom:area":0.0,
    "geom:bbox":"-74.907697,40.648337,-74.907697,40.648337",
    "geom:latitude":40.648337,
    "geom:longitude":-74.907697,
    "iso:country":"US",
    "sg:address":"416 46th St",
    "sg:city":"Brooklyn",
    "sg:classifiers":[
        {
            "category":"Organizations",
            "subcategory":"Religious Organization",
            "type":"Services"
        }
    ],
    "sg:owner":"simplegeo",
    "sg:phone":"+1 718 439 7679",
    "sg:postcode":"11220",
    "sg:province":"NY",
    "src:geom":"simplegeo",
    "wof:belongsto":[
        85841547,
        102191575,
        404478221,
        85633793,
        85975687,
        102085997,
        85688607
    ],
    "wof:breaches":[],
    "wof:concordances":{
        "sg:id":"SG_27Rkk6LKxv6ZLUuGVSdD9Y_40.648337_-74.907697@1303262344"
    },
    "wof:country":"US",
    "wof:geomhash":"70625ece7f4d4fb814c3f932fa709a09",
    "wof:hierarchy":[
        {
            "continent_id":102191575,
            "country_id":85633793,
            "county_id":102085997,
            "localadmin_id":404478221,
            "locality_id":85975687,
            "neighbourhood_id":85841547,
            "region_id":85688607,
            "venue_id":572170953
        }
    ],
    "wof:id":572170953,
    "wof:lastmodified":1461051436,
    "wof:name":"Iglesia Pentecostal El Camino",
    "wof:parent_id":85841547,
    "wof:placetype":"venue",
    "wof:superseded_by":[],
    "wof:supersedes":[],
    "wof:tags":[]
},
  "bbox": [
    -74.907697,
    40.648337,
    -74.907697,
    40.648337
],
  "geometry": {"coordinates":[-74.907697,40.648337],"type":"Point"}
}