{
  "id": 554942021,
  "type": "Feature",
  "properties": {
    "edtf:cessation":"uuuu",
    "edtf:inception":"uuuu",
    "geom:area":0.0,
    "geom:bbox":"-73.698345,41.113104,-73.698345,41.113104",
    "geom:latitude":41.113104,
    "geom:longitude":-73.698345,
    "iso:country":"US",
    "sg:address":"249 Bedford Rd",
    "sg:city":"Greenwich",
    "sg:classifiers":[
        {
            "category":"Building & Trades",
            "subcategory":"Construction",
            "type":"Services"
        }
    ],
    "sg:owner":"simplegeo",
    "sg:phone":"+1 203 629 3636",
    "sg:postcode":"06831",
    "sg:province":"NY",
    "sg:tags":[
        "general",
        "contractor"
    ],
    "src:geom":"simplegeo",
    "wof:belongsto":[
        85688629,
        85633793,
        85837667,
        102084283
    ],
    "wof:breaches":[],
    "wof:concordances":{
        "sg:id":"SG_0eSlynh0Xk8TvEQwi6J3EY_41.113104_-73.698345@1294177022"
    },
    "wof:country":"US",
    "wof:geomhash":"54045d009da7fa29350ba18e2e5ec370",
    "wof:hierarchy":[
        {
            "country_id":85633793,
            "county_id":102084283,
            "neighbourhood_id":85837667,
            "region_id":85688629,
            "venue_id":554942021
        }
    ],
    "wof:id":554942021,
    "wof:lastmodified":1461017834,
    "wof:name":"Commercial Alteratons Inc",
    "wof:parent_id":85837667,
    "wof:placetype":"venue",
    "wof:superseded_by":[],
    "wof:supersedes":[],
    "wof:tags":[
        "general",
        "contractor"
    ]
},
  "bbox": [
    -73.698345,
    41.113104,
    -73.698345,
    41.113104
],
  "geometry": {"coordinates":[-73.698345,41.113104],"type":"Point"}
}