{
  "id": 554935479,
  "type": "Feature",
  "properties": {
    "edtf:cessation":"uuuu",
    "edtf:inception":"uuuu",
    "geom:area":0.0,
    "geom:bbox":"-73.5126,41.122083,-73.5126,41.122083",
    "geom:latitude":41.122083,
    "geom:longitude":-73.5126,
    "iso:country":"US",
    "sg:address":"89 Sagamore Trl",
    "sg:city":"New Canaan",
    "sg:classifiers":[
        {
            "category":"Professional",
            "subcategory":"Business Services",
            "type":"Services"
        }
    ],
    "sg:owner":"simplegeo",
    "sg:phone":"+1   ",
    "sg:postcode":"06840",
    "sg:province":"NY",
    "src:geom":"simplegeo",
    "wof:belongsto":[
        85688629,
        85633793,
        85851779,
        102084283
    ],
    "wof:breaches":[],
    "wof:concordances":{
        "sg:id":"SG_45bnd7eUAHbE8zg7xkBARo_41.122083_-73.512600@1294177022"
    },
    "wof:country":"US",
    "wof:geomhash":"d9e8ab650f92112fd84227dc45b1a5e3",
    "wof:hierarchy":[
        {
            "country_id":85633793,
            "county_id":102084283,
            "neighbourhood_id":85851779,
            "region_id":85688629,
            "venue_id":554935479
        }
    ],
    "wof:id":554935479,
    "wof:lastmodified":1461017073,
    "wof:name":"Libra Group LLC",
    "wof:parent_id":85851779,
    "wof:placetype":"venue",
    "wof:superseded_by":[],
    "wof:supersedes":[],
    "wof:tags":[]
},
  "bbox": [
    -73.5126,
    41.122083,
    -73.5126,
    41.122083
],
  "geometry": {"coordinates":[-73.51260000000001,41.122083],"type":"Point"}
}