{
  "id": 571488159,
  "type": "Feature",
  "properties": {
    "edtf:cessation":"uuuu",
    "edtf:inception":"uuuu",
    "geom:area":0.0,
    "geom:bbox":"-73.91226,42.896576,-73.91226,42.896576",
    "geom:latitude":42.896576,
    "geom:longitude":-73.91226,
    "iso:country":"US",
    "sg:address":"604 Saratoga Rd",
    "sg:city":"Schenectady",
    "sg:classifiers":[
        {
            "category":"Autos & Motor Vehicles",
            "subcategory":"Automobile Sales",
            "type":"Retail Goods"
        }
    ],
    "sg:owner":"simplegeo",
    "sg:phone":"+1   ",
    "sg:postcode":"12302",
    "sg:province":"NY",
    "sg:tags":[
        "used"
    ],
    "src:geom":"simplegeo",
    "wof:belongsto":[],
    "wof:breaches":[],
    "wof:concordances":{
        "sg:id":"SG_3U60iy3MbSwr5C8SbHLNbt_42.896576_-73.912260@1294177022"
    },
    "wof:country":"US",
    "wof:geomhash":"c166dd949a37b00476890e72a21d2184",
    "wof:hierarchy":[],
    "wof:id":571488159,
    "wof:lastmodified":1461036868,
    "wof:name":"Superior Auto Sales",
    "wof:parent_id":420529895,
    "wof:placetype":"venue",
    "wof:superseded_by":[],
    "wof:supersedes":[],
    "wof:tags":[
        "used"
    ]
},
  "bbox": [
    -73.91226,
    42.896576,
    -73.91226,
    42.896576
],
  "geometry": {"coordinates":[-73.91226,42.896576],"type":"Point"}
}