{
  "id": 554939971,
  "type": "Feature",
  "properties": {
    "edtf:cessation":"uuuu",
    "edtf:inception":"uuuu",
    "geom:area":0.0,
    "geom:bbox":"-73.681193,41.056502,-73.681193,41.056502",
    "geom:latitude":41.056502,
    "geom:longitude":-73.681193,
    "iso:country":"US",
    "sg:address":"33 Nutmeg Dr",
    "sg:city":"Greenwich",
    "sg:classifiers":[
        {
            "category":"Wholesale",
            "subcategory":"Apparel",
            "type":"Manufacturing & Wholesale Goods"
        }
    ],
    "sg:owner":"simplegeo",
    "sg:phone":"+1 203 531 7159",
    "sg:postcode":"06831",
    "sg:province":"NY",
    "sg:tags":[
        "tennis",
        "fashion"
    ],
    "src:geom":"simplegeo",
    "wof:belongsto":[],
    "wof:breaches":[],
    "wof:concordances":{
        "sg:id":"SG_45a1hAopb04KZP2hpLOt72_41.056502_-73.681193@1294177022"
    },
    "wof:country":"US",
    "wof:geomhash":"43be3043b40d03c1e79b8bc1275d3c5e",
    "wof:hierarchy":[],
    "wof:id":554939971,
    "wof:lastmodified":1461017612,
    "wof:name":"June Marks Tennis Fashions",
    "wof:parent_id":-1,
    "wof:placetype":"venue",
    "wof:superseded_by":[],
    "wof:supersedes":[],
    "wof:tags":[
        "tennis",
        "fashion"
    ]
},
  "bbox": [
    -73.681193,
    41.056502,
    -73.681193,
    41.056502
],
  "geometry": {"coordinates":[-73.68119299999999,41.056502],"type":"Point"}
}