{
  "id": 554935015,
  "type": "Feature",
  "properties": {
    "edtf:cessation":"uuuu",
    "edtf:inception":"uuuu",
    "geom:area":0.0,
    "geom:bbox":"-73.491823,41.149138,-73.491823,41.149138",
    "geom:latitude":41.149138,
    "geom:longitude":-73.491823,
    "iso:country":"US",
    "sg:address":"64 Locust Ave",
    "sg:city":"New Canaan",
    "sg:classifiers":[
        {
            "category":"Professional",
            "subcategory":"",
            "type":"Services"
        }
    ],
    "sg:owner":"simplegeo",
    "sg:phone":"+1 203 966 8034",
    "sg:postcode":"06840",
    "sg:province":"NY",
    "sg:tags":[
        "establishment"
    ],
    "src:geom":"simplegeo",
    "wof:belongsto":[
        85688629,
        85633793,
        85851779,
        102084283
    ],
    "wof:breaches":[],
    "wof:concordances":{
        "sg:id":"SG_0tLWA2WCICJMHg0XEfOiku_41.149138_-73.491823@1294177022"
    },
    "wof:country":"US",
    "wof:geomhash":"381e1590a0d768224a852f9ec851020e",
    "wof:hierarchy":[
        {
            "country_id":85633793,
            "county_id":102084283,
            "neighbourhood_id":85851779,
            "region_id":85688629,
            "venue_id":554935015
        }
    ],
    "wof:id":554935015,
    "wof:lastmodified":1461017011,
    "wof:name":"ABC Guys",
    "wof:parent_id":85851779,
    "wof:placetype":"venue",
    "wof:superseded_by":[],
    "wof:supersedes":[],
    "wof:tags":[
        "establishment"
    ]
},
  "bbox": [
    -73.491823,
    41.149138,
    -73.491823,
    41.149138
],
  "geometry": {"coordinates":[-73.491823,41.149138],"type":"Point"}
}