{
  "id": 554934923,
  "type": "Feature",
  "properties": {
    "edtf:cessation":"uuuu",
    "edtf:inception":"uuuu",
    "geom:area":0.0,
    "geom:bbox":"-73.492889,41.156413,-73.492889,41.156413",
    "geom:latitude":41.156413,
    "geom:longitude":-73.492889,
    "iso:country":"US",
    "sg:address":"57 Strawberry Hill Rd",
    "sg:city":"New Canaan",
    "sg:classifiers":[
        {
            "category":"Professional",
            "subcategory":"",
            "type":"Services"
        }
    ],
    "sg:owner":"simplegeo",
    "sg:phone":"+1 203 972 1221",
    "sg:postcode":"06840",
    "sg:province":"NY",
    "src:geom":"simplegeo",
    "wof:belongsto":[
        85688629,
        85633793,
        85851779,
        102084283
    ],
    "wof:breaches":[],
    "wof:concordances":{
        "sg:id":"SG_3VhEUVYF23Chbdu4QkYtQ9_41.156413_-73.492889@1294177022"
    },
    "wof:country":"US",
    "wof:geomhash":"090c4ee5070744f19b1f21b027732b4d",
    "wof:hierarchy":[
        {
            "country_id":85633793,
            "county_id":102084283,
            "neighbourhood_id":85851779,
            "region_id":85688629,
            "venue_id":554934923
        }
    ],
    "wof:id":554934923,
    "wof:lastmodified":1461017000,
    "wof:name":"Elmhurst Rubber Company Inc",
    "wof:parent_id":85851779,
    "wof:placetype":"venue",
    "wof:superseded_by":[],
    "wof:supersedes":[],
    "wof:tags":[]
},
  "bbox": [
    -73.492889,
    41.156413,
    -73.492889,
    41.156413
],
  "geometry": {"coordinates":[-73.49288900000001,41.156413],"type":"Point"}
}