{
  "id": 554937149,
  "type": "Feature",
  "properties": {
    "edtf:cessation":"uuuu",
    "edtf:inception":"uuuu",
    "geom:area":0.0,
    "geom:bbox":"-73.657279,41.007917,-73.657279,41.007917",
    "geom:latitude":41.007917,
    "geom:longitude":-73.657279,
    "iso:country":"US",
    "sg:address":"401 N Main St",
    "sg:city":"Port Chester",
    "sg:classifiers":[
        {
            "category":"Building & Trades",
            "subcategory":"Landscaping Services",
            "type":"Services"
        }
    ],
    "sg:owner":"simplegeo",
    "sg:phone":"+1 914 937 5469",
    "sg:postcode":"10573",
    "sg:province":"NY",
    "sg:tags":[
        "lawn",
        "garden"
    ],
    "src:geom":"simplegeo",
    "wof:belongsto":[
        85885307,
        102191575,
        404495949,
        85633793,
        85930941,
        102084283,
        85688629,
        85808713,
        404523389,
        85978705,
        102082373,
        85688543
    ],
    "wof:breaches":[],
    "wof:concordances":{
        "sg:id":"SG_7ScwO4rnkrOiDlgoWAruqY_41.007917_-73.657279@1294177022"
    },
    "wof:country":"US",
    "wof:geomhash":"76f3ad96532d310109cd7a87d65ca87f",
    "wof:hierarchy":[
        {
            "continent_id":102191575,
            "country_id":85633793,
            "county_id":102084283,
            "localadmin_id":404495949,
            "locality_id":85930941,
            "neighbourhood_id":85885307,
            "region_id":85688629,
            "venue_id":554937149
        },
        {
            "continent_id":102191575,
            "country_id":85633793,
            "county_id":102082373,
            "localadmin_id":404523389,
            "locality_id":85978705,
            "neighbourhood_id":85808713,
            "region_id":85688543,
            "venue_id":554937149
        }
    ],
    "wof:id":554937149,
    "wof:lastmodified":1461017323,
    "wof:name":"Rocco Pannella General Ldscpg",
    "wof:parent_id":-1,
    "wof:placetype":"venue",
    "wof:superseded_by":[],
    "wof:supersedes":[],
    "wof:tags":[
        "lawn",
        "garden"
    ]
},
  "bbox": [
    -73.657279,
    41.007917,
    -73.657279,
    41.007917
],
  "geometry": {"coordinates":[-73.657279,41.007917],"type":"Point"}
}