{
  "id": 554935337,
  "type": "Feature",
  "properties": {
    "edtf:cessation":"uuuu",
    "edtf:inception":"uuuu",
    "geom:area":0.0,
    "geom:bbox":"-74.1439,41.10531,-74.1439,41.10531",
    "geom:latitude":41.10531,
    "geom:longitude":-74.1439,
    "iso:country":"US",
    "sg:address":"6 Beechwood Rd",
    "sg:city":"Suffern",
    "sg:classifiers":[
        {
            "category":"Retail",
            "subcategory":"Animal Services",
            "type":"Services"
        }
    ],
    "sg:owner":"simplegeo",
    "sg:phone":"+1 845 352 4582",
    "sg:postcode":"10901",
    "sg:province":"NY",
    "sg:tags":[
        "pet",
        "grooming",
        "washing"
    ],
    "src:geom":"simplegeo",
    "wof:belongsto":[
        85855885,
        102191575,
        404523097,
        85633793,
        85978523,
        102082385,
        85688543
    ],
    "wof:breaches":[],
    "wof:concordances":{
        "sg:id":"SG_3n3U5psQazBAPjRJz7aB45_41.105310_-74.143900@1294177022"
    },
    "wof:country":"US",
    "wof:geomhash":"a5d327db4c78d5566d81a0160255293b",
    "wof:hierarchy":[
        {
            "continent_id":102191575,
            "country_id":85633793,
            "county_id":102082385,
            "localadmin_id":404523097,
            "locality_id":85978523,
            "neighbourhood_id":85855885,
            "region_id":85688543,
            "venue_id":554935337
        }
    ],
    "wof:id":554935337,
    "wof:lastmodified":1461017056,
    "wof:name":"VIP Groomers",
    "wof:parent_id":85855885,
    "wof:placetype":"venue",
    "wof:superseded_by":[],
    "wof:supersedes":[],
    "wof:tags":[
        "pet",
        "grooming",
        "washing"
    ]
},
  "bbox": [
    -74.1439,
    41.10531,
    -74.1439,
    41.10531
],
  "geometry": {"coordinates":[-74.1439,41.10531],"type":"Point"}
}