{
  "id": 554941589,
  "type": "Feature",
  "properties": {
    "edtf:cessation":"uuuu",
    "edtf:inception":"uuuu",
    "geom:area":0.0,
    "geom:bbox":"-73.499455,41.142193,-73.499455,41.142193",
    "geom:latitude":41.142193,
    "geom:longitude":-73.499455,
    "iso:country":"US",
    "sg:address":"141 Richmond Hill Rd",
    "sg:city":"New Canaan",
    "sg:classifiers":[
        {
            "category":"Professional",
            "subcategory":"",
            "type":"Services"
        }
    ],
    "sg:owner":"simplegeo",
    "sg:phone":"+1 203 972 3469",
    "sg:postcode":"06840",
    "sg:province":"NY",
    "sg:tags":[
        "establishment"
    ],
    "src:geom":"simplegeo",
    "wof:belongsto":[
        85688629,
        85633793,
        85851779,
        102084283
    ],
    "wof:breaches":[],
    "wof:concordances":{
        "sg:id":"SG_7fYNAe2lo7fHRgDPxzb4Th_41.142193_-73.499455@1294177022"
    },
    "wof:country":"US",
    "wof:geomhash":"2113e109e9531d75c5cbbba8496e3812",
    "wof:hierarchy":[
        {
            "country_id":85633793,
            "county_id":102084283,
            "neighbourhood_id":85851779,
            "region_id":85688629,
            "venue_id":554941589
        }
    ],
    "wof:id":554941589,
    "wof:lastmodified":1461017774,
    "wof:name":"New Canaan Family Caregivers",
    "wof:parent_id":85851779,
    "wof:placetype":"venue",
    "wof:superseded_by":[],
    "wof:supersedes":[],
    "wof:tags":[
        "establishment"
    ]
},
  "bbox": [
    -73.499455,
    41.142193,
    -73.499455,
    41.142193
],
  "geometry": {"coordinates":[-73.499455,41.142193],"type":"Point"}
}