{
  "id": 554936435,
  "type": "Feature",
  "properties": {
    "edtf:cessation":"uuuu",
    "edtf:inception":"uuuu",
    "geom:area":0.0,
    "geom:bbox":"-73.465879,41.139884,-73.465879,41.139884",
    "geom:latitude":41.139884,
    "geom:longitude":-73.465879,
    "iso:country":"US",
    "sg:address":"30 Middle Ridge",
    "sg:city":"New Canaan",
    "sg:classifiers":[
        {
            "category":"Shopping",
            "subcategory":"Catalog Store",
            "type":"Retail Goods"
        }
    ],
    "sg:owner":"simplegeo",
    "sg:phone":"+1 203 966 5127",
    "sg:postcode":"06840",
    "sg:province":"NY",
    "sg:tags":[
        "mail",
        "house"
    ],
    "src:geom":"simplegeo",
    "wof:belongsto":[
        85879307,
        102191575,
        404495959,
        85633793,
        85930795,
        102084283,
        85688629,
        85848785
    ],
    "wof:breaches":[],
    "wof:concordances":{
        "sg:id":"SG_3j88eADr5osFfJiUW1Aod0_41.139884_-73.465879@1294177022"
    },
    "wof:country":"US",
    "wof:geomhash":"9bd8f8d4fa8ba49a237a56119daeaa34",
    "wof:hierarchy":[
        {
            "continent_id":102191575,
            "country_id":85633793,
            "county_id":102084283,
            "localadmin_id":404495959,
            "locality_id":85930795,
            "neighbourhood_id":85879307,
            "region_id":85688629,
            "venue_id":554936435
        },
        {
            "country_id":85633793,
            "county_id":102084283,
            "neighbourhood_id":85848785,
            "region_id":85688629,
            "venue_id":554936435
        }
    ],
    "wof:id":554936435,
    "wof:lastmodified":1461017220,
    "wof:name":"Lyncroft Sales Corp",
    "wof:parent_id":-1,
    "wof:placetype":"venue",
    "wof:superseded_by":[],
    "wof:supersedes":[],
    "wof:tags":[
        "mail",
        "house"
    ]
},
  "bbox": [
    -73.465879,
    41.139884,
    -73.465879,
    41.139884
],
  "geometry": {"coordinates":[-73.465879,41.139884],"type":"Point"}
}