{
  "id": 554940105,
  "type": "Feature",
  "properties": {
    "edtf:cessation":"uuuu",
    "edtf:inception":"uuuu",
    "geom:area":0.0,
    "geom:bbox":"-79.709374,42.053657,-79.709374,42.053657",
    "geom:latitude":42.053657,
    "geom:longitude":-79.709374,
    "iso:country":"US",
    "sg:address":"10106 Ravlin Hill Rd",
    "sg:city":"Clymer",
    "sg:classifiers":[
        {
            "category":"Government",
            "subcategory":"Office",
            "type":"Public Place"
        }
    ],
    "sg:owner":"simplegeo",
    "sg:phone":"+1 716 355 8801",
    "sg:postcode":"14724",
    "sg:province":"NY",
    "sg:tags":[
        "executive"
    ],
    "src:geom":"simplegeo",
    "wof:belongsto":[
        85688481,
        85633793,
        85850957,
        102080955
    ],
    "wof:breaches":[],
    "wof:concordances":{
        "sg:id":"SG_5rjxvnFaN22ucIhroNhsLr_42.053657_-79.709374@1294177022"
    },
    "wof:country":"US",
    "wof:geomhash":"9fc321ff3530cbda0fa26ef4d9295d28",
    "wof:hierarchy":[
        {
            "country_id":85633793,
            "county_id":102080955,
            "neighbourhood_id":85850957,
            "region_id":85688481,
            "venue_id":554940105
        }
    ],
    "wof:id":554940105,
    "wof:lastmodified":1461017625,
    "wof:name":"French Creek Highway Dept",
    "wof:parent_id":85850957,
    "wof:placetype":"venue",
    "wof:superseded_by":[],
    "wof:supersedes":[],
    "wof:tags":[
        "executive"
    ]
},
  "bbox": [
    -79.709374,
    42.053657,
    -79.709374,
    42.053657
],
  "geometry": {"coordinates":[-79.709374,42.053657],"type":"Point"}
}