{
  "id": 572056071,
  "type": "Feature",
  "properties": {
    "edtf:cessation":"uuuu",
    "edtf:inception":"uuuu",
    "geom:area":0.0,
    "geom:bbox":"-73.856154,40.895725,-73.856154,40.895725",
    "geom:latitude":40.895725,
    "geom:longitude":-73.856154,
    "iso:country":"US",
    "sg:address":"4305 White Plains Rd",
    "sg:city":"Bronx",
    "sg:classifiers":[
        {
            "category":"Personal",
            "subcategory":"Beauty Salon",
            "type":"Services"
        }
    ],
    "sg:owner":"simplegeo",
    "sg:phone":"+1 718 994 2956",
    "sg:postcode":"10466",
    "sg:province":"NY",
    "sg:tags":[
        "hair",
        "stylist"
    ],
    "src:geom":"simplegeo",
    "wof:belongsto":[],
    "wof:breaches":[],
    "wof:concordances":{
        "sg:id":"SG_2VtOJxeTGV5LXM6V7vBLX6_40.895725_-73.856154@1303262323"
    },
    "wof:country":"US",
    "wof:geomhash":"c9e75e998d431f71ebfcd71e059acb48",
    "wof:hierarchy":[],
    "wof:id":572056071,
    "wof:lastmodified":1461048991,
    "wof:name":"Enos Hair Creations",
    "wof:parent_id":-1,
    "wof:placetype":"venue",
    "wof:superseded_by":[],
    "wof:supersedes":[],
    "wof:tags":[
        "hair",
        "stylist"
    ]
},
  "bbox": [
    -73.856154,
    40.895725,
    -73.856154,
    40.895725
],
  "geometry": {"coordinates":[-73.856154,40.895725],"type":"Point"}
}