{
  "id": 554934293,
  "type": "Feature",
  "properties": {
    "edtf:cessation":"uuuu",
    "edtf:inception":"uuuu",
    "geom:area":0.0,
    "geom:bbox":"-74.055965,41.083277,-74.055965,41.083277",
    "geom:latitude":41.083277,
    "geom:longitude":-74.055965,
    "iso:country":"US",
    "sg:address":"36 Red Schoolhouse Rd",
    "sg:city":"Spring Valley",
    "sg:classifiers":[
        {
            "category":"Freight",
            "subcategory":"",
            "type":"Transportation"
        }
    ],
    "sg:owner":"simplegeo",
    "sg:phone":"+1   ",
    "sg:postcode":"10977",
    "sg:province":"NY",
    "src:geom":"simplegeo",
    "wof:belongsto":[
        85853261,
        102191575,
        404523097,
        85633793,
        85978555,
        102082385,
        85688543
    ],
    "wof:breaches":[],
    "wof:concordances":{
        "sg:id":"SG_4Xsjv0ZgRGY7yXWajBksDH_41.083277_-74.055965@1294177022"
    },
    "wof:country":"US",
    "wof:geomhash":"2af960209c453484f6ebcc434359e083",
    "wof:hierarchy":[
        {
            "continent_id":102191575,
            "country_id":85633793,
            "county_id":102082385,
            "localadmin_id":404523097,
            "locality_id":85978555,
            "neighbourhood_id":85853261,
            "region_id":85688543,
            "venue_id":554934293
        }
    ],
    "wof:id":554934293,
    "wof:lastmodified":1461016923,
    "wof:name":"Auto Movers",
    "wof:parent_id":85853261,
    "wof:placetype":"venue",
    "wof:superseded_by":[],
    "wof:supersedes":[],
    "wof:tags":[]
},
  "bbox": [
    -74.055965,
    41.083277,
    -74.055965,
    41.083277
],
  "geometry": {"coordinates":[-74.055965,41.083277],"type":"Point"}
}