{
  "id": 554936549,
  "type": "Feature",
  "properties": {
    "edtf:cessation":"uuuu",
    "edtf:inception":"uuuu",
    "geom:area":0.0,
    "geom:bbox":"-73.530349,41.177238,-73.530349,41.177238",
    "geom:latitude":41.177238,
    "geom:longitude":-73.530349,
    "iso:country":"US",
    "sg:address":"955 West Rd",
    "sg:city":"New Canaan",
    "sg:classifiers":[
        {
            "category":"Shopping",
            "subcategory":"",
            "type":"Retail Goods"
        }
    ],
    "sg:owner":"simplegeo",
    "sg:phone":"+1 203 966 3914",
    "sg:postcode":"06840",
    "sg:province":"NY",
    "sg:tags":[
        "chemical"
    ],
    "src:geom":"simplegeo",
    "wof:belongsto":[],
    "wof:breaches":[],
    "wof:concordances":{
        "sg:id":"SG_2OzksD6iJzloJsMWHPCMs5_41.177238_-73.530349@1294177022"
    },
    "wof:country":"US",
    "wof:geomhash":"5b00be90a9fc5e2d3425f7bc2aeafdaf",
    "wof:hierarchy":[],
    "wof:id":554936549,
    "wof:lastmodified":1461017238,
    "wof:name":"Interocean Chemical & Minerals",
    "wof:parent_id":-1,
    "wof:placetype":"venue",
    "wof:superseded_by":[],
    "wof:supersedes":[],
    "wof:tags":[
        "chemical"
    ]
},
  "bbox": [
    -73.530349,
    41.177238,
    -73.530349,
    41.177238
],
  "geometry": {"coordinates":[-73.530349,41.177238],"type":"Point"}
}