{
  "id": 554939855,
  "type": "Feature",
  "properties": {
    "edtf:cessation":"uuuu",
    "edtf:inception":"uuuu",
    "geom:area":0.0,
    "geom:bbox":"-73.660102,41.023331,-73.660102,41.023331",
    "geom:latitude":41.023331,
    "geom:longitude":-73.660102,
    "iso:country":"US",
    "sg:address":"20 Fletcher Ave",
    "sg:city":"Greenwich",
    "sg:classifiers":[
        {
            "category":"Real Estate",
            "subcategory":"Architect",
            "type":"Services"
        }
    ],
    "sg:owner":"simplegeo",
    "sg:phone":"+1 203 531 6870",
    "sg:postcode":"06831",
    "sg:province":"NY",
    "src:geom":"simplegeo",
    "wof:belongsto":[
        420555461,
        102191575,
        404495949,
        85633793,
        85930937,
        102084283,
        85688629
    ],
    "wof:breaches":[],
    "wof:concordances":{
        "sg:id":"SG_7jB3M8DZ2IUuU6nQo4aWZu_41.023331_-73.660102@1294177022"
    },
    "wof:country":"US",
    "wof:geomhash":"12fce5fdc6c3aafbfb9794f302129a07",
    "wof:hierarchy":[
        {
            "continent_id":102191575,
            "country_id":85633793,
            "county_id":102084283,
            "localadmin_id":404495949,
            "locality_id":85930937,
            "neighbourhood_id":420555461,
            "region_id":85688629,
            "venue_id":554939855
        }
    ],
    "wof:id":554939855,
    "wof:lastmodified":1461017601,
    "wof:name":"Edgewater Group Architects",
    "wof:parent_id":420555461,
    "wof:placetype":"venue",
    "wof:superseded_by":[],
    "wof:supersedes":[],
    "wof:tags":[]
},
  "bbox": [
    -73.660102,
    41.023331,
    -73.660102,
    41.023331
],
  "geometry": {"coordinates":[-73.66010199999999,41.023331],"type":"Point"}
}