{
  "id": 554938635,
  "type": "Feature",
  "properties": {
    "edtf:cessation":"uuuu",
    "edtf:inception":"uuuu",
    "geom:area":0.0,
    "geom:bbox":"-73.659902,41.015003,-73.659902,41.015003",
    "geom:latitude":41.015003,
    "geom:longitude":-73.659902,
    "iso:country":"US",
    "sg:address":"574 Locust Ave",
    "sg:city":"Port Chester",
    "sg:classifiers":[
        {
            "category":"Building & Trades",
            "subcategory":"Landscaping Services",
            "type":"Services"
        }
    ],
    "sg:owner":"simplegeo",
    "sg:phone":"+1 914 937 7910",
    "sg:postcode":"10573",
    "sg:province":"NY",
    "sg:tags":[
        "landscape"
    ],
    "src:geom":"simplegeo",
    "wof:belongsto":[
        85885307,
        102191575,
        404495949,
        85633793,
        85930941,
        102084283,
        85688629
    ],
    "wof:breaches":[],
    "wof:concordances":{
        "sg:id":"SG_5Mk2v7alPDtdiwmiWWXMuW_41.015003_-73.659902@1294177022"
    },
    "wof:country":"US",
    "wof:geomhash":"0896478b278af79eb17546fe0460e32a",
    "wof:hierarchy":[
        {
            "continent_id":102191575,
            "country_id":85633793,
            "county_id":102084283,
            "localadmin_id":404495949,
            "locality_id":85930941,
            "neighbourhood_id":85885307,
            "region_id":85688629,
            "venue_id":554938635
        }
    ],
    "wof:id":554938635,
    "wof:lastmodified":1461017492,
    "wof:name":"Jackies Garden Works",
    "wof:parent_id":85885307,
    "wof:placetype":"venue",
    "wof:superseded_by":[],
    "wof:supersedes":[],
    "wof:tags":[
        "landscape"
    ]
},
  "bbox": [
    -73.659902,
    41.015003,
    -73.659902,
    41.015003
],
  "geometry": {"coordinates":[-73.659902,41.015003],"type":"Point"}
}