{
  "id": 572170853,
  "type": "Feature",
  "properties": {
    "edtf:cessation":"uuuu",
    "edtf:inception":"uuuu",
    "geom:area":0.0,
    "geom:bbox":"-74.22909,40.639991,-74.22909,40.639991",
    "geom:latitude":40.639991,
    "geom:longitude":-74.22909,
    "iso:country":"US",
    "sg:address":"5423 7th Ave",
    "sg:city":"Brooklyn",
    "sg:classifiers":[
        {
            "category":"Shopping",
            "subcategory":"Pharmacy",
            "type":"Retail Goods"
        }
    ],
    "sg:owner":"simplegeo",
    "sg:phone":"+1 718 686 8988",
    "sg:postcode":"11220",
    "sg:province":"NY",
    "sg:tags":[
        "drugstore"
    ],
    "src:geom":"simplegeo",
    "wof:belongsto":[
        85804971,
        102191575,
        404478503,
        85633793,
        85975837,
        102085995,
        85688607
    ],
    "wof:breaches":[],
    "wof:concordances":{
        "sg:id":"SG_1cc24TZv4BJ0GMSV1BFWpX_40.639991_-74.229090@1303262344"
    },
    "wof:country":"US",
    "wof:geomhash":"975e519b7bbb33bdbc04fd5544bfb10e",
    "wof:hierarchy":[
        {
            "continent_id":102191575,
            "country_id":85633793,
            "county_id":102085995,
            "localadmin_id":404478503,
            "locality_id":85975837,
            "neighbourhood_id":85804971,
            "region_id":85688607,
            "venue_id":572170853
        }
    ],
    "wof:id":572170853,
    "wof:lastmodified":1461051434,
    "wof:name":"Healthlink Pharmacy",
    "wof:parent_id":85804971,
    "wof:placetype":"venue",
    "wof:superseded_by":[],
    "wof:supersedes":[],
    "wof:tags":[
        "drugstore"
    ]
},
  "bbox": [
    -74.22909,
    40.639991,
    -74.22909,
    40.639991
],
  "geometry": {"coordinates":[-74.22909,40.639991],"type":"Point"}
}