{
  "id": 572171739,
  "type": "Feature",
  "properties": {
    "edtf:cessation":"uuuu",
    "edtf:inception":"uuuu",
    "geom:area":0.0,
    "geom:bbox":"-74.926054,40.648498,-74.926054,40.648498",
    "geom:latitude":40.648498,
    "geom:longitude":-74.926054,
    "iso:country":"US",
    "sg:address":"150 52nd St",
    "sg:city":"Brooklyn",
    "sg:classifiers":[
        {
            "category":"Building & Trades",
            "subcategory":"Construction",
            "type":"Services"
        }
    ],
    "sg:owner":"simplegeo",
    "sg:phone":"+1 718 439 7437",
    "sg:postcode":"11232",
    "sg:province":"NY",
    "sg:tags":[
        "contractor"
    ],
    "src:geom":"simplegeo",
    "wof:belongsto":[
        85688607,
        85633793,
        85842587,
        102085997
    ],
    "wof:breaches":[],
    "wof:concordances":{
        "sg:id":"SG_4T3poVJ1StKwVv6MtGZLdN_40.648498_-74.926054@1303262349"
    },
    "wof:country":"US",
    "wof:geomhash":"113adb1d30e300f933f3609414e68e3a",
    "wof:hierarchy":[
        {
            "country_id":85633793,
            "county_id":102085997,
            "neighbourhood_id":85842587,
            "region_id":85688607,
            "venue_id":572171739
        }
    ],
    "wof:id":572171739,
    "wof:lastmodified":1461051461,
    "wof:name":"Park Developers And Builders Inc",
    "wof:parent_id":85842587,
    "wof:placetype":"venue",
    "wof:superseded_by":[],
    "wof:supersedes":[],
    "wof:tags":[
        "contractor"
    ]
},
  "bbox": [
    -74.926054,
    40.648498,
    -74.926054,
    40.648498
],
  "geometry": {"coordinates":[-74.92605399999999,40.648498],"type":"Point"}
}