{
  "id": 554940665,
  "type": "Feature",
  "properties": {
    "edtf:cessation":"uuuu",
    "edtf:inception":"uuuu",
    "geom:area":0.0,
    "geom:bbox":"-74.052065,41.065031,-74.052065,41.065031",
    "geom:latitude":41.065031,
    "geom:longitude":-74.052065,
    "iso:country":"US",
    "sg:address":"300 Red Schoolhouse Rd",
    "sg:city":"Spring Valley",
    "sg:classifiers":[
        {
            "category":"Recreation",
            "subcategory":"",
            "type":"Entertainment"
        }
    ],
    "sg:owner":"simplegeo",
    "sg:phone":"+1 845 735 5979",
    "sg:postcode":"10977",
    "sg:province":"NY",
    "sg:tags":[
        "stable"
    ],
    "sg:website":"www.topoftheline.com",
    "src:geom":"simplegeo",
    "wof:belongsto":[
        85853261,
        102191575,
        404523097,
        85633793,
        85978555,
        102082385,
        85688543
    ],
    "wof:breaches":[],
    "wof:concordances":{
        "sg:id":"SG_4wzABaA9irI1NaEeMvV4ii_41.065031_-74.052065@1294177022"
    },
    "wof:country":"US",
    "wof:geomhash":"1378b7eb70566455d81d5b29420a8da8",
    "wof:hierarchy":[
        {
            "continent_id":102191575,
            "country_id":85633793,
            "county_id":102082385,
            "localadmin_id":404523097,
            "locality_id":85978555,
            "neighbourhood_id":85853261,
            "region_id":85688543,
            "venue_id":554940665
        }
    ],
    "wof:id":554940665,
    "wof:lastmodified":1461017669,
    "wof:name":"Top Of The Line Stable",
    "wof:parent_id":85853261,
    "wof:placetype":"venue",
    "wof:superseded_by":[],
    "wof:supersedes":[],
    "wof:tags":[
        "stable"
    ]
},
  "bbox": [
    -74.052065,
    41.065031,
    -74.052065,
    41.065031
],
  "geometry": {"coordinates":[-74.052065,41.065031],"type":"Point"}
}