{
  "id": 555041231,
  "type": "Feature",
  "properties": {
    "edtf:cessation":"uuuu",
    "edtf:inception":"uuuu",
    "geom:area":0.0,
    "geom:bbox":"-79.22814,42.096495,-79.22814,42.096495",
    "geom:latitude":42.096495,
    "geom:longitude":-79.22814,
    "iso:country":"US",
    "sg:address":"59 Winsor St",
    "sg:city":"Jamestown",
    "sg:classifiers":[
        {
            "category":"Wholesale",
            "subcategory":"Electrical",
            "type":"Manufacturing & Wholesale Goods"
        }
    ],
    "sg:owner":"simplegeo",
    "sg:phone":"+1 716 664 5710",
    "sg:postcode":"14701",
    "sg:province":"NY",
    "sg:tags":[
        "alarm",
        "sprinkler",
        "system"
    ],
    "src:geom":"simplegeo",
    "wof:belongsto":[],
    "wof:breaches":[],
    "wof:concordances":{
        "sg:id":"SG_1QebIdlXt5UlqU2mSyj6Qk_42.096495_-79.228140@1294177022"
    },
    "wof:country":"US",
    "wof:geomhash":"1c0cd56b50645cc2fcdf55274250e7ec",
    "wof:hierarchy":[],
    "wof:id":555041231,
    "wof:lastmodified":1461020406,
    "wof:name":"Sandberg Fire Protection Svc",
    "wof:parent_id":420528241,
    "wof:placetype":"venue",
    "wof:superseded_by":[],
    "wof:supersedes":[],
    "wof:tags":[
        "alarm",
        "sprinkler",
        "system"
    ]
},
  "bbox": [
    -79.22814,
    42.096495,
    -79.22814,
    42.096495
],
  "geometry": {"coordinates":[-79.22814,42.096495],"type":"Point"}
}