{
  "id": 571710543,
  "type": "Feature",
  "properties": {
    "edtf:cessation":"uuuu",
    "edtf:inception":"uuuu",
    "geom:area":0.0,
    "geom:bbox":"-77.937481,43.218864,-77.937481,43.218864",
    "geom:latitude":43.218864,
    "geom:longitude":-77.937481,
    "iso:country":"US",
    "sg:address":"64 N Main St",
    "sg:city":"Brockport",
    "sg:classifiers":[
        {
            "category":"Restaurant",
            "subcategory":"",
            "type":"Food & Drink"
        }
    ],
    "sg:menulink":"http://www.allmenus.com/ny/sweden/73693-pizza-hut/menu/",
    "sg:owner":"simplegeo",
    "sg:phone":"+1 585 637 2154",
    "sg:postcode":"14420",
    "sg:province":"NY",
    "sg:tags":[
        "american",
        "pizza"
    ],
    "src:geom":"simplegeo",
    "wof:belongsto":[],
    "wof:breaches":[],
    "wof:concordances":{
        "sg:id":"SG_5L5OKQOY3Gry1OUvAedIJL_43.218864_-77.937481@1299784598"
    },
    "wof:country":"US",
    "wof:geomhash":"ead812df3d2e4ad78864d72ababbbb2b",
    "wof:hierarchy":[],
    "wof:id":571710543,
    "wof:lastmodified":1461041812,
    "wof:name":"Pizza Hut",
    "wof:parent_id":-1,
    "wof:placetype":"venue",
    "wof:superseded_by":[],
    "wof:supersedes":[],
    "wof:tags":[
        "american",
        "pizza"
    ]
},
  "bbox": [
    -77.937481,
    43.218864,
    -77.937481,
    43.218864
],
  "geometry": {"coordinates":[-77.93748100000001,43.218864],"type":"Point"}
}