{
  "id": 554934841,
  "type": "Feature",
  "properties": {
    "edtf:cessation":"uuuu",
    "edtf:inception":"uuuu",
    "geom:area":0.0,
    "geom:bbox":"-74.040431,41.07821,-74.040431,41.07821",
    "geom:latitude":41.07821,
    "geom:longitude":-74.040431,
    "iso:country":"US",
    "sg:address":"22 Renfrew Rd",
    "sg:city":"Spring Valley",
    "sg:classifiers":[
        {
            "category":"Wholesale",
            "subcategory":"Non-durable Goods",
            "type":"Manufacturing & Wholesale Goods"
        }
    ],
    "sg:owner":"simplegeo",
    "sg:phone":"+1 718 361 0126",
    "sg:postcode":"10977",
    "sg:province":"NY",
    "sg:tags":[
        "merchandise"
    ],
    "src:geom":"simplegeo",
    "wof:belongsto":[
        85853261,
        102191575,
        404523097,
        85633793,
        85978555,
        102082385,
        85688543
    ],
    "wof:breaches":[],
    "wof:concordances":{
        "sg:id":"SG_5w4clrBzall0UxqmTkyeoL_41.078210_-74.040431@1294177022"
    },
    "wof:country":"US",
    "wof:geomhash":"e6087f0f93a72ec7b7283189da10796f",
    "wof:hierarchy":[
        {
            "continent_id":102191575,
            "country_id":85633793,
            "county_id":102082385,
            "localadmin_id":404523097,
            "locality_id":85978555,
            "neighbourhood_id":85853261,
            "region_id":85688543,
            "venue_id":554934841
        }
    ],
    "wof:id":554934841,
    "wof:lastmodified":1461016990,
    "wof:name":"Arista Trading Corp",
    "wof:parent_id":85853261,
    "wof:placetype":"venue",
    "wof:superseded_by":[],
    "wof:supersedes":[],
    "wof:tags":[
        "merchandise"
    ]
},
  "bbox": [
    -74.040431,
    41.07821,
    -74.040431,
    41.07821
],
  "geometry": {"coordinates":[-74.040431,41.07821],"type":"Point"}
}