{
  "id": 572170863,
  "type": "Feature",
  "properties": {
    "edtf:cessation":"uuuu",
    "edtf:inception":"uuuu",
    "geom:area":0.0,
    "geom:bbox":"-74.126201,40.647438,-74.126201,40.647438",
    "geom:latitude":40.647438,
    "geom:longitude":-74.126201,
    "iso:country":"US",
    "sg:address":"4602 5th Ave",
    "sg:city":"Brooklyn",
    "sg:classifiers":[
        {
            "category":"Food & Beverages",
            "subcategory":"Groceries & Convenience Stores",
            "type":"Retail Goods"
        }
    ],
    "sg:owner":"simplegeo",
    "sg:phone":"+1 718 492 4020",
    "sg:postcode":"11220",
    "sg:province":"NY",
    "src:geom":"simplegeo",
    "wof:belongsto":[
        85805819,
        102191575,
        404478127,
        85633793,
        85975307,
        102080719,
        85688607
    ],
    "wof:breaches":[],
    "wof:concordances":{
        "sg:id":"SG_1CdfkFZjBtbXunEkQ8M7pi_40.647438_-74.126201@1303262344"
    },
    "wof:country":"US",
    "wof:geomhash":"8200a5d8835736a79701e919b33d5035",
    "wof:hierarchy":[
        {
            "continent_id":102191575,
            "country_id":85633793,
            "county_id":102080719,
            "localadmin_id":404478127,
            "locality_id":85975307,
            "neighbourhood_id":85805819,
            "region_id":85688607,
            "venue_id":572170863
        }
    ],
    "wof:id":572170863,
    "wof:lastmodified":1461051435,
    "wof:name":"Topp's Groceries & Newstand",
    "wof:parent_id":85805819,
    "wof:placetype":"venue",
    "wof:superseded_by":[],
    "wof:supersedes":[],
    "wof:tags":[]
},
  "bbox": [
    -74.126201,
    40.647438,
    -74.126201,
    40.647438
],
  "geometry": {"coordinates":[-74.12620099999999,40.647438],"type":"Point"}
}