{
  "id": 554934975,
  "type": "Feature",
  "properties": {
    "edtf:cessation":"uuuu",
    "edtf:inception":"uuuu",
    "geom:area":0.0,
    "geom:bbox":"-73.488253,41.148802,-73.488253,41.148802",
    "geom:latitude":41.148802,
    "geom:longitude":-73.488253,
    "iso:country":"US",
    "sg:address":"23 Vitti St",
    "sg:city":"New Canaan",
    "sg:classifiers":[
        {
            "category":"Retail",
            "subcategory":"Laundry & Dry Cleaning",
            "type":"Services"
        }
    ],
    "sg:owner":"simplegeo",
    "sg:phone":"+1 203 966 0735",
    "sg:postcode":"06840",
    "sg:province":"NY",
    "sg:tags":[
        "garment",
        "cleaners",
        "plant",
        "agent",
        "drycleaning"
    ],
    "src:geom":"simplegeo",
    "wof:belongsto":[
        85688629,
        85633793,
        85851779,
        102084283
    ],
    "wof:breaches":[],
    "wof:concordances":{
        "sg:id":"SG_4aIDBXL4bIT9V1Vt3Ejs44_41.148802_-73.488253@1294177022"
    },
    "wof:country":"US",
    "wof:geomhash":"2d02cfd2b27249ca1fb1ddae834d2a05",
    "wof:hierarchy":[
        {
            "country_id":85633793,
            "county_id":102084283,
            "neighbourhood_id":85851779,
            "region_id":85688629,
            "venue_id":554934975
        }
    ],
    "wof:id":554934975,
    "wof:lastmodified":1461017006,
    "wof:name":"Personalized Laundry & Dry Cln",
    "wof:parent_id":85851779,
    "wof:placetype":"venue",
    "wof:superseded_by":[],
    "wof:supersedes":[],
    "wof:tags":[
        "garment",
        "cleaners",
        "plant",
        "agent",
        "drycleaning"
    ]
},
  "bbox": [
    -73.488253,
    41.148802,
    -73.488253,
    41.148802
],
  "geometry": {"coordinates":[-73.488253,41.148802],"type":"Point"}
}