{
  "id": 554935501,
  "type": "Feature",
  "properties": {
    "edtf:cessation":"uuuu",
    "edtf:inception":"uuuu",
    "geom:area":0.0,
    "geom:bbox":"-73.491712,41.147771,-73.491712,41.147771",
    "geom:latitude":41.147771,
    "geom:longitude":-73.491712,
    "iso:country":"US",
    "sg:address":"24 East Ave",
    "sg:city":"New Canaan",
    "sg:classifiers":[
        {
            "category":"Utilities",
            "subcategory":"Telephone",
            "type":"Services"
        }
    ],
    "sg:owner":"simplegeo",
    "sg:phone":"+1   ",
    "sg:postcode":"06840",
    "sg:province":"NY",
    "sg:tags":[
        "career",
        "on",
        "internet"
    ],
    "src:geom":"simplegeo",
    "wof:belongsto":[
        85688629,
        85633793,
        85851779,
        102084283
    ],
    "wof:breaches":[],
    "wof:concordances":{
        "sg:id":"SG_6WaJmSjh22Ni3d4IDoZeyO_41.147771_-73.491712@1294177022"
    },
    "wof:country":"US",
    "wof:geomhash":"e831f947a73c13cbfa5dc3cda84030b9",
    "wof:hierarchy":[
        {
            "country_id":85633793,
            "county_id":102084283,
            "neighbourhood_id":85851779,
            "region_id":85688629,
            "venue_id":554935501
        }
    ],
    "wof:id":554935501,
    "wof:lastmodified":1461017081,
    "wof:name":"Hire Power The",
    "wof:parent_id":85851779,
    "wof:placetype":"venue",
    "wof:superseded_by":[],
    "wof:supersedes":[],
    "wof:tags":[
        "career",
        "on",
        "internet"
    ]
},
  "bbox": [
    -73.491712,
    41.147771,
    -73.491712,
    41.147771
],
  "geometry": {"coordinates":[-73.49171200000001,41.147771],"type":"Point"}
}