{
  "id": 572170153,
  "type": "Feature",
  "properties": {
    "edtf:cessation":"uuuu",
    "edtf:inception":"uuuu",
    "geom:area":0.0,
    "geom:bbox":"-74.220964,40.630039,-74.220964,40.630039",
    "geom:latitude":40.630039,
    "geom:longitude":-74.220964,
    "iso:country":"US",
    "sg:address":"7427 5th Ave",
    "sg:city":"Brooklyn",
    "sg:classifiers":[
        {
            "category":"Banks & Credit Unions",
            "subcategory":"Bank",
            "type":"Services"
        }
    ],
    "sg:owner":"simplegeo",
    "sg:phone":"+1 718 745 2186",
    "sg:postcode":"11209",
    "sg:province":"NY",
    "sg:website":"www.chase.com",
    "src:geom":"simplegeo",
    "wof:belongsto":[
        85804971,
        102191575,
        404478503,
        85633793,
        85975837,
        102085995,
        85688607
    ],
    "wof:breaches":[],
    "wof:concordances":{
        "sg:id":"SG_1XByGsrchwMD3XPaFAw2HA_40.630039_-74.220964@1303262338"
    },
    "wof:country":"US",
    "wof:geomhash":"3909cc073c25e9dcedb8574345024437",
    "wof:hierarchy":[
        {
            "continent_id":102191575,
            "country_id":85633793,
            "county_id":102085995,
            "localadmin_id":404478503,
            "locality_id":85975837,
            "neighbourhood_id":85804971,
            "region_id":85688607,
            "venue_id":572170153
        }
    ],
    "wof:id":572170153,
    "wof:lastmodified":1461051412,
    "wof:name":"Chase",
    "wof:parent_id":85804971,
    "wof:placetype":"venue",
    "wof:superseded_by":[],
    "wof:supersedes":[],
    "wof:tags":[]
},
  "bbox": [
    -74.220964,
    40.630039,
    -74.220964,
    40.630039
],
  "geometry": {"coordinates":[-74.220964,40.630039],"type":"Point"}
}