{
  "id": 554937433,
  "type": "Feature",
  "properties": {
    "edtf:cessation":"uuuu",
    "edtf:inception":"uuuu",
    "geom:area":0.0,
    "geom:bbox":"-73.485104,41.136662,-73.485104,41.136662",
    "geom:latitude":41.136662,
    "geom:longitude":-73.485104,
    "iso:country":"US",
    "sg:address":"93 Elm Pl",
    "sg:city":"New Canaan",
    "sg:classifiers":[
        {
            "category":"Arts & Performance",
            "subcategory":"Theater",
            "type":"Entertainment"
        }
    ],
    "sg:owner":"simplegeo",
    "sg:phone":"+1 203 966 0600",
    "sg:postcode":"06840",
    "sg:province":"NY",
    "src:geom":"simplegeo",
    "wof:belongsto":[
        85688629,
        85633793,
        85851779,
        102084283
    ],
    "wof:breaches":[],
    "wof:concordances":{
        "sg:id":"SG_6vrKUJGrlnEyzOof3Hsf3W_41.136662_-73.485104@1294177022"
    },
    "wof:country":"US",
    "wof:geomhash":"14f2901be9aa4ef73a9147c5c88d8bf3",
    "wof:hierarchy":[
        {
            "country_id":85633793,
            "county_id":102084283,
            "neighbourhood_id":85851779,
            "region_id":85688629,
            "venue_id":554937433
        }
    ],
    "wof:id":554937433,
    "wof:lastmodified":1461017372,
    "wof:name":"New Canaan Playhouse",
    "wof:parent_id":85851779,
    "wof:placetype":"venue",
    "wof:superseded_by":[],
    "wof:supersedes":[],
    "wof:tags":[]
},
  "bbox": [
    -73.485104,
    41.136662,
    -73.485104,
    41.136662
],
  "geometry": {"coordinates":[-73.48510400000001,41.136662],"type":"Point"}
}