{
  "id": 554935117,
  "type": "Feature",
  "properties": {
    "edtf:cessation":"uuuu",
    "edtf:inception":"uuuu",
    "geom:area":0.0,
    "geom:bbox":"-73.508968,41.145028,-73.508968,41.145028",
    "geom:latitude":41.145028,
    "geom:longitude":-73.508968,
    "iso:country":"US",
    "sg:address":"2 Woods End Rd",
    "sg:city":"New Canaan",
    "sg:classifiers":[
        {
            "category":"Personal",
            "subcategory":"",
            "type":"Services"
        }
    ],
    "sg:owner":"simplegeo",
    "sg:phone":"+1   ",
    "sg:postcode":"06840",
    "sg:province":"NY",
    "src:geom":"simplegeo",
    "wof:belongsto":[
        85688629,
        85633793,
        85851779,
        102084283
    ],
    "wof:breaches":[],
    "wof:concordances":{
        "sg:id":"SG_1nu6sDTEZyBTDqlirrOHfj_41.145028_-73.508968@1294177022"
    },
    "wof:country":"US",
    "wof:geomhash":"fe0d39cfe3ea9c2a33b0c29d29af2719",
    "wof:hierarchy":[
        {
            "country_id":85633793,
            "county_id":102084283,
            "neighbourhood_id":85851779,
            "region_id":85688629,
            "venue_id":554935117
        }
    ],
    "wof:id":554935117,
    "wof:lastmodified":1461017026,
    "wof:name":"Lyn Chivvis Massage Therapy",
    "wof:parent_id":85851779,
    "wof:placetype":"venue",
    "wof:superseded_by":[],
    "wof:supersedes":[],
    "wof:tags":[]
},
  "bbox": [
    -73.508968,
    41.145028,
    -73.508968,
    41.145028
],
  "geometry": {"coordinates":[-73.508968,41.145028],"type":"Point"}
}