{
  "id": 554941419,
  "type": "Feature",
  "properties": {
    "edtf:cessation":"uuuu",
    "edtf:inception":"uuuu",
    "geom:area":0.0,
    "geom:bbox":"-73.46051,41.136978,-73.46051,41.136978",
    "geom:latitude":41.136978,
    "geom:longitude":-73.46051,
    "iso:country":"US",
    "sg:address":"728 Carter St",
    "sg:city":"New Canaan",
    "sg:classifiers":[
        {
            "category":"Education",
            "subcategory":"Special Training",
            "type":"Public Place"
        }
    ],
    "sg:owner":"simplegeo",
    "sg:phone":"+1   ",
    "sg:postcode":"06840",
    "sg:province":"NY",
    "src:geom":"simplegeo",
    "wof:belongsto":[
        85879307,
        102191575,
        404495959,
        85633793,
        85930795,
        102084283,
        85688629,
        85848785
    ],
    "wof:breaches":[],
    "wof:concordances":{
        "sg:id":"SG_64p7y3xehsiBzWWiEk8Uco_41.136978_-73.460510@1294177022"
    },
    "wof:country":"US",
    "wof:geomhash":"12d9e762740b7f6828da5eeb15a99026",
    "wof:hierarchy":[
        {
            "continent_id":102191575,
            "country_id":85633793,
            "county_id":102084283,
            "localadmin_id":404495959,
            "locality_id":85930795,
            "neighbourhood_id":85879307,
            "region_id":85688629,
            "venue_id":554941419
        },
        {
            "country_id":85633793,
            "county_id":102084283,
            "neighbourhood_id":85848785,
            "region_id":85688629,
            "venue_id":554941419
        }
    ],
    "wof:id":554941419,
    "wof:lastmodified":1461017746,
    "wof:name":"Traynor Educational Consulting",
    "wof:parent_id":-1,
    "wof:placetype":"venue",
    "wof:superseded_by":[],
    "wof:supersedes":[],
    "wof:tags":[]
},
  "bbox": [
    -73.46051,
    41.136978,
    -73.46051,
    41.136978
],
  "geometry": {"coordinates":[-73.46051,41.136978],"type":"Point"}
}