{
  "id": 554936245,
  "type": "Feature",
  "properties": {
    "edtf:cessation":"uuuu",
    "edtf:inception":"uuuu",
    "geom:area":0.0,
    "geom:bbox":"-73.659875,41.016356,-73.659875,41.016356",
    "geom:latitude":41.016356,
    "geom:longitude":-73.659875,
    "iso:country":"US",
    "sg:address":"80 Halstead Ave",
    "sg:city":"Port Chester",
    "sg:classifiers":[
        {
            "category":"Building & Trades",
            "subcategory":"Electrical",
            "type":"Services"
        }
    ],
    "sg:owner":"simplegeo",
    "sg:phone":"+1 914 939 0331",
    "sg:postcode":"10573",
    "sg:province":"NY",
    "sg:tags":[
        "electrical",
        "contractor"
    ],
    "src:geom":"simplegeo",
    "wof:belongsto":[
        85885307,
        102191575,
        404495949,
        85633793,
        85930941,
        102084283,
        85688629
    ],
    "wof:breaches":[],
    "wof:concordances":{
        "sg:id":"SG_5TIOI99TtGrMWuEQWPaHEc_41.016356_-73.659875@1294177022"
    },
    "wof:country":"US",
    "wof:geomhash":"d11d11288625b5d002f9fed50d11f8fb",
    "wof:hierarchy":[
        {
            "continent_id":102191575,
            "country_id":85633793,
            "county_id":102084283,
            "localadmin_id":404495949,
            "locality_id":85930941,
            "neighbourhood_id":85885307,
            "region_id":85688629,
            "venue_id":554936245
        }
    ],
    "wof:id":554936245,
    "wof:lastmodified":1461017188,
    "wof:name":"Expert Electric",
    "wof:parent_id":85885307,
    "wof:placetype":"venue",
    "wof:superseded_by":[],
    "wof:supersedes":[],
    "wof:tags":[
        "electrical",
        "contractor"
    ]
},
  "bbox": [
    -73.659875,
    41.016356,
    -73.659875,
    41.016356
],
  "geometry": {"coordinates":[-73.659875,41.016356],"type":"Point"}
}