{
  "id": 554935259,
  "type": "Feature",
  "properties": {
    "edtf:cessation":"uuuu",
    "edtf:inception":"uuuu",
    "geom:area":0.0,
    "geom:bbox":"-73.489946,41.16896,-73.489946,41.16896",
    "geom:latitude":41.16896,
    "geom:longitude":-73.489946,
    "iso:country":"US",
    "sg:address":"312 Rosebrook Rd",
    "sg:city":"New Canaan",
    "sg:classifiers":[
        {
            "category":"Banks & Credit Unions",
            "subcategory":"Investment Brokerage",
            "type":"Services"
        }
    ],
    "sg:owner":"simplegeo",
    "sg:phone":"+1 203 966 4797",
    "sg:postcode":"06840",
    "sg:province":"NY",
    "sg:tags":[
        "security"
    ],
    "src:geom":"simplegeo",
    "wof:belongsto":[],
    "wof:breaches":[],
    "wof:concordances":{
        "sg:id":"SG_1H58NCSRcitiM05A4s6t5W_41.168960_-73.489946@1294177022"
    },
    "wof:country":"US",
    "wof:geomhash":"a9983f4af2ba7a3278382d7235147bb2",
    "wof:hierarchy":[],
    "wof:id":554935259,
    "wof:lastmodified":1461017046,
    "wof:name":"Jerry Hartnett",
    "wof:parent_id":-1,
    "wof:placetype":"venue",
    "wof:superseded_by":[],
    "wof:supersedes":[],
    "wof:tags":[
        "security"
    ]
},
  "bbox": [
    -73.489946,
    41.16896,
    -73.489946,
    41.16896
],
  "geometry": {"coordinates":[-73.489946,41.16896],"type":"Point"}
}