{
  "id": 554935439,
  "type": "Feature",
  "properties": {
    "edtf:cessation":"uuuu",
    "edtf:inception":"uuuu",
    "geom:area":0.0,
    "geom:bbox":"-73.488444,41.14871,-73.488444,41.14871",
    "geom:latitude":41.14871,
    "geom:longitude":-73.488444,
    "iso:country":"US",
    "sg:address":"29 Vitti St",
    "sg:city":"New Canaan",
    "sg:classifiers":[
        {
            "category":"Building & Trades",
            "subcategory":"Plumbing",
            "type":"Services"
        }
    ],
    "sg:owner":"simplegeo",
    "sg:phone":"+1 203 966 5631",
    "sg:postcode":"06840",
    "sg:province":"NY",
    "sg:tags":[
        "plumbing",
        "contractor"
    ],
    "src:geom":"simplegeo",
    "wof:belongsto":[
        85688629,
        85633793,
        85851779,
        102084283
    ],
    "wof:breaches":[],
    "wof:concordances":{
        "sg:id":"SG_5NzuVH4RdBFuyYSMXQswsM_41.148710_-73.488444@1294177022"
    },
    "wof:country":"US",
    "wof:geomhash":"ed6de867bf3b00e6f6ba757efe552894",
    "wof:hierarchy":[
        {
            "country_id":85633793,
            "county_id":102084283,
            "neighbourhood_id":85851779,
            "region_id":85688629,
            "venue_id":554935439
        }
    ],
    "wof:id":554935439,
    "wof:lastmodified":1461017069,
    "wof:name":"Modern Plumbing & Heating Shop",
    "wof:parent_id":85851779,
    "wof:placetype":"venue",
    "wof:superseded_by":[],
    "wof:supersedes":[],
    "wof:tags":[
        "plumbing",
        "contractor"
    ]
},
  "bbox": [
    -73.488444,
    41.14871,
    -73.488444,
    41.14871
],
  "geometry": {"coordinates":[-73.488444,41.14871],"type":"Point"}
}