{
  "id": 554938721,
  "type": "Feature",
  "properties": {
    "edtf:cessation":"uuuu",
    "edtf:inception":"uuuu",
    "geom:area":0.0,
    "geom:bbox":"-73.493472,41.153684,-73.493472,41.153684",
    "geom:latitude":41.153684,
    "geom:longitude":-73.493472,
    "iso:country":"US",
    "sg:address":"102 Forest St",
    "sg:city":"New Canaan",
    "sg:classifiers":[
        {
            "category":"Real Estate",
            "subcategory":"Architect",
            "type":"Services"
        }
    ],
    "sg:owner":"simplegeo",
    "sg:phone":"+1   ",
    "sg:postcode":"06840",
    "sg:province":"NY",
    "sg:tags":[
        "architectural"
    ],
    "src:geom":"simplegeo",
    "wof:belongsto":[
        85688629,
        85633793,
        85851779,
        102084283
    ],
    "wof:breaches":[],
    "wof:concordances":{
        "sg:id":"SG_09NoDOIyGcFxpjR6pwHMOq_41.153684_-73.493472@1294177022"
    },
    "wof:country":"US",
    "wof:geomhash":"1a80676e9d7f30ce4b178f957a53bd2e",
    "wof:hierarchy":[
        {
            "country_id":85633793,
            "county_id":102084283,
            "neighbourhood_id":85851779,
            "region_id":85688629,
            "venue_id":554938721
        }
    ],
    "wof:id":554938721,
    "wof:lastmodified":1461017498,
    "wof:name":"Mastera John R Assoc Archtects",
    "wof:parent_id":85851779,
    "wof:placetype":"venue",
    "wof:superseded_by":[],
    "wof:supersedes":[],
    "wof:tags":[
        "architectural"
    ]
},
  "bbox": [
    -73.493472,
    41.153684,
    -73.493472,
    41.153684
],
  "geometry": {"coordinates":[-73.493472,41.153684],"type":"Point"}
}