{
  "id": 554934957,
  "type": "Feature",
  "properties": {
    "edtf:cessation":"uuuu",
    "edtf:inception":"uuuu",
    "geom:area":0.0,
    "geom:bbox":"-73.498025,41.158849,-73.498025,41.158849",
    "geom:latitude":41.158849,
    "geom:longitude":-73.498025,
    "iso:country":"US",
    "sg:address":"17 Siwanoy Ln",
    "sg:city":"New Canaan",
    "sg:classifiers":[
        {
            "category":"Manufacturing",
            "subcategory":"Buildings",
            "type":"Manufacturing & Wholesale Goods"
        }
    ],
    "sg:owner":"simplegeo",
    "sg:phone":"+1 203 966 2915",
    "sg:postcode":"06840",
    "sg:province":"NY",
    "sg:tags":[
        "prefabricated",
        "wood",
        "mfg"
    ],
    "src:geom":"simplegeo",
    "wof:belongsto":[],
    "wof:breaches":[],
    "wof:concordances":{
        "sg:id":"SG_0kEUGOHjpgoYkiIWG0a1fC_41.158849_-73.498025@1294177022"
    },
    "wof:country":"US",
    "wof:geomhash":"9c28b11ad893c0e1879e39cd7e11753a",
    "wof:hierarchy":[],
    "wof:id":554934957,
    "wof:lastmodified":1461017004,
    "wof:name":"Canaan Building Associates",
    "wof:parent_id":-1,
    "wof:placetype":"venue",
    "wof:superseded_by":[],
    "wof:supersedes":[],
    "wof:tags":[
        "prefabricated",
        "wood",
        "mfg"
    ]
},
  "bbox": [
    -73.498025,
    41.158849,
    -73.498025,
    41.158849
],
  "geometry": {"coordinates":[-73.498025,41.158849],"type":"Point"}
}