{
  "id": 554934187,
  "type": "Feature",
  "properties": {
    "edtf:cessation":"uuuu",
    "edtf:inception":"uuuu",
    "geom:area":0.0,
    "geom:bbox":"-74.617463,41.33039,-74.617463,41.33039",
    "geom:latitude":41.33039,
    "geom:longitude":-74.617463,
    "iso:country":"US",
    "sg:address":"36 Dug Rd",
    "sg:city":"Port Jervis",
    "sg:classifiers":[
        {
            "category":"Retail",
            "subcategory":"Repair Shop",
            "type":"Services"
        }
    ],
    "sg:owner":"simplegeo",
    "sg:phone":"+1   ",
    "sg:postcode":"12771",
    "sg:province":"NY",
    "sg:tags":[
        "refrigeration"
    ],
    "src:geom":"simplegeo",
    "wof:belongsto":[
        85688607,
        85633793,
        85835695,
        102086779
    ],
    "wof:breaches":[],
    "wof:concordances":{
        "sg:id":"SG_5ZFXoxIk5TTby6bVqNb9gv_41.330390_-74.617463@1294177022"
    },
    "wof:country":"US",
    "wof:geomhash":"dcfea49dc93e7c494bda27d42c0fc956",
    "wof:hierarchy":[
        {
            "country_id":85633793,
            "county_id":102086779,
            "neighbourhood_id":85835695,
            "region_id":85688607,
            "venue_id":554934187
        }
    ],
    "wof:id":554934187,
    "wof:lastmodified":1461016909,
    "wof:name":"R & K Refrigeration",
    "wof:parent_id":85835695,
    "wof:placetype":"venue",
    "wof:superseded_by":[],
    "wof:supersedes":[],
    "wof:tags":[
        "refrigeration"
    ]
},
  "bbox": [
    -74.617463,
    41.33039,
    -74.617463,
    41.33039
],
  "geometry": {"coordinates":[-74.617463,41.33039],"type":"Point"}
}