{
  "id": 554936887,
  "type": "Feature",
  "properties": {
    "edtf:cessation":"uuuu",
    "edtf:inception":"uuuu",
    "geom:area":0.0,
    "geom:bbox":"-73.489515,41.144131,-73.489515,41.144131",
    "geom:latitude":41.144131,
    "geom:longitude":-73.489515,
    "iso:country":"US",
    "sg:address":"231 Main St",
    "sg:city":"New Canaan",
    "sg:classifiers":[
        {
            "category":"Organizations",
            "subcategory":"Community Association",
            "type":"Services"
        }
    ],
    "sg:owner":"simplegeo",
    "sg:phone":"+1 203 966 9874",
    "sg:postcode":"06840",
    "sg:province":"NY",
    "sg:tags":[
        "club"
    ],
    "src:geom":"simplegeo",
    "wof:belongsto":[
        85688629,
        85633793,
        85851779,
        102084283
    ],
    "wof:breaches":[],
    "wof:concordances":{
        "sg:id":"SG_0PwM5Tv2FPZqK8DKUKAWmN_41.144131_-73.489515@1294177022"
    },
    "wof:country":"US",
    "wof:geomhash":"c6e5146b5877ee76d21d9835103459ae",
    "wof:hierarchy":[
        {
            "country_id":85633793,
            "county_id":102084283,
            "neighbourhood_id":85851779,
            "region_id":85688629,
            "venue_id":554936887
        }
    ],
    "wof:id":554936887,
    "wof:lastmodified":1461017287,
    "wof:name":"Masonic Lodge",
    "wof:parent_id":85851779,
    "wof:placetype":"venue",
    "wof:superseded_by":[],
    "wof:supersedes":[],
    "wof:tags":[
        "club"
    ]
},
  "bbox": [
    -73.489515,
    41.144131,
    -73.489515,
    41.144131
],
  "geometry": {"coordinates":[-73.489515,41.144131],"type":"Point"}
}