{
  "id": 554937603,
  "type": "Feature",
  "properties": {
    "edtf:cessation":"uuuu",
    "edtf:inception":"uuuu",
    "geom:area":0.0,
    "geom:bbox":"-73.488512,41.149461,-73.488512,41.149461",
    "geom:latitude":41.149461,
    "geom:longitude":-73.488512,
    "iso:country":"US",
    "sg:address":"21 Cross St",
    "sg:city":"New Canaan",
    "sg:classifiers":[
        {
            "category":"Wholesale",
            "subcategory":"Durable Goods & Equipment",
            "type":"Manufacturing & Wholesale Goods"
        }
    ],
    "sg:owner":"simplegeo",
    "sg:phone":"+1 203 856 0058",
    "sg:postcode":"06840",
    "sg:province":"NY",
    "src:geom":"simplegeo",
    "wof:belongsto":[
        85688629,
        85633793,
        85851779,
        102084283
    ],
    "wof:breaches":[],
    "wof:concordances":{
        "sg:id":"SG_69x1tEhmLIzGe2V9szTPEd_41.149461_-73.488512@1294177022"
    },
    "wof:country":"US",
    "wof:geomhash":"43efa2bee9bed721b1bae715b7c1144a",
    "wof:hierarchy":[
        {
            "country_id":85633793,
            "county_id":102084283,
            "neighbourhood_id":85851779,
            "region_id":85688629,
            "venue_id":554937603
        }
    ],
    "wof:id":554937603,
    "wof:lastmodified":1461017392,
    "wof:name":"Robert Allen Multi Media",
    "wof:parent_id":85851779,
    "wof:placetype":"venue",
    "wof:superseded_by":[],
    "wof:supersedes":[],
    "wof:tags":[]
},
  "bbox": [
    -73.488512,
    41.149461,
    -73.488512,
    41.149461
],
  "geometry": {"coordinates":[-73.488512,41.149461],"type":"Point"}
}