{
  "id": 554937931,
  "type": "Feature",
  "properties": {
    "edtf:cessation":"uuuu",
    "edtf:inception":"uuuu",
    "geom:area":0.0,
    "geom:bbox":"-74.052117,41.089118,-74.052117,41.089118",
    "geom:latitude":41.089118,
    "geom:longitude":-74.052117,
    "iso:country":"US",
    "sg:address":"747 Chestnut Ridge Rd",
    "sg:city":"Spring Valley",
    "sg:classifiers":[
        {
            "category":"Professional",
            "subcategory":"Lawyer & Legal Services",
            "type":"Services"
        }
    ],
    "sg:owner":"simplegeo",
    "sg:phone":"+1 845 369 1890",
    "sg:postcode":"10977",
    "sg:province":"NY",
    "sg:tags":[
        "attorney"
    ],
    "src:geom":"simplegeo",
    "wof:belongsto":[
        85853261,
        102191575,
        404523097,
        85633793,
        85978555,
        102082385,
        85688543
    ],
    "wof:breaches":[],
    "wof:concordances":{
        "sg:id":"SG_6tEGm1NElBKP6ledBXlURf_41.089118_-74.052117@1294177022"
    },
    "wof:country":"US",
    "wof:geomhash":"b96a4c5bef5d61fe1d979b2eb05fe509",
    "wof:hierarchy":[
        {
            "continent_id":102191575,
            "country_id":85633793,
            "county_id":102082385,
            "localadmin_id":404523097,
            "locality_id":85978555,
            "neighbourhood_id":85853261,
            "region_id":85688543,
            "venue_id":554937931
        }
    ],
    "wof:id":554937931,
    "wof:lastmodified":1461017430,
    "wof:name":"Chester Shaw",
    "wof:parent_id":85853261,
    "wof:placetype":"venue",
    "wof:superseded_by":[],
    "wof:supersedes":[],
    "wof:tags":[
        "attorney"
    ]
},
  "bbox": [
    -74.052117,
    41.089118,
    -74.052117,
    41.089118
],
  "geometry": {"coordinates":[-74.052117,41.089118],"type":"Point"}
}