{
  "id": 554934649,
  "type": "Feature",
  "properties": {
    "edtf:cessation":"uuuu",
    "edtf:inception":"uuuu",
    "geom:area":0.0,
    "geom:bbox":"-77.312418,41.990472,-77.312418,41.990472",
    "geom:latitude":41.990472,
    "geom:longitude":-77.312418,
    "iso:country":"US",
    "sg:address":"305 N Buffalo St",
    "sg:city":"Elkland",
    "sg:classifiers":[
        {
            "category":"Professional",
            "subcategory":"",
            "type":"Services"
        }
    ],
    "sg:owner":"simplegeo",
    "sg:phone":"+1 814 258 5632",
    "sg:postcode":"16920",
    "sg:province":"NY",
    "sg:tags":[
        "establishment"
    ],
    "src:geom":"simplegeo",
    "wof:belongsto":[
        85688481,
        85633793,
        101717081,
        102080937,
        85807903
    ],
    "wof:breaches":[],
    "wof:concordances":{
        "sg:id":"SG_2YDbPLX5BjlpMeofZXl5SK_41.990472_-77.312418@1294177022"
    },
    "wof:country":"US",
    "wof:geomhash":"bc4c5906661b10f1f53c839dee95af19",
    "wof:hierarchy":[
        {
            "country_id":85633793,
            "county_id":102080937,
            "locality_id":101717081,
            "neighbourhood_id":85807903,
            "region_id":85688481,
            "venue_id":554934649
        }
    ],
    "wof:id":554934649,
    "wof:lastmodified":1461016967,
    "wof:name":"Five Star Enterprises",
    "wof:parent_id":85807903,
    "wof:placetype":"venue",
    "wof:superseded_by":[],
    "wof:supersedes":[],
    "wof:tags":[
        "establishment"
    ]
},
  "bbox": [
    -77.312418,
    41.990472,
    -77.312418,
    41.990472
],
  "geometry": {"coordinates":[-77.31241799999999,41.990472],"type":"Point"}
}