{
  "id": 572170835,
  "type": "Feature",
  "properties": {
    "edtf:cessation":"uuuu",
    "edtf:inception":"uuuu",
    "geom:area":0.0,
    "geom:bbox":"-74.25471,40.642738,-74.25471,40.642738",
    "geom:latitude":40.642738,
    "geom:longitude":-74.25471,
    "iso:country":"US",
    "sg:address":"5407 5th Ave",
    "sg:city":"Brooklyn",
    "sg:classifiers":[
        {
            "category":"Health Services",
            "subcategory":"Doctor",
            "type":"Services"
        }
    ],
    "sg:owner":"simplegeo",
    "sg:phone":"+1 718 833 7860",
    "sg:postcode":"11220",
    "sg:province":"NY",
    "src:geom":"simplegeo",
    "wof:belongsto":[
        85817887,
        102191575,
        404477587,
        85633793,
        85975833,
        102085995,
        85688607
    ],
    "wof:breaches":[],
    "wof:concordances":{
        "sg:id":"SG_1vCJLT0TN49BbqA8GuIrs8_40.642738_-74.254710@1303262344"
    },
    "wof:country":"US",
    "wof:geomhash":"7005d36cf390e7a8038425148416797f",
    "wof:hierarchy":[
        {
            "continent_id":102191575,
            "country_id":85633793,
            "county_id":102085995,
            "localadmin_id":404477587,
            "locality_id":85975833,
            "neighbourhood_id":85817887,
            "region_id":85688607,
            "venue_id":572170835
        }
    ],
    "wof:id":572170835,
    "wof:lastmodified":1461051434,
    "wof:name":"Shalhla S Mallick Medical PC",
    "wof:parent_id":85817887,
    "wof:placetype":"venue",
    "wof:superseded_by":[],
    "wof:supersedes":[],
    "wof:tags":[]
},
  "bbox": [
    -74.25471,
    40.642738,
    -74.25471,
    40.642738
],
  "geometry": {"coordinates":[-74.25471,40.642738],"type":"Point"}
}