{
  "id": 554936831,
  "type": "Feature",
  "properties": {
    "edtf:cessation":"uuuu",
    "edtf:inception":"uuuu",
    "geom:area":0.0,
    "geom:bbox":"-79.708858,42.267485,-79.708858,42.267485",
    "geom:latitude":42.267485,
    "geom:longitude":-79.708858,
    "iso:country":"US",
    "sg:address":"39 Main St",
    "sg:city":"Ripley",
    "sg:classifiers":[
        {
            "category":"Food & Beverages",
            "subcategory":"Groceries & Convenience Stores",
            "type":"Retail Goods"
        }
    ],
    "sg:owner":"simplegeo",
    "sg:phone":"+1 716 736 7501",
    "sg:postcode":"14775",
    "sg:province":"NY",
    "sg:tags":[
        "grocer"
    ],
    "src:geom":"simplegeo",
    "wof:belongsto":[
        85688481,
        85633793,
        85850957,
        102080955
    ],
    "wof:breaches":[],
    "wof:concordances":{
        "sg:id":"SG_2Gtephyy5m7E7XvoONbUj6_42.267485_-79.708858@1294177022"
    },
    "wof:country":"US",
    "wof:geomhash":"18064ec555621ce0ccc7db85ce98b315",
    "wof:hierarchy":[
        {
            "country_id":85633793,
            "county_id":102080955,
            "neighbourhood_id":85850957,
            "region_id":85688481,
            "venue_id":554936831
        }
    ],
    "wof:id":554936831,
    "wof:lastmodified":1461017280,
    "wof:name":"Country Fair Markets",
    "wof:parent_id":85850957,
    "wof:placetype":"venue",
    "wof:superseded_by":[],
    "wof:supersedes":[],
    "wof:tags":[
        "grocer"
    ]
},
  "bbox": [
    -79.708858,
    42.267485,
    -79.708858,
    42.267485
],
  "geometry": {"coordinates":[-79.70885800000001,42.267485],"type":"Point"}
}