{
  "id": 572170657,
  "type": "Feature",
  "properties": {
    "edtf:cessation":"uuuu",
    "edtf:inception":"uuuu",
    "geom:area":0.0,
    "geom:bbox":"-74.319294,40.630361,-74.319294,40.630361",
    "geom:latitude":40.630361,
    "geom:longitude":-74.319294,
    "iso:country":"US",
    "sg:address":"1176 60th St",
    "sg:city":"Brooklyn",
    "sg:classifiers":[
        {
            "category":"Home & Garden",
            "subcategory":"Hardware",
            "type":"Retail Goods"
        }
    ],
    "sg:owner":"simplegeo",
    "sg:phone":"+1 718 853 5588",
    "sg:postcode":"11219",
    "sg:province":"NY",
    "sg:tags":[
        "store"
    ],
    "src:geom":"simplegeo",
    "wof:belongsto":[],
    "wof:breaches":[],
    "wof:concordances":{
        "sg:id":"SG_3T5uNC6CLLZTxhIw8EI55T_40.630361_-74.319294@1303262343"
    },
    "wof:country":"US",
    "wof:geomhash":"18f21d4712f70e49b9112eff27815ee1",
    "wof:hierarchy":[],
    "wof:id":572170657,
    "wof:lastmodified":1461051429,
    "wof:name":"All One Hardware",
    "wof:parent_id":-1,
    "wof:placetype":"venue",
    "wof:superseded_by":[],
    "wof:supersedes":[],
    "wof:tags":[
        "store"
    ]
},
  "bbox": [
    -74.319294,
    40.630361,
    -74.319294,
    40.630361
],
  "geometry": {"coordinates":[-74.319294,40.630361],"type":"Point"}
}