{
  "id": 571976971,
  "type": "Feature",
  "properties": {
    "edtf:cessation":"uuuu",
    "edtf:inception":"uuuu",
    "geom:area":0.0,
    "geom:bbox":"-74.780288,40.708175,-74.780288,40.708175",
    "geom:latitude":40.708175,
    "geom:longitude":-74.780288,
    "iso:country":"US",
    "sg:address":"25 Cliff St",
    "sg:city":"New York",
    "sg:classifiers":[
        {
            "category":"Professional",
            "subcategory":"Lawyer & Legal Services",
            "type":"Services"
        }
    ],
    "sg:owner":"simplegeo",
    "sg:phone":"+1 212 987 9000",
    "sg:postcode":"10038",
    "sg:province":"NY",
    "src:geom":"simplegeo",
    "wof:belongsto":[],
    "wof:breaches":[],
    "wof:concordances":{
        "sg:id":"SG_4qXIYdHfC6sJ6KIYanK4jE_40.708175_-74.780288@1303262314"
    },
    "wof:country":"US",
    "wof:geomhash":"f33f87d2efdadfa7c4b080142309a186",
    "wof:hierarchy":[],
    "wof:id":571976971,
    "wof:lastmodified":1461047240,
    "wof:name":"Janet Lazar Llc",
    "wof:parent_id":420527075,
    "wof:placetype":"venue",
    "wof:superseded_by":[],
    "wof:supersedes":[],
    "wof:tags":[]
},
  "bbox": [
    -74.780288,
    40.708175,
    -74.780288,
    40.708175
],
  "geometry": {"coordinates":[-74.780288,40.708175],"type":"Point"}
}