{
  "id": 572171503,
  "type": "Feature",
  "properties": {
    "edtf:cessation":"uuuu",
    "edtf:inception":"uuuu",
    "geom:area":0.0,
    "geom:bbox":"-74.089023,40.675176,-74.089023,40.675176",
    "geom:latitude":40.675176,
    "geom:longitude":-74.089023,
    "iso:country":"US",
    "sg:address":"327 Hamilton Ave",
    "sg:city":"Brooklyn",
    "sg:classifiers":[
        {
            "category":"Autos & Motor Vehicles",
            "subcategory":"Fuel & Gas Station",
            "type":"Retail Goods"
        }
    ],
    "sg:owner":"simplegeo",
    "sg:phone":"+1 718 243 1565",
    "sg:postcode":"11231",
    "sg:province":"NY",
    "sg:website":"www.bp.com/heliospower/modularho...",
    "src:geom":"simplegeo",
    "wof:belongsto":[
        85882065,
        102191575,
        404478139,
        85633793,
        85975295,
        102080719,
        85688607
    ],
    "wof:breaches":[],
    "wof:concordances":{
        "sg:id":"SG_4uaqpry2MS3Bm3nnXERah4_40.675176_-74.089023@1303262348"
    },
    "wof:country":"US",
    "wof:geomhash":"d7c0946d8e9efcdbd0b3392a052064ac",
    "wof:hierarchy":[
        {
            "continent_id":102191575,
            "country_id":85633793,
            "county_id":102080719,
            "localadmin_id":404478139,
            "locality_id":85975295,
            "neighbourhood_id":85882065,
            "region_id":85688607,
            "venue_id":572171503
        }
    ],
    "wof:id":572171503,
    "wof:lastmodified":1461051456,
    "wof:name":"Mohammad I Sajjad",
    "wof:parent_id":85882065,
    "wof:placetype":"venue",
    "wof:superseded_by":[],
    "wof:supersedes":[],
    "wof:tags":[]
},
  "bbox": [
    -74.089023,
    40.675176,
    -74.089023,
    40.675176
],
  "geometry": {"coordinates":[-74.089023,40.675176],"type":"Point"}
}