{
  "id": 571598897,
  "type": "Feature",
  "properties": {
    "edtf:cessation":"uuuu",
    "edtf:inception":"uuuu",
    "geom:area":0.0,
    "geom:bbox":"-74.262155,41.371274,-74.262155,41.371274",
    "geom:latitude":41.371274,
    "geom:longitude":-74.262155,
    "iso:country":"US",
    "sg:address":"102 High St",
    "sg:city":"Chester",
    "sg:classifiers":[],
    "sg:owner":"simplegeo",
    "sg:phone":"+1 845 469 9485",
    "sg:postcode":"10918",
    "sg:province":"NY",
    "sg:tags":[
        "vegetable",
        "farm"
    ],
    "src:geom":"simplegeo",
    "wof:belongsto":[],
    "wof:breaches":[],
    "wof:concordances":{
        "sg:id":"SG_21QjRtQzEy9hhbPiEie6gj_41.371274_-74.262155@1294177022"
    },
    "wof:country":"US",
    "wof:geomhash":"cff590d84c2e30391a0d286ea1566969",
    "wof:hierarchy":[],
    "wof:id":571598897,
    "wof:lastmodified":1461039335,
    "wof:name":"Nicotra Farms",
    "wof:parent_id":420529501,
    "wof:placetype":"venue",
    "wof:superseded_by":[],
    "wof:supersedes":[],
    "wof:tags":[
        "vegetable",
        "farm"
    ]
},
  "bbox": [
    -74.262155,
    41.371274,
    -74.262155,
    41.371274
],
  "geometry": {"coordinates":[-74.26215500000001,41.371274],"type":"Point"}
}