{
  "id": 554934543,
  "type": "Feature",
  "properties": {
    "edtf:cessation":"uuuu",
    "edtf:inception":"uuuu",
    "geom:area":0.0,
    "geom:bbox":"-74.054059,41.073373,-74.054059,41.073373",
    "geom:latitude":41.073373,
    "geom:longitude":-74.054059,
    "iso:country":"US",
    "sg:address":"116 Red Schoolhouse Rd",
    "sg:city":"Spring Valley",
    "sg:classifiers":[
        {
            "category":"Local Transit",
            "subcategory":"",
            "type":"Transportation"
        }
    ],
    "sg:owner":"simplegeo",
    "sg:phone":"+1 845 352 7288",
    "sg:postcode":"10977",
    "sg:province":"NY",
    "sg:tags":[
        "limousine"
    ],
    "src:geom":"simplegeo",
    "wof:belongsto":[
        85853261,
        102191575,
        404523097,
        85633793,
        85978555,
        102082385,
        85688543
    ],
    "wof:breaches":[],
    "wof:concordances":{
        "sg:id":"SG_7Fh0WqY0EgV2unAYjSR3Sk_41.073373_-74.054059@1294177022"
    },
    "wof:country":"US",
    "wof:geomhash":"9a6afe39e53091b7461c7367370ffa6a",
    "wof:hierarchy":[
        {
            "continent_id":102191575,
            "country_id":85633793,
            "county_id":102082385,
            "localadmin_id":404523097,
            "locality_id":85978555,
            "neighbourhood_id":85853261,
            "region_id":85688543,
            "venue_id":554934543
        }
    ],
    "wof:id":554934543,
    "wof:lastmodified":1461016955,
    "wof:name":"121 Transportation Specialist",
    "wof:parent_id":85853261,
    "wof:placetype":"venue",
    "wof:superseded_by":[],
    "wof:supersedes":[],
    "wof:tags":[
        "limousine"
    ]
},
  "bbox": [
    -74.054059,
    41.073373,
    -74.054059,
    41.073373
],
  "geometry": {"coordinates":[-74.054059,41.073373],"type":"Point"}
}