{
  "id": 554935407,
  "type": "Feature",
  "properties": {
    "edtf:cessation":"uuuu",
    "edtf:inception":"uuuu",
    "geom:area":0.0,
    "geom:bbox":"-73.606165,41.189778,-73.606165,41.189778",
    "geom:latitude":41.189778,
    "geom:longitude":-73.606165,
    "iso:country":"US",
    "sg:address":"334 Pine Brook Rd",
    "sg:city":"Bedford",
    "sg:classifiers":[
        {
            "category":"Banks & Credit Unions",
            "subcategory":"Financial Services",
            "type":"Services"
        }
    ],
    "sg:owner":"simplegeo",
    "sg:phone":"+1 914 764 4797",
    "sg:postcode":"10506",
    "sg:province":"NY",
    "sg:tags":[
        "investor"
    ],
    "src:geom":"simplegeo",
    "wof:belongsto":[
        85688629,
        85633793,
        85930787,
        102084283,
        85838073
    ],
    "wof:breaches":[],
    "wof:concordances":{
        "sg:id":"SG_1wioPUWix5BU4DH5LILZxI_41.189778_-73.606165@1294177022"
    },
    "wof:country":"US",
    "wof:geomhash":"23cb3ab3a329cefa5fca073e6e7a5947",
    "wof:hierarchy":[
        {
            "country_id":85633793,
            "county_id":102084283,
            "locality_id":85930787,
            "neighbourhood_id":85838073,
            "region_id":85688629,
            "venue_id":554935407
        }
    ],
    "wof:id":554935407,
    "wof:lastmodified":1461017066,
    "wof:name":"Constitution Capital Mgt",
    "wof:parent_id":85838073,
    "wof:placetype":"venue",
    "wof:superseded_by":[],
    "wof:supersedes":[],
    "wof:tags":[
        "investor"
    ]
},
  "bbox": [
    -73.606165,
    41.189778,
    -73.606165,
    41.189778
],
  "geometry": {"coordinates":[-73.606165,41.189778],"type":"Point"}
}