{
  "id": 554935839,
  "type": "Feature",
  "properties": {
    "edtf:cessation":"uuuu",
    "edtf:inception":"uuuu",
    "geom:area":0.0,
    "geom:bbox":"-73.46064,41.145904,-73.46064,41.145904",
    "geom:latitude":41.145904,
    "geom:longitude":-73.46064,
    "iso:country":"US",
    "sg:address":"367 Cedar Ln",
    "sg:city":"New Canaan",
    "sg:classifiers":[
        {
            "category":"Professional",
            "subcategory":"Computer Services",
            "type":"Services"
        }
    ],
    "sg:owner":"simplegeo",
    "sg:phone":"+1   ",
    "sg:postcode":"06840",
    "sg:province":"NY",
    "sg:tags":[
        "prepackaged",
        "software"
    ],
    "src:geom":"simplegeo",
    "wof:belongsto":[
        85688629,
        85633793,
        85848785,
        102084283
    ],
    "wof:breaches":[],
    "wof:concordances":{
        "sg:id":"SG_1WYCechDipTS3T9sDtrODl_41.145904_-73.460640@1294177022"
    },
    "wof:country":"US",
    "wof:geomhash":"76f2be253bb9f999c65d72453617bb90",
    "wof:hierarchy":[
        {
            "country_id":85633793,
            "county_id":102084283,
            "neighbourhood_id":85848785,
            "region_id":85688629,
            "venue_id":554935839
        }
    ],
    "wof:id":554935839,
    "wof:lastmodified":1461017127,
    "wof:name":"Dencom Computer Systems Inc",
    "wof:parent_id":85848785,
    "wof:placetype":"venue",
    "wof:superseded_by":[],
    "wof:supersedes":[],
    "wof:tags":[
        "prepackaged",
        "software"
    ]
},
  "bbox": [
    -73.46064,
    41.145904,
    -73.46064,
    41.145904
],
  "geometry": {"coordinates":[-73.46064,41.145904],"type":"Point"}
}