{
  "id": 554934961,
  "type": "Feature",
  "properties": {
    "edtf:cessation":"uuuu",
    "edtf:inception":"uuuu",
    "geom:area":0.0,
    "geom:bbox":"-77.302867,41.996114,-77.302867,41.996114",
    "geom:latitude":41.996114,
    "geom:longitude":-77.302867,
    "iso:country":"US",
    "sg:address":"110 Ellison Rd",
    "sg:city":"Elkland",
    "sg:classifiers":[
        {
            "category":"Education",
            "subcategory":"School",
            "type":"Public Place"
        }
    ],
    "sg:owner":"simplegeo",
    "sg:phone":"+1 814 258 5131",
    "sg:postcode":"16920",
    "sg:province":"NY",
    "src:geom":"simplegeo",
    "wof:belongsto":[
        85688481,
        85633793,
        101717081,
        102080937,
        85807903
    ],
    "wof:breaches":[],
    "wof:concordances":{
        "sg:id":"SG_6Sypcg9MTra6gr1StXHMse_41.996114_-77.302867@1294177022"
    },
    "wof:country":"US",
    "wof:geomhash":"f9835d20152b8c1bbea3d0e2bf4765d8",
    "wof:hierarchy":[
        {
            "country_id":85633793,
            "county_id":102080937,
            "locality_id":101717081,
            "neighbourhood_id":85807903,
            "region_id":85688481,
            "venue_id":554934961
        }
    ],
    "wof:id":554934961,
    "wof:lastmodified":1461017005,
    "wof:name":"Clark Wood Elementary School",
    "wof:parent_id":85807903,
    "wof:placetype":"venue",
    "wof:superseded_by":[],
    "wof:supersedes":[],
    "wof:tags":[]
},
  "bbox": [
    -77.302867,
    41.996114,
    -77.302867,
    41.996114
],
  "geometry": {"coordinates":[-77.30286700000001,41.996114],"type":"Point"}
}