{
  "id": 554937875,
  "type": "Feature",
  "properties": {
    "edtf:cessation":"uuuu",
    "edtf:inception":"uuuu",
    "geom:area":0.0,
    "geom:bbox":"-73.526157,41.13774,-73.526157,41.13774",
    "geom:latitude":41.13774,
    "geom:longitude":-73.526157,
    "iso:country":"US",
    "sg:address":"106 Bennington Pl",
    "sg:city":"New Canaan",
    "sg:classifiers":[
        {
            "category":"Professional",
            "subcategory":"",
            "type":"Services"
        }
    ],
    "sg:owner":"simplegeo",
    "sg:phone":"+1 203 966 2888",
    "sg:postcode":"06840",
    "sg:province":"NY",
    "src:geom":"simplegeo",
    "wof:belongsto":[
        85688629,
        85633793,
        85842701,
        102084283
    ],
    "wof:breaches":[],
    "wof:concordances":{
        "sg:id":"SG_3s7j0oCT6d8qXV2iWPOCGY_41.137740_-73.526157@1294177022"
    },
    "wof:country":"US",
    "wof:geomhash":"e62a94808522b95760160570e98a3f6d",
    "wof:hierarchy":[
        {
            "country_id":85633793,
            "county_id":102084283,
            "neighbourhood_id":85842701,
            "region_id":85688629,
            "venue_id":554937875
        }
    ],
    "wof:id":554937875,
    "wof:lastmodified":1461017425,
    "wof:name":"Marea Dumbauld",
    "wof:parent_id":85842701,
    "wof:placetype":"venue",
    "wof:superseded_by":[],
    "wof:supersedes":[],
    "wof:tags":[]
},
  "bbox": [
    -73.526157,
    41.13774,
    -73.526157,
    41.13774
],
  "geometry": {"coordinates":[-73.526157,41.13774],"type":"Point"}
}