{
  "id": 554940907,
  "type": "Feature",
  "properties": {
    "edtf:cessation":"uuuu",
    "edtf:inception":"uuuu",
    "geom:area":0.0,
    "geom:bbox":"-73.704878,41.093008,-73.704878,41.093008",
    "geom:latitude":41.093008,
    "geom:longitude":-73.704878,
    "iso:country":"US",
    "sg:address":"81 Bedford Rd",
    "sg:city":"Greenwich",
    "sg:classifiers":[
        {
            "category":"Building & Trades",
            "subcategory":"Landscaping Services",
            "type":"Services"
        }
    ],
    "sg:owner":"simplegeo",
    "sg:phone":"+1 203 531 7766",
    "sg:postcode":"06831",
    "sg:province":"NY",
    "sg:tags":[
        "landscape"
    ],
    "src:geom":"simplegeo",
    "wof:belongsto":[
        85688629,
        85633793,
        85837667,
        102084283
    ],
    "wof:breaches":[],
    "wof:concordances":{
        "sg:id":"SG_3VeEVj5TM6XdZVBTZCUuXF_41.093008_-73.704878@1294177022"
    },
    "wof:country":"US",
    "wof:geomhash":"e924b3d95b2eb3ecf8657b255fd9b1a5",
    "wof:hierarchy":[
        {
            "country_id":85633793,
            "county_id":102084283,
            "neighbourhood_id":85837667,
            "region_id":85688629,
            "venue_id":554940907
        }
    ],
    "wof:id":554940907,
    "wof:lastmodified":1461017689,
    "wof:name":"Bria Landscaping",
    "wof:parent_id":85837667,
    "wof:placetype":"venue",
    "wof:superseded_by":[],
    "wof:supersedes":[],
    "wof:tags":[
        "landscape"
    ]
},
  "bbox": [
    -73.704878,
    41.093008,
    -73.704878,
    41.093008
],
  "geometry": {"coordinates":[-73.70487799999999,41.093008],"type":"Point"}
}