{
  "id": 554938385,
  "type": "Feature",
  "properties": {
    "edtf:cessation":"uuuu",
    "edtf:inception":"uuuu",
    "geom:area":0.0,
    "geom:bbox":"-73.471434,41.158599,-73.471434,41.158599",
    "geom:latitude":41.158599,
    "geom:longitude":-73.471434,
    "iso:country":"US",
    "sg:address":"390 Silvermine Rd",
    "sg:city":"New Canaan",
    "sg:classifiers":[
        {
            "category":"Organizations",
            "subcategory":"Religious Organization",
            "type":"Services"
        }
    ],
    "sg:owner":"simplegeo",
    "sg:phone":"+1 203 966 0231",
    "sg:postcode":"06840",
    "sg:province":"NY",
    "sg:tags":[
        "church"
    ],
    "src:geom":"simplegeo",
    "wof:belongsto":[],
    "wof:breaches":[],
    "wof:concordances":{
        "sg:id":"SG_1DVsO5qe7bICjbxPllGz8K_41.158599_-73.471434@1294177022"
    },
    "wof:country":"US",
    "wof:geomhash":"86f9302537d2e3842b0b2a03e74d842e",
    "wof:hierarchy":[],
    "wof:id":554938385,
    "wof:lastmodified":1461017474,
    "wof:name":"New Canaan Community Fndtn Inc",
    "wof:parent_id":-1,
    "wof:placetype":"venue",
    "wof:superseded_by":[],
    "wof:supersedes":[],
    "wof:tags":[
        "church"
    ]
},
  "bbox": [
    -73.471434,
    41.158599,
    -73.471434,
    41.158599
],
  "geometry": {"coordinates":[-73.471434,41.158599],"type":"Point"}
}