{
  "id": 572171475,
  "type": "Feature",
  "properties": {
    "edtf:cessation":"uuuu",
    "edtf:inception":"uuuu",
    "geom:area":0.0,
    "geom:bbox":"-74.760833,40.681075,-74.760833,40.681075",
    "geom:latitude":40.681075,
    "geom:longitude":-74.760833,
    "iso:country":"US",
    "sg:address":"232 Van Brunt St",
    "sg:city":"Brooklyn",
    "sg:classifiers":[
        {
            "category":"Retail",
            "subcategory":"Auto Repair",
            "type":"Services"
        }
    ],
    "sg:owner":"simplegeo",
    "sg:phone":"+1 718 858 0450",
    "sg:postcode":"11231",
    "sg:province":"NY",
    "src:geom":"simplegeo",
    "wof:belongsto":[
        85688607,
        85633793,
        85833217,
        102085997
    ],
    "wof:breaches":[],
    "wof:concordances":{
        "sg:id":"SG_2Ztca8AuP8xWkKyiMwVsTL_40.681075_-74.760833@1303262348"
    },
    "wof:country":"US",
    "wof:geomhash":"d2b74fda8739f6273507aa569341095c",
    "wof:hierarchy":[
        {
            "country_id":85633793,
            "county_id":102085997,
            "neighbourhood_id":85833217,
            "region_id":85688607,
            "venue_id":572171475
        }
    ],
    "wof:id":572171475,
    "wof:lastmodified":1461051456,
    "wof:name":"Emilio's Auto Repair Corp",
    "wof:parent_id":85833217,
    "wof:placetype":"venue",
    "wof:superseded_by":[],
    "wof:supersedes":[],
    "wof:tags":[]
},
  "bbox": [
    -74.760833,
    40.681075,
    -74.760833,
    40.681075
],
  "geometry": {"coordinates":[-74.76083300000001,40.681075],"type":"Point"}
}