{
  "id": 554939941,
  "type": "Feature",
  "properties": {
    "edtf:cessation":"uuuu",
    "edtf:inception":"uuuu",
    "geom:area":0.0,
    "geom:bbox":"-73.492749,41.148081,-73.492749,41.148081",
    "geom:latitude":41.148081,
    "geom:longitude":-73.492749,
    "iso:country":"US",
    "sg:address":"70 Main St",
    "sg:city":"New Canaan",
    "sg:classifiers":[
        {
            "category":"Banks & Credit Unions",
            "subcategory":"Investment Brokerage",
            "type":"Services"
        },
        {
            "category":"Professional",
            "subcategory":"Management & Consulting",
            "type":"Services"
        }
    ],
    "sg:owner":"simplegeo",
    "sg:phone":"+1 203 966 7447",
    "sg:postcode":"06840",
    "sg:province":"NY",
    "sg:tags":[
        "consultant",
        "banker",
        "business"
    ],
    "sg:website":"www.warwickgroup.com",
    "src:geom":"simplegeo",
    "wof:belongsto":[
        85688629,
        85633793,
        85851779,
        102084283
    ],
    "wof:breaches":[],
    "wof:concordances":{
        "sg:id":"SG_6Jp8Tpod9Gw2hr06eDp4Zs_41.148081_-73.492749@1294177022"
    },
    "wof:country":"US",
    "wof:geomhash":"1e8d31cdedc1759e87ef2d1fb7976bd9",
    "wof:hierarchy":[
        {
            "country_id":85633793,
            "county_id":102084283,
            "neighbourhood_id":85851779,
            "region_id":85688629,
            "venue_id":554939941
        }
    ],
    "wof:id":554939941,
    "wof:lastmodified":1461017609,
    "wof:name":"Warwick & Co",
    "wof:parent_id":85851779,
    "wof:placetype":"venue",
    "wof:superseded_by":[],
    "wof:supersedes":[],
    "wof:tags":[
        "consultant",
        "banker",
        "business"
    ]
},
  "bbox": [
    -73.492749,
    41.148081,
    -73.492749,
    41.148081
],
  "geometry": {"coordinates":[-73.492749,41.148081],"type":"Point"}
}